{
"type": "FeatureCollection",
"name": "benguela_project_proximity_30km",
"crs": { "type": "name", "properties": { "name": "urn:ogc:def:crs:OGC:1.3:CRS84" } },
"features": [
{ "type": "Feature", "properties": { "source": "wb", "dist_to_cluster_km": 4.1500001, "within_radius": true, "proximity": "within_30km" }, "geometry": { "type": "Point", "coordinates": [ 13.502981, -12.430235 ] } },
{ "type": "Feature", "properties": { "source": "wb", "dist_to_cluster_km": 63.720001, "within_radius": false, "proximity": "beyond_30km" }, "geometry": { "type": "Point", "coordinates": [ 13.92658333, -11.99188889 ] } },
{ "type": "Feature", "properties": { "source": "wb", "dist_to_cluster_km": 64.410004, "within_radius": false, "proximity": "beyond_30km" }, "geometry": { "type": "Point", "coordinates": [ 13.92658333, -11.98361111 ] } },
{ "type": "Feature", "properties": { "source": "wb", "dist_to_cluster_km": 65.550003, "within_radius": false, "proximity": "beyond_30km" }, "geometry": { "type": "Point", "coordinates": [ 13.93563889, -11.97777778 ] } },
{ "type": "Feature", "properties": { "source": "wb", "dist_to_cluster_km": 68.129997, "within_radius": false, "proximity": "beyond_30km" }, "geometry": { "type": "Point", "coordinates": [ 13.96986111, -11.97677778 ] } },
{ "type": "Feature", "properties": { "source": "wb", "dist_to_cluster_km": 68.540001, "within_radius": false, "proximity": "beyond_30km" }, "geometry": { "type": "Point", "coordinates": [ 13.96986111, -11.97169444 ] } },
{ "type": "Feature", "properties": { "source": "wb", "dist_to_cluster_km": 71.089996, "within_radius": false, "proximity": "beyond_30km" }, "geometry": { "type": "Point", "coordinates": [ 13.97575, -11.94577778 ] } },
{ "type": "Feature", "properties": { "source": "wb", "dist_to_cluster_km": 61.610001, "within_radius": false, "proximity": "beyond_30km" }, "geometry": { "type": "Point", "coordinates": [ 13.95425, -12.04463889 ] } },
{ "type": "Feature", "properties": { "source": "wb", "dist_to_cluster_km": 61.279999, "within_radius": false, "proximity": "beyond_30km" }, "geometry": { "type": "Point", "coordinates": [ 13.95227778, -12.04691667 ] } },
{ "type": "Feature", "properties": { "source": "wb", "dist_to_cluster_km": 57.689999, "within_radius": false, "proximity": "beyond_30km" }, "geometry": { "type": "Point", "coordinates": [ 13.94530556, -12.08802778 ] } },
{ "type": "Feature", "properties": { "source": "wb", "dist_to_cluster_km": 61.18, "within_radius": false, "proximity": "beyond_30km" }, "geometry": { "type": "Point", "coordinates": [ 13.91877778, -12.01580556 ] } },
{ "type": "Feature", "properties": { "source": "wb", "dist_to_cluster_km": 61.740002, "within_radius": false, "proximity": "beyond_30km" }, "geometry": { "type": "Point", "coordinates": [ 13.92405556, -12.01369444 ] } },
{ "type": "Feature", "properties": { "source": "wb", "dist_to_cluster_km": 54.509998, "within_radius": false, "proximity": "beyond_30km" }, "geometry": { "type": "Point", "coordinates": [ 13.92233333, -12.10586111 ] } },
{ "type": "Feature", "properties": { "source": "wb", "dist_to_cluster_km": 76.300003, "within_radius": false, "proximity": "beyond_30km" }, "geometry": { "type": "Point", "coordinates": [ 13.85897222, -11.81066667 ] } },
{ "type": "Feature", "properties": { "source": "wb", "dist_to_cluster_km": 50.119999, "within_radius": false, "proximity": "beyond_30km" }, "geometry": { "type": "Point", "coordinates": [ 13.91002778, -12.15422222 ] } },
{ "type": "Feature", "properties": { "source": "wb", "dist_to_cluster_km": 83.779999, "within_radius": false, "proximity": "beyond_30km" }, "geometry": { "type": "Point", "coordinates": [ 14.06216667, -11.86805556 ] } },
{ "type": "Feature", "properties": { "source": "wb", "dist_to_cluster_km": 62.52, "within_radius": false, "proximity": "beyond_30km" }, "geometry": { "type": "Point", "coordinates": [ 14.02297222, -12.11763889 ] } },
{ "type": "Feature", "properties": { "source": "wb", "dist_to_cluster_km": 101.29, "within_radius": false, "proximity": "beyond_30km" }, "geometry": { "type": "Point", "coordinates": [ 14.63861111, -12.08 ] } },
{ "type": "Feature", "properties": { "source": "wb", "dist_to_cluster_km": 36.0, "within_radius": false, "proximity": "beyond_30km" }, "geometry": { "type": "Point", "coordinates": [ 13.8477, -12.30325 ] } },
{ "type": "Feature", "properties": { "source": "wb", "dist_to_cluster_km": 19.959999, "within_radius": true, "proximity": "within_30km" }, "geometry": { "type": "Point", "coordinates": [ 14.8, -12.9167 ] } },
{ "type": "Feature", "properties": { "source": "wb", "dist_to_cluster_km": 72.389999, "within_radius": false, "proximity": "beyond_30km" }, "geometry": { "type": "Point", "coordinates": [ 14.7682393, -12.3545192 ] } },
{ "type": "Feature", "properties": { "source": "wb", "dist_to_cluster_km": 31.950001, "within_radius": false, "proximity": "beyond_30km" }, "geometry": { "type": "Point", "coordinates": [ 14.00276944, -13.02198333 ] } },
{ "type": "Feature", "properties": { "source": "wb", "dist_to_cluster_km": null, "within_radius": false, "proximity": "beyond_30km" }, "geometry": { "type": "Point", "coordinates": [ -1.7976931348623157e+308, -1.7976931348623157e+308 ] } },
{ "type": "Feature", "properties": { "source": "wb", "dist_to_cluster_km": 6.9699998, "within_radius": true, "proximity": "within_30km" }, "geometry": { "type": "Point", "coordinates": [ 13.48618333, -12.60254167 ] } },
{ "type": "Feature", "properties": { "source": "wb", "dist_to_cluster_km": 7.3400002, "within_radius": true, "proximity": "within_30km" }, "geometry": { "type": "Point", "coordinates": [ 14.25963, -13.04825 ] } },
{ "type": "Feature", "properties": { "source": "wb", "dist_to_cluster_km": 7.3200002, "within_radius": true, "proximity": "within_30km" }, "geometry": { "type": "Point", "coordinates": [ 14.25974, -13.04839 ] } }
]
}
