{
"type": "FeatureCollection",
"name": "huambo_project_proximity_30km",
"crs": { "type": "name", "properties": { "name": "urn:ogc:def:crs:OGC:1.3:CRS84" } },
"features": [
{ "type": "Feature", "properties": { "source": "wb", "dist_to_cluster_km": 10.39, "within_radius": true, "proximity": "within_30km" }, "geometry": { "type": "Point", "coordinates": [ 15.5264, -12.8571 ] } },
{ "type": "Feature", "properties": { "source": "wb", "dist_to_cluster_km": 14.41, "within_radius": true, "proximity": "within_30km" }, "geometry": { "type": "Point", "coordinates": [ 15.59792, -12.80258 ] } },
{ "type": "Feature", "properties": { "source": "wb", "dist_to_cluster_km": 46.5, "within_radius": false, "proximity": "beyond_30km" }, "geometry": { "type": "Point", "coordinates": [ 16.2218, -12.6158 ] } },
{ "type": "Feature", "properties": { "source": "wb", "dist_to_cluster_km": 57.630001, "within_radius": false, "proximity": "beyond_30km" }, "geometry": { "type": "Point", "coordinates": [ 16.2347, -12.4255 ] } },
{ "type": "Feature", "properties": { "source": "wb", "dist_to_cluster_km": 17.17, "within_radius": true, "proximity": "within_30km" }, "geometry": { "type": "Point", "coordinates": [ 15.6567644, -12.722314 ] } },
{ "type": "Feature", "properties": { "source": "wb", "dist_to_cluster_km": 22.629999, "within_radius": true, "proximity": "within_30km" }, "geometry": { "type": "Point", "coordinates": [ 15.5992379, -12.7280638 ] } },
{ "type": "Feature", "properties": { "source": "wb", "dist_to_cluster_km": 26.190001, "within_radius": true, "proximity": "within_30km" }, "geometry": { "type": "Point", "coordinates": [ 15.7989893, -13.039864 ] } },
{ "type": "Feature", "properties": { "source": "wb", "dist_to_cluster_km": 16.51, "within_radius": true, "proximity": "within_30km" }, "geometry": { "type": "Point", "coordinates": [ 15.8237445, -12.8910687 ] } },
{ "type": "Feature", "properties": { "source": "wb", "dist_to_cluster_km": 15.27, "within_radius": true, "proximity": "within_30km" }, "geometry": { "type": "Point", "coordinates": [ 15.8320598, -12.8790299 ] } },
{ "type": "Feature", "properties": { "source": "wb", "dist_to_cluster_km": 23.610001, "within_radius": true, "proximity": "within_30km" }, "geometry": { "type": "Point", "coordinates": [ 15.716523, -12.551236 ] } },
{ "type": "Feature", "properties": { "source": "wb", "dist_to_cluster_km": 17.049999, "within_radius": true, "proximity": "within_30km" }, "geometry": { "type": "Point", "coordinates": [ 15.6568397, -12.7333288 ] } },
{ "type": "Feature", "properties": { "source": "wb", "dist_to_cluster_km": 22.719999, "within_radius": true, "proximity": "within_30km" }, "geometry": { "type": "Point", "coordinates": [ 15.5840385, -12.7267313 ] } },
{ "type": "Feature", "properties": { "source": "wb", "dist_to_cluster_km": 17.049999, "within_radius": true, "proximity": "within_30km" }, "geometry": { "type": "Point", "coordinates": [ 15.6568397, -12.7333288 ] } },
{ "type": "Feature", "properties": { "source": "wb", "dist_to_cluster_km": 26.59, "within_radius": true, "proximity": "within_30km" }, "geometry": { "type": "Point", "coordinates": [ 15.8062687, -13.0333223 ] } },
{ "type": "Feature", "properties": { "source": "wb", "dist_to_cluster_km": 13.68, "within_radius": true, "proximity": "within_30km" }, "geometry": { "type": "Point", "coordinates": [ 15.8456872, -12.8617312 ] } },
{ "type": "Feature", "properties": { "source": "wb", "dist_to_cluster_km": 14.1, "within_radius": true, "proximity": "within_30km" }, "geometry": { "type": "Point", "coordinates": [ 15.8279142, -12.8688398 ] } },
{ "type": "Feature", "properties": { "source": "wb", "dist_to_cluster_km": 22.469999, "within_radius": true, "proximity": "within_30km" }, "geometry": { "type": "Point", "coordinates": [ 15.7184063, -12.5618831 ] } },
{ "type": "Feature", "properties": { "source": "wb", "dist_to_cluster_km": 24.280001, "within_radius": true, "proximity": "within_30km" }, "geometry": { "type": "Point", "coordinates": [ 15.6746136, -12.5702552 ] } },
{ "type": "Feature", "properties": { "source": "wb", "dist_to_cluster_km": 19.08, "within_radius": true, "proximity": "within_30km" }, "geometry": { "type": "Point", "coordinates": [ 15.7060396, -12.6057394 ] } },
{ "type": "Feature", "properties": { "source": "wb", "dist_to_cluster_km": 12.99, "within_radius": true, "proximity": "within_30km" }, "geometry": { "type": "Point", "coordinates": [ 15.7649885, -12.6348741 ] } },
{ "type": "Feature", "properties": { "source": "wb", "dist_to_cluster_km": 27.51, "within_radius": true, "proximity": "within_30km" }, "geometry": { "type": "Point", "coordinates": [ 15.3483709, -13.0238936 ] } },
{ "type": "Feature", "properties": { "source": "wb", "dist_to_cluster_km": 82.400002, "within_radius": false, "proximity": "beyond_30km" }, "geometry": { "type": "Point", "coordinates": [ 14.8426, -12.7721 ] } },
{ "type": "Feature", "properties": { "source": "wb", "dist_to_cluster_km": 80.379997, "within_radius": false, "proximity": "beyond_30km" }, "geometry": { "type": "Point", "coordinates": [ 14.872, -12.7327 ] } },
{ "type": "Feature", "properties": { "source": "wb", "dist_to_cluster_km": 72.32, "within_radius": false, "proximity": "beyond_30km" }, "geometry": { "type": "Point", "coordinates": [ 14.9495, -12.7329 ] } },
{ "type": "Feature", "properties": { "source": "wb", "dist_to_cluster_km": 67.68, "within_radius": false, "proximity": "beyond_30km" }, "geometry": { "type": "Point", "coordinates": [ 14.9692, -12.83 ] } },
{ "type": "Feature", "properties": { "source": "wb", "dist_to_cluster_km": 73.510002, "within_radius": false, "proximity": "beyond_30km" }, "geometry": { "type": "Point", "coordinates": [ 14.9118, -12.8505 ] } },
{ "type": "Feature", "properties": { "source": "wb", "dist_to_cluster_km": 73.580002, "within_radius": false, "proximity": "beyond_30km" }, "geometry": { "type": "Point", "coordinates": [ 14.9099, -12.8615 ] } },
{ "type": "Feature", "properties": { "source": "wb", "dist_to_cluster_km": 32.369999, "within_radius": false, "proximity": "beyond_30km" }, "geometry": { "type": "Point", "coordinates": [ 16.0475684, -12.5610345 ] } },
{ "type": "Feature", "properties": { "source": "wb", "dist_to_cluster_km": 29.74, "within_radius": true, "proximity": "within_30km" }, "geometry": { "type": "Point", "coordinates": [ 16.0108371, -12.5558828 ] } },
{ "type": "Feature", "properties": { "source": "wb", "dist_to_cluster_km": 25.040001, "within_radius": true, "proximity": "within_30km" }, "geometry": { "type": "Point", "coordinates": [ 15.9000005, -12.5323524 ] } },
{ "type": "Feature", "properties": { "source": "wb", "dist_to_cluster_km": 20.790001, "within_radius": true, "proximity": "within_30km" }, "geometry": { "type": "Point", "coordinates": [ 15.85686013, -12.55910948 ] } },
{ "type": "Feature", "properties": { "source": "wb", "dist_to_cluster_km": 22.639999, "within_radius": true, "proximity": "within_30km" }, "geometry": { "type": "Point", "coordinates": [ 15.8353055, -12.5386274 ] } },
{ "type": "Feature", "properties": { "source": "wb", "dist_to_cluster_km": 23.9, "within_radius": true, "proximity": "within_30km" }, "geometry": { "type": "Point", "coordinates": [ 15.8393517, -12.5276705 ] } },
{ "type": "Feature", "properties": { "source": "wb", "dist_to_cluster_km": 28.120001, "within_radius": true, "proximity": "within_30km" }, "geometry": { "type": "Point", "coordinates": [ 15.80946062, -12.48806005 ] } },
{ "type": "Feature", "properties": { "source": "wb", "dist_to_cluster_km": 27.4, "within_radius": true, "proximity": "within_30km" }, "geometry": { "type": "Point", "coordinates": [ 16.0147384, -12.5928052 ] } },
{ "type": "Feature", "properties": { "source": "wb", "dist_to_cluster_km": 33.599998, "within_radius": false, "proximity": "beyond_30km" }, "geometry": { "type": "Point", "coordinates": [ 16.0952236, -12.6166219 ] } },
{ "type": "Feature", "properties": { "source": "wb", "dist_to_cluster_km": 24.879999, "within_radius": true, "proximity": "within_30km" }, "geometry": { "type": "Point", "coordinates": [ 16.00378707, -12.61702845 ] } },
{ "type": "Feature", "properties": { "source": "wb", "dist_to_cluster_km": 45.02, "within_radius": false, "proximity": "beyond_30km" }, "geometry": { "type": "Point", "coordinates": [ 15.21858319, -12.73976599 ] } },
{ "type": "Feature", "properties": { "source": "wb", "dist_to_cluster_km": 51.52, "within_radius": false, "proximity": "beyond_30km" }, "geometry": { "type": "Point", "coordinates": [ 15.11665982, -12.85058095 ] } }
]
}
