{
"type": "FeatureCollection",
"name": "benguela_od_flow_lines",
"crs": { "type": "name", "properties": { "name": "urn:ogc:def:crs:OGC:1.3:CRS84" } },
"features": [
{ "type": "Feature", "properties": { "origin_code": "AGO002003", "origin_name": "Benguela", "dest_code": "AGO002006", "dest_name": "Catumbela", "flow": 103693.37191216301, "flow_norm": 1.0, "dist_km": 32.88235518118757, "origin_pop": 824260.0625, "dest_pop": 391884.46875, "origin_in_priority": true, "dest_in_priority": true, "both_in_priority": true }, "geometry": { "type": "LineString", "coordinates": [ [ 13.606808735984895, -12.750377863103139 ], [ 13.678599224650831, -12.463079033059952 ] ] } },
{ "type": "Feature", "properties": { "origin_code": "AGO002003", "origin_name": "Benguela", "dest_code": "AGO002010", "dest_name": "Lobito", "flow": 53129.538581175839, "flow_norm": 0.51237159715647995, "dist_km": 80.791698219976709, "origin_pop": 824260.0625, "dest_pop": 439822.1875, "origin_in_priority": true, "dest_in_priority": true, "both_in_priority": true }, "geometry": { "type": "LineString", "coordinates": [ [ 13.606808735984895, -12.750377863103139 ], [ 13.890717897535488, -12.078786506578632 ] ] } },
{ "type": "Feature", "properties": { "origin_code": "AGO002003", "origin_name": "Benguela", "dest_code": "AGO002008", "dest_name": "Cubal", "flow": 45650.19796538393, "flow_norm": 0.44024219796857872, "dist_km": 91.872192571238458, "origin_pop": 824260.0625, "dest_pop": 451608.15625, "origin_in_priority": true, "dest_in_priority": true, "both_in_priority": true }, "geometry": { "type": "LineString", "coordinates": [ [ 13.606808735984895, -12.750377863103139 ], [ 14.342938605836135, -13.160256096190356 ] ] } },
{ "type": "Feature", "properties": { "origin_code": "AGO002006", "origin_name": "Catumbela", "dest_code": "AGO002010", "dest_name": "Lobito", "flow": 41826.906985931877, "flow_norm": 0.40337107584236703, "dist_km": 48.550687128206405, "origin_pop": 391884.46875, "dest_pop": 439822.1875, "origin_in_priority": true, "dest_in_priority": true, "both_in_priority": true }, "geometry": { "type": "LineString", "coordinates": [ [ 13.678599224650831, -12.463079033059952 ], [ 13.890717897535488, -12.078786506578632 ] ] } },
{ "type": "Feature", "properties": { "origin_code": "AGO002008", "origin_name": "Cubal", "dest_code": "AGO002009", "dest_name": "Ganda", "flow": 39421.113907415514, "flow_norm": 0.38017004539893356, "dist_km": 41.883884087136181, "origin_pop": 451608.15625, "dest_pop": 351592.34375, "origin_in_priority": true, "dest_in_priority": true, "both_in_priority": true }, "geometry": { "type": "LineString", "coordinates": [ [ 14.342938605836135, -13.160256096190356 ], [ 14.727623192863389, -13.120928769898912 ] ] } },
{ "type": "Feature", "properties": { "origin_code": "AGO002003", "origin_name": "Benguela", "dest_code": "AGO002004", "dest_name": "Bocoio", "flow": 27622.972799462983, "flow_norm": 0.26639092055818148, "dist_km": 85.094850962673704, "origin_pop": 824260.0625, "dest_pop": 246558.0625, "origin_in_priority": true, "dest_in_priority": false, "both_in_priority": false }, "geometry": { "type": "LineString", "coordinates": [ [ 13.606808735984895, -12.750377863103139 ], [ 14.265992051752592, -12.33610684464549 ] ] } },
{ "type": "Feature", "properties": { "origin_code": "AGO002003", "origin_name": "Benguela", "dest_code": "AGO002005", "dest_name": "Caimbambo", "flow": 24313.948062065283, "flow_norm": 0.23447928844151425, "dist_km": 51.68362733265802, "origin_pop": 824260.0625, "dest_pop": 132300.5625, "origin_in_priority": true, "dest_in_priority": true, "both_in_priority": true }, "geometry": { "type": "LineString", "coordinates": [ [ 13.606808735984895, -12.750377863103139 ], [ 13.918616702847871, -13.102061760460922 ] ] } },
{ "type": "Feature", "properties": { "origin_code": "AGO002004", "origin_name": "Bocoio", "dest_code": "AGO002010", "dest_name": "Lobito", "flow": 23924.080500250093, "flow_norm": 0.23071947665580589, "dist_km": 49.820777132530608, "origin_pop": 246558.0625, "dest_pop": 439822.1875, "origin_in_priority": false, "dest_in_priority": true, "both_in_priority": false }, "geometry": { "type": "LineString", "coordinates": [ [ 14.265992051752592, -12.33610684464549 ], [ 13.890717897535488, -12.078786506578632 ] ] } },
{ "type": "Feature", "properties": { "origin_code": "AGO002003", "origin_name": "Benguela", "dest_code": "AGO002009", "dest_name": "Ganda", "flow": 20842.393986175914, "flow_norm": 0.20100025297500373, "dist_km": 128.26412065131862, "origin_pop": 824260.0625, "dest_pop": 351592.34375, "origin_in_priority": true, "dest_in_priority": true, "both_in_priority": true }, "geometry": { "type": "LineString", "coordinates": [ [ 13.606808735984895, -12.750377863103139 ], [ 14.727623192863389, -13.120928769898912 ] ] } },
{ "type": "Feature", "properties": { "origin_code": "AGO002001", "origin_name": "Baia Farta", "dest_code": "AGO002003", "dest_name": "Benguela", "flow": 20274.574144435344, "flow_norm": 0.19552430180021158, "dist_km": 71.387887856338082, "origin_pop": 144211.234375, "dest_pop": 824260.0625, "origin_in_priority": false, "dest_in_priority": true, "both_in_priority": false }, "geometry": { "type": "LineString", "coordinates": [ [ 13.108383988736881, -13.17018890078392 ], [ 13.606808735984895, -12.750377863103139 ] ] } },
{ "type": "Feature", "properties": { "origin_code": "AGO002004", "origin_name": "Bocoio", "dest_code": "AGO002006", "dest_name": "Catumbela", "flow": 18033.516509516034, "flow_norm": 0.17391194998260773, "dist_km": 65.335340142165094, "origin_pop": 246558.0625, "dest_pop": 391884.46875, "origin_in_priority": false, "dest_in_priority": true, "both_in_priority": false }, "geometry": { "type": "LineString", "coordinates": [ [ 14.265992051752592, -12.33610684464549 ], [ 13.678599224650831, -12.463079033059952 ] ] } },
{ "type": "Feature", "properties": { "origin_code": "AGO002006", "origin_name": "Catumbela", "dest_code": "AGO002008", "dest_name": "Cubal", "flow": 17974.437064881447, "flow_norm": 0.17334219857472957, "dist_km": 105.82212432622838, "origin_pop": 391884.46875, "dest_pop": 451608.15625, "origin_in_priority": true, "dest_in_priority": true, "both_in_priority": true }, "geometry": { "type": "LineString", "coordinates": [ [ 13.678599224650831, -12.463079033059952 ], [ 14.342938605836135, -13.160256096190356 ] ] } },
{ "type": "Feature", "properties": { "origin_code": "AGO002005", "origin_name": "Caimbambo", "dest_code": "AGO002008", "dest_name": "Cubal", "flow": 13624.646383850531, "flow_norm": 0.13139360918257872, "dist_km": 46.402208578070081, "origin_pop": 132300.5625, "dest_pop": 451608.15625, "origin_in_priority": true, "dest_in_priority": true, "both_in_priority": true }, "geometry": { "type": "LineString", "coordinates": [ [ 13.918616702847871, -13.102061760460922 ], [ 14.342938605836135, -13.160256096190356 ] ] } },
{ "type": "Feature", "properties": { "origin_code": "AGO002008", "origin_name": "Cubal", "dest_code": "AGO002010", "dest_name": "Lobito", "flow": 13170.991277037429, "flow_norm": 0.12701864192625892, "dist_km": 129.88004491310545, "origin_pop": 451608.15625, "dest_pop": 439822.1875, "origin_in_priority": true, "dest_in_priority": true, "both_in_priority": true }, "geometry": { "type": "LineString", "coordinates": [ [ 14.342938605836135, -13.160256096190356 ], [ 13.890717897535488, -12.078786506578632 ] ] } },
{ "type": "Feature", "properties": { "origin_code": "AGO002004", "origin_name": "Bocoio", "dest_code": "AGO002008", "dest_name": "Cubal", "flow": 12888.96699224254, "flow_norm": 0.1242988510698695, "dist_km": 92.02051937880978, "origin_pop": 246558.0625, "dest_pop": 451608.15625, "origin_in_priority": false, "dest_in_priority": true, "both_in_priority": false }, "geometry": { "type": "LineString", "coordinates": [ [ 14.265992051752592, -12.33610684464549 ], [ 14.342938605836135, -13.160256096190356 ] ] } },
{ "type": "Feature", "properties": { "origin_code": "AGO002003", "origin_name": "Benguela", "dest_code": "AGO002007", "dest_name": "Chongoroi", "flow": 12174.562927611605, "flow_norm": 0.11740926833707829, "dist_km": 96.241204391601357, "origin_pop": 824260.0625, "dest_pop": 128658.0390625, "origin_in_priority": true, "dest_in_priority": false, "both_in_priority": false }, "geometry": { "type": "LineString", "coordinates": [ [ 13.606808735984895, -12.750377863103139 ], [ 13.798691510857758, -13.595489187582498 ] ] } },
{ "type": "Feature", "properties": { "origin_code": "AGO002006", "origin_name": "Catumbela", "dest_code": "AGO002009", "dest_name": "Ganda", "flow": 9111.4651610194833, "flow_norm": 0.087869311152670965, "dist_km": 135.24059896489857, "origin_pop": 391884.46875, "dest_pop": 351592.34375, "origin_in_priority": true, "dest_in_priority": true, "both_in_priority": true }, "geometry": { "type": "LineString", "coordinates": [ [ 13.678599224650831, -12.463079033059952 ], [ 14.727623192863389, -13.120928769898912 ] ] } },
{ "type": "Feature", "properties": { "origin_code": "AGO002004", "origin_name": "Bocoio", "dest_code": "AGO002009", "dest_name": "Ganda", "flow": 8929.5507241619689, "flow_norm": 0.086114961443495619, "dist_km": 100.61156292272844, "origin_pop": 246558.0625, "dest_pop": 351592.34375, "origin_in_priority": false, "dest_in_priority": true, "both_in_priority": false }, "geometry": { "type": "LineString", "coordinates": [ [ 14.265992051752592, -12.33610684464549 ], [ 14.727623192863389, -13.120928769898912 ] ] } },
{ "type": "Feature", "properties": { "origin_code": "AGO002002", "origin_name": "Balombo", "dest_code": "AGO002003", "dest_name": "Benguela", "flow": 8758.4478014010692, "flow_norm": 0.084464876007891904, "dist_km": 134.33617138776768, "origin_pop": 160910.046875, "dest_pop": 824260.0625, "origin_in_priority": false, "dest_in_priority": true, "both_in_priority": false }, "geometry": { "type": "LineString", "coordinates": [ [ 14.778445268600096, -12.360912262514525 ], [ 13.606808735984895, -12.750377863103139 ] ] } },
{ "type": "Feature", "properties": { "origin_code": "AGO002007", "origin_name": "Chongoroi", "dest_code": "AGO002008", "dest_name": "Cubal", "flow": 8511.1559445469884, "flow_norm": 0.082080038363075425, "dist_km": 76.213199560844615, "origin_pop": 128658.0390625, "dest_pop": 451608.15625, "origin_in_priority": false, "dest_in_priority": true, "both_in_priority": false }, "geometry": { "type": "LineString", "coordinates": [ [ 13.798691510857758, -13.595489187582498 ], [ 14.342938605836135, -13.160256096190356 ] ] } },
{ "type": "Feature", "properties": { "origin_code": "AGO002005", "origin_name": "Caimbambo", "dest_code": "AGO002006", "dest_name": "Catumbela", "flow": 8235.5871351620408, "flow_norm": 0.079422502936236608, "dist_km": 75.668769967920852, "origin_pop": 132300.5625, "dest_pop": 391884.46875, "origin_in_priority": true, "dest_in_priority": true, "both_in_priority": true }, "geometry": { "type": "LineString", "coordinates": [ [ 13.918616702847871, -13.102061760460922 ], [ 13.678599224650831, -12.463079033059952 ] ] } },
{ "type": "Feature", "properties": { "origin_code": "AGO002002", "origin_name": "Balombo", "dest_code": "AGO002004", "dest_name": "Bocoio", "flow": 8058.0036771486302, "flow_norm": 0.077709920398523022, "dist_km": 55.732270488338237, "origin_pop": 160910.046875, "dest_pop": 246558.0625, "origin_in_priority": false, "dest_in_priority": false, "both_in_priority": false }, "geometry": { "type": "LineString", "coordinates": [ [ 14.778445268600096, -12.360912262514525 ], [ 14.265992051752592, -12.33610684464549 ] ] } },
{ "type": "Feature", "properties": { "origin_code": "AGO002009", "origin_name": "Ganda", "dest_code": "AGO002010", "dest_name": "Lobito", "flow": 8001.6883541456118, "flow_norm": 0.077166825676415585, "dist_km": 147.2283302126076, "origin_pop": 351592.34375, "dest_pop": 439822.1875, "origin_in_priority": true, "dest_in_priority": true, "both_in_priority": true }, "geometry": { "type": "LineString", "coordinates": [ [ 14.727623192863389, -13.120928769898912 ], [ 13.890717897535488, -12.078786506578632 ] ] } },
{ "type": "Feature", "properties": { "origin_code": "AGO002002", "origin_name": "Balombo", "dest_code": "AGO002009", "dest_name": "Ganda", "flow": 7524.658145033216, "flow_norm": 0.072566433189261439, "dist_km": 84.689658395412238, "origin_pop": 160910.046875, "dest_pop": 351592.34375, "origin_in_priority": false, "dest_in_priority": true, "both_in_priority": false }, "geometry": { "type": "LineString", "coordinates": [ [ 14.778445268600096, -12.360912262514525 ], [ 14.727623192863389, -13.120928769898912 ] ] } },
{ "type": "Feature", "properties": { "origin_code": "AGO002002", "origin_name": "Balombo", "dest_code": "AGO002008", "dest_name": "Cubal", "flow": 7514.9045952757624, "flow_norm": 0.07247237173116057, "dist_km": 100.65212439833968, "origin_pop": 160910.046875, "dest_pop": 451608.15625, "origin_in_priority": false, "dest_in_priority": true, "both_in_priority": false }, "geometry": { "type": "LineString", "coordinates": [ [ 14.778445268600096, -12.360912262514525 ], [ 14.342938605836135, -13.160256096190356 ] ] } },
{ "type": "Feature", "properties": { "origin_code": "AGO002002", "origin_name": "Balombo", "dest_code": "AGO002010", "dest_name": "Lobito", "flow": 7319.1089133329197, "flow_norm": 0.070584153821642709, "dist_km": 101.44662021788274, "origin_pop": 160910.046875, "dest_pop": 439822.1875, "origin_in_priority": false, "dest_in_priority": true, "both_in_priority": false }, "geometry": { "type": "LineString", "coordinates": [ [ 14.778445268600096, -12.360912262514525 ], [ 13.890717897535488, -12.078786506578632 ] ] } },
{ "type": "Feature", "properties": { "origin_code": "AGO002001", "origin_name": "Baia Farta", "dest_code": "AGO002006", "dest_name": "Catumbela", "flow": 6404.7279619513602, "flow_norm": 0.061766030401409863, "dist_km": 100.0227380078513, "origin_pop": 144211.234375, "dest_pop": 391884.46875, "origin_in_priority": false, "dest_in_priority": true, "both_in_priority": false }, "geometry": { "type": "LineString", "coordinates": [ [ 13.108383988736881, -13.17018890078392 ], [ 13.678599224650831, -12.463079033059952 ] ] } },
{ "type": "Feature", "properties": { "origin_code": "AGO002005", "origin_name": "Caimbambo", "dest_code": "AGO002009", "dest_name": "Ganda", "flow": 5784.6714523073924, "flow_norm": 0.055786318311719041, "dist_km": 87.637467456464435, "origin_pop": 132300.5625, "dest_pop": 351592.34375, "origin_in_priority": true, "dest_in_priority": true, "both_in_priority": true }, "geometry": { "type": "LineString", "coordinates": [ [ 13.918616702847871, -13.102061760460922 ], [ 14.727623192863389, -13.120928769898912 ] ] } },
{ "type": "Feature", "properties": { "origin_code": "AGO002002", "origin_name": "Balombo", "dest_code": "AGO002006", "dest_name": "Catumbela", "flow": 5272.912431084389, "flow_norm": 0.050851007483400081, "dist_km": 119.97800221472444, "origin_pop": 160910.046875, "dest_pop": 391884.46875, "origin_in_priority": false, "dest_in_priority": true, "both_in_priority": false }, "geometry": { "type": "LineString", "coordinates": [ [ 14.778445268600096, -12.360912262514525 ], [ 13.678599224650831, -12.463079033059952 ] ] } },
{ "type": "Feature", "properties": { "origin_code": "AGO002005", "origin_name": "Caimbambo", "dest_code": "AGO002010", "dest_name": "Lobito", "flow": 4884.5615361672644, "flow_norm": 0.047105822157127823, "dist_km": 113.8234458626807, "origin_pop": 132300.5625, "dest_pop": 439822.1875, "origin_in_priority": true, "dest_in_priority": true, "both_in_priority": true }, "geometry": { "type": "LineString", "coordinates": [ [ 13.918616702847871, -13.102061760460922 ], [ 13.890717897535488, -12.078786506578632 ] ] } },
{ "type": "Feature", "properties": { "origin_code": "AGO002001", "origin_name": "Baia Farta", "dest_code": "AGO002008", "dest_name": "Cubal", "flow": 4123.4998126884739, "flow_norm": 0.039766281457038782, "dist_km": 133.67283781352347, "origin_pop": 144211.234375, "dest_pop": 451608.15625, "origin_in_priority": false, "dest_in_priority": true, "both_in_priority": false }, "geometry": { "type": "LineString", "coordinates": [ [ 13.108383988736881, -13.17018890078392 ], [ 14.342938605836135, -13.160256096190356 ] ] } },
{ "type": "Feature", "properties": { "origin_code": "AGO002007", "origin_name": "Chongoroi", "dest_code": "AGO002009", "dest_name": "Ganda", "flow": 3833.5807674846674, "flow_norm": 0.0369703549686091, "dist_km": 113.50910201536284, "origin_pop": 128658.0390625, "dest_pop": 351592.34375, "origin_in_priority": false, "dest_in_priority": true, "both_in_priority": false }, "geometry": { "type": "LineString", "coordinates": [ [ 13.798691510857758, -13.595489187582498 ], [ 14.727623192863389, -13.120928769898912 ] ] } },
{ "type": "Feature", "properties": { "origin_code": "AGO002006", "origin_name": "Catumbela", "dest_code": "AGO002007", "dest_name": "Chongoroi", "flow": 3748.3947340408586, "flow_norm": 0.036148836371297323, "dist_km": 126.58871838441939, "origin_pop": 391884.46875, "dest_pop": 128658.0390625, "origin_in_priority": true, "dest_in_priority": false, "both_in_priority": false }, "geometry": { "type": "LineString", "coordinates": [ [ 13.678599224650831, -12.463079033059952 ], [ 13.798691510857758, -13.595489187582498 ] ] } },
{ "type": "Feature", "properties": { "origin_code": "AGO002004", "origin_name": "Bocoio", "dest_code": "AGO002005", "dest_name": "Caimbambo", "flow": 3694.7268202712576, "flow_norm": 0.035631272781841847, "dist_km": 93.132440171633078, "origin_pop": 246558.0625, "dest_pop": 132300.5625, "origin_in_priority": false, "dest_in_priority": true, "both_in_priority": false }, "geometry": { "type": "LineString", "coordinates": [ [ 14.265992051752592, -12.33610684464549 ], [ 13.918616702847871, -13.102061760460922 ] ] } },
{ "type": "Feature", "properties": { "origin_code": "AGO002005", "origin_name": "Caimbambo", "dest_code": "AGO002007", "dest_name": "Chongoroi", "flow": 3340.3986620672554, "flow_norm": 0.032214196534151224, "dist_km": 56.379957231739468, "origin_pop": 132300.5625, "dest_pop": 128658.0390625, "origin_in_priority": true, "dest_in_priority": false, "both_in_priority": false }, "geometry": { "type": "LineString", "coordinates": [ [ 13.918616702847871, -13.102061760460922 ], [ 13.798691510857758, -13.595489187582498 ] ] } },
{ "type": "Feature", "properties": { "origin_code": "AGO002001", "origin_name": "Baia Farta", "dest_code": "AGO002010", "dest_name": "Lobito", "flow": 3273.3289875130249, "flow_norm": 0.031567388803652841, "dist_km": 148.10033532234385, "origin_pop": 144211.234375, "dest_pop": 439822.1875, "origin_in_priority": false, "dest_in_priority": true, "both_in_priority": false }, "geometry": { "type": "LineString", "coordinates": [ [ 13.108383988736881, -13.17018890078392 ], [ 13.890717897535488, -12.078786506578632 ] ] } },
{ "type": "Feature", "properties": { "origin_code": "AGO002001", "origin_name": "Baia Farta", "dest_code": "AGO002005", "dest_name": "Caimbambo", "flow": 2382.3010690857886, "flow_norm": 0.022974477781509482, "dist_km": 88.06278270111612, "origin_pop": 144211.234375, "dest_pop": 132300.5625, "origin_in_priority": false, "dest_in_priority": true, "both_in_priority": false }, "geometry": { "type": "LineString", "coordinates": [ [ 13.108383988736881, -13.17018890078392 ], [ 13.918616702847871, -13.102061760460922 ] ] } },
{ "type": "Feature", "properties": { "origin_code": "AGO002001", "origin_name": "Baia Farta", "dest_code": "AGO002007", "dest_name": "Chongoroi", "flow": 2315.9692248650449, "flow_norm": 0.022334785552415685, "dist_km": 88.38950468924368, "origin_pop": 144211.234375, "dest_pop": 128658.0390625, "origin_in_priority": false, "dest_in_priority": false, "both_in_priority": false }, "geometry": { "type": "LineString", "coordinates": [ [ 13.108383988736881, -13.17018890078392 ], [ 13.798691510857758, -13.595489187582498 ] ] } },
{ "type": "Feature", "properties": { "origin_code": "AGO002007", "origin_name": "Chongoroi", "dest_code": "AGO002010", "dest_name": "Lobito", "flow": 2087.4072055622532, "flow_norm": 0.020130575050934425, "dist_km": 168.94471552904901, "origin_pop": 128658.0390625, "dest_pop": 439822.1875, "origin_in_priority": false, "dest_in_priority": true, "both_in_priority": false }, "geometry": { "type": "LineString", "coordinates": [ [ 13.798691510857758, -13.595489187582498 ], [ 13.890717897535488, -12.078786506578632 ] ] } },
{ "type": "Feature", "properties": { "origin_code": "AGO002001", "origin_name": "Baia Farta", "dest_code": "AGO002009", "dest_name": "Ganda", "flow": 1737.3786947313845, "flow_norm": 0.016754963819703827, "dist_km": 175.41849476492112, "origin_pop": 144211.234375, "dest_pop": 351592.34375, "origin_in_priority": false, "dest_in_priority": true, "both_in_priority": false }, "geometry": { "type": "LineString", "coordinates": [ [ 13.108383988736881, -13.17018890078392 ], [ 14.727623192863389, -13.120928769898912 ] ] } },
{ "type": "Feature", "properties": { "origin_code": "AGO002001", "origin_name": "Baia Farta", "dest_code": "AGO002004", "dest_name": "Bocoio", "flow": 1610.3952846784198, "flow_norm": 0.015530358932126922, "dist_km": 156.08632522283617, "origin_pop": 144211.234375, "dest_pop": 246558.0625, "origin_in_priority": false, "dest_in_priority": false, "both_in_priority": false }, "geometry": { "type": "LineString", "coordinates": [ [ 13.108383988736881, -13.17018890078392 ], [ 14.265992051752592, -12.33610684464549 ] ] } },
{ "type": "Feature", "properties": { "origin_code": "AGO002004", "origin_name": "Bocoio", "dest_code": "AGO002007", "dest_name": "Chongoroi", "flow": 1563.4535769048296, "flow_norm": 0.015077661648704084, "dist_km": 148.91055075451055, "origin_pop": 246558.0625, "dest_pop": 128658.0390625, "origin_in_priority": false, "dest_in_priority": false, "both_in_priority": false }, "geometry": { "type": "LineString", "coordinates": [ [ 14.265992051752592, -12.33610684464549 ], [ 13.798691510857758, -13.595489187582498 ] ] } },
{ "type": "Feature", "properties": { "origin_code": "AGO002002", "origin_name": "Balombo", "dest_code": "AGO002005", "dest_name": "Caimbambo", "flow": 1532.7769601459527, "flow_norm": 0.014781821941756734, "dist_km": 124.45352365037463, "origin_pop": 160910.046875, "dest_pop": 132300.5625, "origin_in_priority": false, "dest_in_priority": true, "both_in_priority": false }, "geometry": { "type": "LineString", "coordinates": [ [ 14.778445268600096, -12.360912262514525 ], [ 13.918616702847871, -13.102061760460922 ] ] } },
{ "type": "Feature", "properties": { "origin_code": "AGO002002", "origin_name": "Balombo", "dest_code": "AGO002007", "dest_name": "Chongoroi", "flow": 717.12185612767212, "flow_norm": 0.0069157926191766098, "dist_km": 173.53704645081126, "origin_pop": 160910.046875, "dest_pop": 128658.0390625, "origin_in_priority": false, "dest_in_priority": false, "both_in_priority": false }, "geometry": { "type": "LineString", "coordinates": [ [ 14.778445268600096, -12.360912262514525 ], [ 13.798691510857758, -13.595489187582498 ] ] } },
{ "type": "Feature", "properties": { "origin_code": "AGO002001", "origin_name": "Baia Farta", "dest_code": "AGO002002", "dest_name": "Balombo", "flow": 534.85980084330799, "flow_norm": 0.0051580905411811578, "dist_km": 202.23439308320252, "origin_pop": 144211.234375, "dest_pop": 160910.046875, "origin_in_priority": false, "dest_in_priority": false, "both_in_priority": false }, "geometry": { "type": "LineString", "coordinates": [ [ 13.108383988736881, -13.17018890078392 ], [ 14.778445268600096, -12.360912262514525 ] ] } }
]
}
