{
"type": "FeatureCollection",
"name": "benguela_od_zone_centroids",
"crs": { "type": "name", "properties": { "name": "urn:ogc:def:crs:OGC:1.3:CRS84" } },
"features": [
{ "type": "Feature", "properties": { "ADM2CD_c": "AGO002001", "NAM_2": "Baia Farta", "NAM_1": "Benguela", "lon": 13.108383988736881, "lat": -13.17018890078392, "pop": 144211.234375, "mass": 138338.00081750657, "rwi_z": -0.16290633, "in_priority_mask": false }, "geometry": { "type": "Point", "coordinates": [ 13.108383988736881, -13.17018890078392 ] } },
{ "type": "Feature", "properties": { "ADM2CD_c": "AGO002002", "NAM_2": "Balombo", "NAM_1": "Benguela", "lon": 14.778445268600096, "lat": -12.360912262514525, "pop": 160910.046875, "mass": 153634.33434621524, "rwi_z": -0.1808641, "in_priority_mask": false }, "geometry": { "type": "Point", "coordinates": [ 14.778445268600096, -12.360912262514525 ] } },
{ "type": "Feature", "properties": { "ADM2CD_c": "AGO002003", "NAM_2": "Benguela", "NAM_1": "Benguela", "lon": 13.606808735984895, "lat": -12.750377863103139, "pop": 824260.0625, "mass": 818109.31530424207, "rwi_z": -0.02984854, "in_priority_mask": false }, "geometry": { "type": "Point", "coordinates": [ 13.606808735984895, -12.750377863103139 ] } },
{ "type": "Feature", "properties": { "ADM2CD_c": "AGO002004", "NAM_2": "Bocoio", "NAM_1": "Benguela", "lon": 14.265992051752592, "lat": -12.33610684464549, "pop": 246558.0625, "mass": 231501.09347539395, "rwi_z": -0.24427463, "in_priority_mask": false }, "geometry": { "type": "Point", "coordinates": [ 14.265992051752592, -12.33610684464549 ] } },
{ "type": "Feature", "properties": { "ADM2CD_c": "AGO002005", "NAM_2": "Caimbambo", "NAM_1": "Benguela", "lon": 13.918616702847871, "lat": -13.102061760460922, "pop": 132300.5625, "mass": 123447.83129729705, "rwi_z": -0.26765522, "in_priority_mask": true }, "geometry": { "type": "Point", "coordinates": [ 13.918616702847871, -13.102061760460922 ] } },
{ "type": "Feature", "properties": { "ADM2CD_c": "AGO002006", "NAM_2": "Catumbela", "NAM_1": "Benguela", "lon": 13.678599224650831, "lat": -12.463079033059952, "pop": 391884.46875, "mass": 397099.7796004191, "rwi_z": 0.053232912, "in_priority_mask": false }, "geometry": { "type": "Point", "coordinates": [ 13.678599224650831, -12.463079033059952 ] } },
{ "type": "Feature", "properties": { "ADM2CD_c": "AGO002007", "NAM_2": "Chongoroi", "NAM_1": "Benguela", "lon": 13.798691510857758, "lat": -13.595489187582498, "pop": 128658.0390625, "mass": 120600.19403665328, "rwi_z": -0.25051966, "in_priority_mask": false }, "geometry": { "type": "Point", "coordinates": [ 13.798691510857758, -13.595489187582498 ] } },
{ "type": "Feature", "properties": { "ADM2CD_c": "AGO002008", "NAM_2": "Cubal", "NAM_1": "Benguela", "lon": 14.342938605836135, "lat": -13.160256096190356, "pop": 451608.15625, "mass": 423521.75841757655, "rwi_z": -0.24876796, "in_priority_mask": true }, "geometry": { "type": "Point", "coordinates": [ 14.342938605836135, -13.160256096190356 ] } },
{ "type": "Feature", "properties": { "ADM2CD_c": "AGO002009", "NAM_2": "Ganda", "NAM_1": "Benguela", "lon": 14.727623192863389, "lat": -13.120928769898912, "pop": 351592.34375, "mass": 333774.27889599465, "rwi_z": -0.20271286, "in_priority_mask": true }, "geometry": { "type": "Point", "coordinates": [ 14.727623192863389, -13.120928769898912 ] } },
{ "type": "Feature", "properties": { "ADM2CD_c": "AGO002010", "NAM_2": "Lobito", "NAM_1": "Benguela", "lon": 13.890717897535488, "lat": -12.078786506578632, "pop": 439822.1875, "mass": 417432.3883905448, "rwi_z": -0.20362599, "in_priority_mask": false }, "geometry": { "type": "Point", "coordinates": [ 13.890717897535488, -12.078786506578632 ] } }
]
}
