{
"type": "FeatureCollection",
"name": "benguela_catchment_boundaries",
"crs": { "type": "name", "properties": { "name": "urn:ogc:def:crs:OGC:1.3:CRS84" } },
"features": [
{ "type": "Feature", "properties": { "threshold_min": 30 }, "geometry": { "type": "Polygon", "coordinates": [ [ [ 13.908333333333324, -12.09166666666666 ], [ 13.908333333333324, -12.108333333333325 ], [ 13.891666666666659, -12.108333333333325 ], [ 13.891666666666659, -12.11666666666666 ], [ 13.9, -12.11666666666666 ], [ 13.9, -12.125 ], [ 13.891666666666659, -12.125 ], [ 13.891666666666659, -12.133333333333326 ], [ 13.883333333333326, -12.133333333333326 ], [ 13.883333333333326, -12.141666666666659 ], [ 13.875, -12.141666666666659 ], [ 13.875, -12.158333333333326 ], [ 13.858333333333325, -12.158333333333326 ], [ 13.858333333333325, -12.166666666666659 ], [ 13.825, -12.166666666666659 ], [ 13.825, -12.175 ], [ 13.8, -12.175 ], [ 13.8, -12.183333333333326 ], [ 13.816666666666659, -12.183333333333326 ], [ 13.816666666666659, -12.2 ], [ 13.791666666666659, -12.2 ], [ 13.791666666666659, -12.208333333333325 ], [ 13.766666666666659, -12.208333333333325 ], [ 13.766666666666659, -12.21666666666666 ], [ 13.758333333333326, -12.21666666666666 ], [ 13.758333333333326, -12.225 ], [ 13.75, -12.225 ], [ 13.75, -12.233333333333325 ], [ 13.741666666666658, -12.233333333333325 ], [ 13.741666666666658, -12.24166666666666 ], [ 13.75, -12.24166666666666 ], [ 13.75, -12.25 ], [ 13.758333333333326, -12.25 ], [ 13.758333333333326, -12.24166666666666 ], [ 13.766666666666659, -12.24166666666666 ], [ 13.766666666666659, -12.266666666666659 ], [ 13.75, -12.266666666666659 ], [ 13.75, -12.275 ], [ 13.741666666666658, -12.275 ], [ 13.741666666666658, -12.266666666666659 ], [ 13.733333333333325, -12.266666666666659 ], [ 13.733333333333325, -12.25 ], [ 13.725, -12.25 ], [ 13.725, -12.258333333333326 ], [ 13.716666666666658, -12.258333333333326 ], [ 13.716666666666658, -12.308333333333326 ], [ 13.708333333333325, -12.308333333333326 ], [ 13.708333333333325, -12.325 ], [ 13.7, -12.325 ], [ 13.7, -12.358333333333325 ], [ 13.691666666666659, -12.358333333333325 ], [ 13.691666666666659, -12.35 ], [ 13.683333333333325, -12.35 ], [ 13.683333333333325, -12.34166666666666 ], [ 13.675, -12.34166666666666 ], [ 13.675, -12.358333333333325 ], [ 13.683333333333325, -12.358333333333325 ], [ 13.683333333333325, -12.36666666666666 ], [ 13.65, -12.36666666666666 ], [ 13.65, -12.375 ], [ 13.641666666666659, -12.375 ], [ 13.641666666666659, -12.36666666666666 ], [ 13.633333333333326, -12.36666666666666 ], [ 13.633333333333326, -12.358333333333325 ], [ 13.641666666666659, -12.358333333333325 ], [ 13.641666666666659, -12.35 ], [ 13.65, -12.35 ], [ 13.65, -12.34166666666666 ], [ 13.633333333333326, -12.34166666666666 ], [ 13.633333333333326, -12.325 ], [ 13.625, -12.325 ], [ 13.625, -12.308333333333326 ], [ 13.616666666666658, -12.308333333333326 ], [ 13.616666666666658, -12.325 ], [ 13.608333333333325, -12.325 ], [ 13.608333333333325, -12.316666666666659 ], [ 13.591666666666658, -12.316666666666659 ], [ 13.591666666666658, -12.308333333333326 ], [ 13.575, -12.308333333333326 ], [ 13.575, -12.316666666666659 ], [ 13.558333333333325, -12.316666666666659 ], [ 13.558333333333325, -12.325 ], [ 13.533333333333324, -12.325 ], [ 13.533333333333324, -12.333333333333325 ], [ 13.525, -12.333333333333325 ], [ 13.525, -12.34166666666666 ], [ 13.516666666666659, -12.34166666666666 ], [ 13.516666666666659, -12.35 ], [ 13.508333333333326, -12.35 ], [ 13.508333333333326, -12.358333333333325 ], [ 13.5, -12.358333333333325 ], [ 13.5, -12.383333333333326 ], [ 13.491666666666658, -12.383333333333326 ], [ 13.491666666666658, -12.391666666666659 ], [ 13.483333333333325, -12.391666666666659 ], [ 13.483333333333325, -12.4 ], [ 13.475, -12.4 ], [ 13.475, -12.416666666666659 ], [ 13.466666666666658, -12.416666666666659 ], [ 13.466666666666658, -12.441666666666659 ], [ 13.475, -12.441666666666659 ], [ 13.475, -12.49166666666666 ], [ 13.466666666666658, -12.49166666666666 ], [ 13.466666666666658, -12.5 ], [ 13.458333333333325, -12.5 ], [ 13.458333333333325, -12.508333333333326 ], [ 13.45, -12.508333333333326 ], [ 13.45, -12.516666666666659 ], [ 13.433333333333325, -12.516666666666659 ], [ 13.433333333333325, -12.525 ], [ 13.416666666666659, -12.525 ], [ 13.416666666666659, -12.533333333333326 ], [ 13.408333333333324, -12.533333333333326 ], [ 13.408333333333324, -12.541666666666659 ], [ 13.4, -12.541666666666659 ], [ 13.4, -12.558333333333326 ], [ 13.391666666666659, -12.558333333333326 ], [ 13.391666666666659, -12.566666666666659 ], [ 13.383333333333326, -12.566666666666659 ], [ 13.383333333333326, -12.575 ], [ 13.375, -12.575 ], [ 13.375, -12.59166666666666 ], [ 13.366666666666658, -12.59166666666666 ], [ 13.366666666666658, -12.6 ], [ 13.35, -12.6 ], [ 13.35, -12.608333333333325 ], [ 13.333333333333325, -12.608333333333325 ], [ 13.333333333333325, -12.625 ], [ 13.325, -12.625 ], [ 13.325, -12.633333333333326 ], [ 13.341666666666658, -12.633333333333326 ], [ 13.341666666666658, -12.641666666666659 ], [ 13.35, -12.641666666666659 ], [ 13.35, -12.658333333333326 ], [ 13.358333333333325, -12.658333333333326 ], [ 13.358333333333325, -12.666666666666659 ], [ 13.375, -12.666666666666659 ], [ 13.375, -12.675 ], [ 13.4, -12.675 ], [ 13.4, -12.658333333333326 ], [ 13.408333333333324, -12.658333333333326 ], [ 13.408333333333324, -12.666666666666659 ], [ 13.416666666666659, -12.666666666666659 ], [ 13.416666666666659, -12.675 ], [ 13.433333333333325, -12.675 ], [ 13.433333333333325, -12.666666666666659 ], [ 13.441666666666658, -12.666666666666659 ], [ 13.441666666666658, -12.691666666666659 ], [ 13.433333333333325, -12.691666666666659 ], [ 13.433333333333325, -12.708333333333327 ], [ 13.441666666666658, -12.708333333333327 ], [ 13.441666666666658, -12.71666666666666 ], [ 13.45, -12.71666666666666 ], [ 13.45, -12.691666666666659 ], [ 13.458333333333325, -12.691666666666659 ], [ 13.458333333333325, -12.683333333333326 ], [ 13.466666666666658, -12.683333333333326 ], [ 13.466666666666658, -12.675 ], [ 13.5, -12.675 ], [ 13.5, -12.683333333333326 ], [ 13.516666666666659, -12.683333333333326 ], [ 13.516666666666659, -12.675 ], [ 13.525, -12.675 ], [ 13.525, -12.658333333333326 ], [ 13.533333333333324, -12.658333333333326 ], [ 13.533333333333324, -12.666666666666659 ], [ 13.541666666666659, -12.666666666666659 ], [ 13.541666666666659, -12.675 ], [ 13.55, -12.675 ], [ 13.55, -12.683333333333326 ], [ 13.558333333333325, -12.683333333333326 ], [ 13.558333333333325, -12.675 ], [ 13.566666666666659, -12.675 ], [ 13.566666666666659, -12.683333333333326 ], [ 13.575, -12.683333333333326 ], [ 13.575, -12.666666666666659 ], [ 13.583333333333325, -12.666666666666659 ], [ 13.583333333333325, -12.683333333333326 ], [ 13.591666666666658, -12.683333333333326 ], [ 13.591666666666658, -12.675 ], [ 13.6, -12.675 ], [ 13.6, -12.658333333333326 ], [ 13.575, -12.658333333333326 ], [ 13.575, -12.65 ], [ 13.566666666666659, -12.65 ], [ 13.566666666666659, -12.641666666666659 ], [ 13.558333333333325, -12.641666666666659 ], [ 13.558333333333325, -12.633333333333326 ], [ 13.55, -12.633333333333326 ], [ 13.55, -12.625 ], [ 13.541666666666659, -12.625 ], [ 13.541666666666659, -12.608333333333325 ], [ 13.533333333333324, -12.608333333333325 ], [ 13.533333333333324, -12.59166666666666 ], [ 13.525, -12.59166666666666 ], [ 13.525, -12.583333333333327 ], [ 13.516666666666659, -12.583333333333327 ], [ 13.516666666666659, -12.575 ], [ 13.508333333333326, -12.575 ], [ 13.508333333333326, -12.566666666666659 ], [ 13.516666666666659, -12.566666666666659 ], [ 13.516666666666659, -12.558333333333326 ], [ 13.525, -12.558333333333326 ], [ 13.525, -12.55 ], [ 13.516666666666659, -12.55 ], [ 13.516666666666659, -12.541666666666659 ], [ 13.533333333333324, -12.541666666666659 ], [ 13.533333333333324, -12.55 ], [ 13.55, -12.55 ], [ 13.55, -12.541666666666659 ], [ 13.566666666666659, -12.541666666666659 ], [ 13.566666666666659, -12.533333333333326 ], [ 13.558333333333325, -12.533333333333326 ], [ 13.558333333333325, -12.525 ], [ 13.55, -12.525 ], [ 13.55, -12.533333333333326 ], [ 13.541666666666659, -12.533333333333326 ], [ 13.541666666666659, -12.516666666666659 ], [ 13.55, -12.516666666666659 ], [ 13.55, -12.508333333333326 ], [ 13.566666666666659, -12.508333333333326 ], [ 13.566666666666659, -12.46666666666666 ], [ 13.591666666666658, -12.46666666666666 ], [ 13.591666666666658, -12.441666666666659 ], [ 13.608333333333325, -12.441666666666659 ], [ 13.608333333333325, -12.45 ], [ 13.6, -12.45 ], [ 13.6, -12.458333333333327 ], [ 13.616666666666658, -12.458333333333327 ], [ 13.616666666666658, -12.433333333333326 ], [ 13.625, -12.433333333333326 ], [ 13.625, -12.416666666666659 ], [ 13.633333333333326, -12.416666666666659 ], [ 13.633333333333326, -12.441666666666659 ], [ 13.641666666666659, -12.441666666666659 ], [ 13.641666666666659, -12.4 ], [ 13.65, -12.4 ], [ 13.65, -12.391666666666659 ], [ 13.658333333333324, -12.391666666666659 ], [ 13.658333333333324, -12.383333333333326 ], [ 13.675, -12.383333333333326 ], [ 13.675, -12.391666666666659 ], [ 13.683333333333325, -12.391666666666659 ], [ 13.683333333333325, -12.408333333333326 ], [ 13.691666666666659, -12.408333333333326 ], [ 13.691666666666659, -12.416666666666659 ], [ 13.7, -12.416666666666659 ], [ 13.7, -12.4 ], [ 13.716666666666658, -12.4 ], [ 13.716666666666658, -12.391666666666659 ], [ 13.758333333333326, -12.391666666666659 ], [ 13.758333333333326, -12.4 ], [ 13.766666666666659, -12.4 ], [ 13.766666666666659, -12.416666666666659 ], [ 13.75, -12.416666666666659 ], [ 13.75, -12.425 ], [ 13.766666666666659, -12.425 ], [ 13.766666666666659, -12.433333333333326 ], [ 13.758333333333326, -12.433333333333326 ], [ 13.758333333333326, -12.441666666666659 ], [ 13.775, -12.441666666666659 ], [ 13.775, -12.425 ], [ 13.783333333333324, -12.425 ], [ 13.783333333333324, -12.416666666666659 ], [ 13.791666666666659, -12.416666666666659 ], [ 13.791666666666659, -12.408333333333326 ], [ 13.8, -12.408333333333326 ], [ 13.8, -12.391666666666659 ], [ 13.808333333333325, -12.391666666666659 ], [ 13.808333333333325, -12.375 ], [ 13.825, -12.375 ], [ 13.825, -12.408333333333326 ], [ 13.833333333333325, -12.408333333333326 ], [ 13.833333333333325, -12.416666666666659 ], [ 13.825, -12.416666666666659 ], [ 13.825, -12.425 ], [ 13.85, -12.425 ], [ 13.85, -12.416666666666659 ], [ 13.858333333333325, -12.416666666666659 ], [ 13.858333333333325, -12.408333333333326 ], [ 13.866666666666658, -12.408333333333326 ], [ 13.866666666666658, -12.4 ], [ 13.875, -12.4 ], [ 13.875, -12.408333333333326 ], [ 13.883333333333326, -12.408333333333326 ], [ 13.883333333333326, -12.416666666666659 ], [ 13.9, -12.416666666666659 ], [ 13.9, -12.425 ], [ 13.908333333333324, -12.425 ], [ 13.908333333333324, -12.441666666666659 ], [ 13.9, -12.441666666666659 ], [ 13.9, -12.45 ], [ 13.941666666666659, -12.45 ], [ 13.941666666666659, -12.475 ], [ 13.966666666666658, -12.475 ], [ 13.966666666666658, -12.483333333333325 ], [ 13.975, -12.483333333333325 ], [ 13.975, -12.475 ], [ 13.983333333333325, -12.475 ], [ 13.983333333333325, -12.46666666666666 ], [ 13.975, -12.46666666666666 ], [ 13.975, -12.458333333333327 ], [ 13.966666666666658, -12.458333333333327 ], [ 13.966666666666658, -12.45 ], [ 13.958333333333325, -12.45 ], [ 13.958333333333325, -12.441666666666659 ], [ 13.941666666666659, -12.441666666666659 ], [ 13.941666666666659, -12.433333333333326 ], [ 13.95, -12.433333333333326 ], [ 13.95, -12.425 ], [ 13.941666666666659, -12.425 ], [ 13.941666666666659, -12.416666666666659 ], [ 13.933333333333325, -12.416666666666659 ], [ 13.933333333333325, -12.408333333333326 ], [ 13.941666666666659, -12.408333333333326 ], [ 13.941666666666659, -12.4 ], [ 13.933333333333325, -12.4 ], [ 13.933333333333325, -12.391666666666659 ], [ 13.925, -12.391666666666659 ], [ 13.925, -12.375 ], [ 13.916666666666659, -12.375 ], [ 13.916666666666659, -12.391666666666659 ], [ 13.908333333333324, -12.391666666666659 ], [ 13.908333333333324, -12.383333333333326 ], [ 13.9, -12.383333333333326 ], [ 13.9, -12.375 ], [ 13.891666666666659, -12.375 ], [ 13.891666666666659, -12.36666666666666 ], [ 13.883333333333326, -12.36666666666666 ], [ 13.883333333333326, -12.34166666666666 ], [ 13.891666666666659, -12.34166666666666 ], [ 13.891666666666659, -12.333333333333325 ], [ 13.908333333333324, -12.333333333333325 ], [ 13.908333333333324, -12.34166666666666 ], [ 13.925, -12.34166666666666 ], [ 13.925, -12.333333333333325 ], [ 13.933333333333325, -12.333333333333325 ], [ 13.933333333333325, -12.316666666666659 ], [ 13.925, -12.316666666666659 ], [ 13.925, -12.308333333333326 ], [ 13.9, -12.308333333333326 ], [ 13.9, -12.3 ], [ 13.883333333333326, -12.3 ], [ 13.883333333333326, -12.291666666666659 ], [ 13.875, -12.291666666666659 ], [ 13.875, -12.283333333333326 ], [ 13.883333333333326, -12.283333333333326 ], [ 13.883333333333326, -12.275 ], [ 13.875, -12.275 ], [ 13.875, -12.25 ], [ 13.866666666666658, -12.25 ], [ 13.866666666666658, -12.24166666666666 ], [ 13.875, -12.24166666666666 ], [ 13.875, -12.225 ], [ 13.891666666666659, -12.225 ], [ 13.891666666666659, -12.2 ], [ 13.883333333333326, -12.2 ], [ 13.883333333333326, -12.183333333333326 ], [ 13.891666666666659, -12.183333333333326 ], [ 13.891666666666659, -12.166666666666659 ], [ 13.9, -12.166666666666659 ], [ 13.9, -12.158333333333326 ], [ 13.908333333333324, -12.158333333333326 ], [ 13.908333333333324, -12.166666666666659 ], [ 13.916666666666659, -12.166666666666659 ], [ 13.916666666666659, -12.158333333333326 ], [ 13.925, -12.158333333333326 ], [ 13.925, -12.141666666666659 ], [ 13.916666666666659, -12.141666666666659 ], [ 13.916666666666659, -12.133333333333326 ], [ 13.925, -12.133333333333326 ], [ 13.925, -12.125 ], [ 13.916666666666659, -12.125 ], [ 13.916666666666659, -12.108333333333325 ], [ 13.925, -12.108333333333325 ], [ 13.925, -12.09166666666666 ], [ 13.908333333333324, -12.09166666666666 ] ], [ [ 13.816666666666659, -12.225 ], [ 13.833333333333325, -12.225 ], [ 13.833333333333325, -12.233333333333325 ], [ 13.816666666666659, -12.233333333333325 ], [ 13.816666666666659, -12.225 ] ], [ [ 13.766666666666659, -12.266666666666659 ], [ 13.775, -12.266666666666659 ], [ 13.775, -12.275 ], [ 13.766666666666659, -12.275 ], [ 13.766666666666659, -12.266666666666659 ] ], [ [ 13.725, -12.283333333333326 ], [ 13.733333333333325, -12.283333333333326 ], [ 13.733333333333325, -12.308333333333326 ], [ 13.725, -12.308333333333326 ], [ 13.725, -12.283333333333326 ] ], [ [ 13.741666666666658, -12.283333333333326 ], [ 13.75, -12.283333333333326 ], [ 13.75, -12.291666666666659 ], [ 13.741666666666658, -12.291666666666659 ], [ 13.741666666666658, -12.283333333333326 ] ], [ [ 13.716666666666658, -12.316666666666659 ], [ 13.725, -12.316666666666659 ], [ 13.725, -12.35 ], [ 13.716666666666658, -12.35 ], [ 13.716666666666658, -12.358333333333325 ], [ 13.708333333333325, -12.358333333333325 ], [ 13.708333333333325, -12.325 ], [ 13.716666666666658, -12.325 ], [ 13.716666666666658, -12.316666666666659 ] ], [ [ 13.733333333333325, -12.325 ], [ 13.741666666666658, -12.325 ], [ 13.741666666666658, -12.333333333333325 ], [ 13.758333333333326, -12.333333333333325 ], [ 13.758333333333326, -12.34166666666666 ], [ 13.75, -12.34166666666666 ], [ 13.75, -12.35 ], [ 13.733333333333325, -12.35 ], [ 13.733333333333325, -12.325 ] ], [ [ 13.691666666666659, -12.391666666666659 ], [ 13.7, -12.391666666666659 ], [ 13.7, -12.4 ], [ 13.691666666666659, -12.4 ], [ 13.691666666666659, -12.391666666666659 ] ], [ [ 13.95, -12.458333333333327 ], [ 13.958333333333325, -12.458333333333327 ], [ 13.958333333333325, -12.46666666666666 ], [ 13.95, -12.46666666666666 ], [ 13.95, -12.458333333333327 ] ], [ [ 13.508333333333326, -12.633333333333326 ], [ 13.516666666666659, -12.633333333333326 ], [ 13.516666666666659, -12.641666666666659 ], [ 13.508333333333326, -12.641666666666659 ], [ 13.508333333333326, -12.633333333333326 ] ] ] } },
{ "type": "Feature", "properties": { "threshold_min": 60 }, "geometry": { "type": "Polygon", "coordinates": [ [ [ 13.941666666666659, -11.875 ], [ 13.941666666666659, -11.891666666666659 ], [ 13.95, -11.891666666666659 ], [ 13.95, -11.9 ], [ 13.941666666666659, -11.9 ], [ 13.941666666666659, -11.916666666666659 ], [ 13.966666666666658, -11.916666666666659 ], [ 13.966666666666658, -11.925 ], [ 13.95, -11.925 ], [ 13.95, -11.933333333333326 ], [ 13.941666666666659, -11.933333333333326 ], [ 13.941666666666659, -11.941666666666659 ], [ 13.95, -11.941666666666659 ], [ 13.95, -11.95 ], [ 13.958333333333325, -11.95 ], [ 13.958333333333325, -11.958333333333325 ], [ 13.95, -11.958333333333325 ], [ 13.95, -11.96666666666666 ], [ 13.933333333333325, -11.96666666666666 ], [ 13.933333333333325, -11.975 ], [ 13.908333333333324, -11.975 ], [ 13.908333333333324, -11.983333333333325 ], [ 13.883333333333326, -11.983333333333325 ], [ 13.883333333333326, -11.975 ], [ 13.858333333333325, -11.975 ], [ 13.858333333333325, -11.983333333333325 ], [ 13.875, -11.983333333333325 ], [ 13.875, -12.0 ], [ 13.866666666666658, -12.0 ], [ 13.866666666666658, -11.99166666666666 ], [ 13.858333333333325, -11.99166666666666 ], [ 13.858333333333325, -12.0 ], [ 13.85, -12.0 ], [ 13.85, -12.008333333333326 ], [ 13.883333333333326, -12.008333333333326 ], [ 13.883333333333326, -12.016666666666659 ], [ 13.891666666666659, -12.016666666666659 ], [ 13.891666666666659, -12.075 ], [ 13.9, -12.075 ], [ 13.9, -12.083333333333325 ], [ 13.883333333333326, -12.083333333333325 ], [ 13.883333333333326, -12.075 ], [ 13.841666666666658, -12.075 ], [ 13.841666666666658, -12.058333333333326 ], [ 13.825, -12.058333333333326 ], [ 13.825, -12.05 ], [ 13.808333333333325, -12.05 ], [ 13.808333333333325, -12.041666666666659 ], [ 13.8, -12.041666666666659 ], [ 13.8, -12.025 ], [ 13.791666666666659, -12.025 ], [ 13.791666666666659, -12.033333333333326 ], [ 13.783333333333324, -12.033333333333326 ], [ 13.783333333333324, -12.041666666666659 ], [ 13.791666666666659, -12.041666666666659 ], [ 13.791666666666659, -12.05 ], [ 13.8, -12.05 ], [ 13.8, -12.083333333333325 ], [ 13.808333333333325, -12.083333333333325 ], [ 13.808333333333325, -12.09166666666666 ], [ 13.816666666666659, -12.09166666666666 ], [ 13.816666666666659, -12.1 ], [ 13.833333333333325, -12.1 ], [ 13.833333333333325, -12.125 ], [ 13.858333333333325, -12.125 ], [ 13.858333333333325, -12.141666666666659 ], [ 13.841666666666658, -12.141666666666659 ], [ 13.841666666666658, -12.15 ], [ 13.816666666666659, -12.15 ], [ 13.816666666666659, -12.158333333333326 ], [ 13.808333333333325, -12.158333333333326 ], [ 13.808333333333325, -12.15 ], [ 13.775, -12.15 ], [ 13.775, -12.141666666666659 ], [ 13.758333333333326, -12.141666666666659 ], [ 13.758333333333326, -12.133333333333326 ], [ 13.75, -12.133333333333326 ], [ 13.75, -12.141666666666659 ], [ 13.741666666666658, -12.141666666666659 ], [ 13.741666666666658, -12.15 ], [ 13.725, -12.15 ], [ 13.725, -12.158333333333326 ], [ 13.733333333333325, -12.158333333333326 ], [ 13.733333333333325, -12.166666666666659 ], [ 13.75, -12.166666666666659 ], [ 13.75, -12.183333333333326 ], [ 13.775, -12.183333333333326 ], [ 13.775, -12.191666666666659 ], [ 13.75, -12.191666666666659 ], [ 13.75, -12.2 ], [ 13.741666666666658, -12.2 ], [ 13.741666666666658, -12.208333333333325 ], [ 13.733333333333325, -12.208333333333325 ], [ 13.733333333333325, -12.21666666666666 ], [ 13.691666666666659, -12.21666666666666 ], [ 13.691666666666659, -12.225 ], [ 13.683333333333325, -12.225 ], [ 13.683333333333325, -12.21666666666666 ], [ 13.641666666666659, -12.21666666666666 ], [ 13.641666666666659, -12.24166666666666 ], [ 13.65, -12.24166666666666 ], [ 13.65, -12.25 ], [ 13.625, -12.25 ], [ 13.625, -12.258333333333326 ], [ 13.616666666666658, -12.258333333333326 ], [ 13.616666666666658, -12.275 ], [ 13.608333333333325, -12.275 ], [ 13.608333333333325, -12.283333333333326 ], [ 13.6, -12.283333333333326 ], [ 13.6, -12.291666666666659 ], [ 13.558333333333325, -12.291666666666659 ], [ 13.558333333333325, -12.3 ], [ 13.55, -12.3 ], [ 13.55, -12.308333333333326 ], [ 13.533333333333324, -12.308333333333326 ], [ 13.533333333333324, -12.316666666666659 ], [ 13.525, -12.316666666666659 ], [ 13.525, -12.325 ], [ 13.516666666666659, -12.325 ], [ 13.516666666666659, -12.333333333333325 ], [ 13.508333333333326, -12.333333333333325 ], [ 13.508333333333326, -12.34166666666666 ], [ 13.491666666666658, -12.34166666666666 ], [ 13.491666666666658, -12.35 ], [ 13.483333333333325, -12.35 ], [ 13.483333333333325, -12.36666666666666 ], [ 13.475, -12.36666666666666 ], [ 13.475, -12.383333333333326 ], [ 13.466666666666658, -12.383333333333326 ], [ 13.466666666666658, -12.391666666666659 ], [ 13.458333333333325, -12.391666666666659 ], [ 13.458333333333325, -12.408333333333326 ], [ 13.45, -12.408333333333326 ], [ 13.45, -12.441666666666659 ], [ 13.458333333333325, -12.441666666666659 ], [ 13.458333333333325, -12.45 ], [ 13.45, -12.45 ], [ 13.45, -12.458333333333327 ], [ 13.458333333333325, -12.458333333333327 ], [ 13.458333333333325, -12.483333333333325 ], [ 13.45, -12.483333333333325 ], [ 13.45, -12.49166666666666 ], [ 13.441666666666658, -12.49166666666666 ], [ 13.441666666666658, -12.5 ], [ 13.433333333333325, -12.5 ], [ 13.433333333333325, -12.508333333333326 ], [ 13.416666666666659, -12.508333333333326 ], [ 13.416666666666659, -12.516666666666659 ], [ 13.408333333333324, -12.516666666666659 ], [ 13.408333333333324, -12.525 ], [ 13.4, -12.525 ], [ 13.4, -12.533333333333326 ], [ 13.391666666666659, -12.533333333333326 ], [ 13.391666666666659, -12.541666666666659 ], [ 13.383333333333326, -12.541666666666659 ], [ 13.383333333333326, -12.55 ], [ 13.375, -12.55 ], [ 13.375, -12.558333333333326 ], [ 13.366666666666658, -12.558333333333326 ], [ 13.366666666666658, -12.566666666666659 ], [ 13.358333333333325, -12.566666666666659 ], [ 13.358333333333325, -12.575 ], [ 13.35, -12.575 ], [ 13.35, -12.583333333333327 ], [ 13.333333333333325, -12.583333333333327 ], [ 13.333333333333325, -12.59166666666666 ], [ 13.3, -12.59166666666666 ], [ 13.3, -12.583333333333327 ], [ 13.283333333333324, -12.583333333333327 ], [ 13.283333333333324, -12.575 ], [ 13.258333333333326, -12.575 ], [ 13.258333333333326, -12.583333333333327 ], [ 13.25, -12.583333333333327 ], [ 13.25, -12.6 ], [ 13.241666666666658, -12.6 ], [ 13.241666666666658, -12.608333333333325 ], [ 13.233333333333325, -12.608333333333325 ], [ 13.233333333333325, -12.6 ], [ 13.225, -12.6 ], [ 13.225, -12.608333333333325 ], [ 13.208333333333325, -12.608333333333325 ], [ 13.208333333333325, -12.59166666666666 ], [ 13.191666666666658, -12.59166666666666 ], [ 13.191666666666658, -12.6 ], [ 13.183333333333325, -12.6 ], [ 13.183333333333325, -12.625 ], [ 13.175, -12.625 ], [ 13.175, -12.633333333333326 ], [ 13.191666666666658, -12.633333333333326 ], [ 13.191666666666658, -12.658333333333326 ], [ 13.2, -12.658333333333326 ], [ 13.2, -12.65 ], [ 13.208333333333325, -12.65 ], [ 13.208333333333325, -12.658333333333326 ], [ 13.216666666666658, -12.658333333333326 ], [ 13.216666666666658, -12.666666666666659 ], [ 13.225, -12.666666666666659 ], [ 13.225, -12.658333333333326 ], [ 13.25, -12.658333333333326 ], [ 13.25, -12.666666666666659 ], [ 13.241666666666658, -12.666666666666659 ], [ 13.241666666666658, -12.675 ], [ 13.233333333333325, -12.675 ], [ 13.233333333333325, -12.691666666666659 ], [ 13.225, -12.691666666666659 ], [ 13.225, -12.71666666666666 ], [ 13.216666666666658, -12.71666666666666 ], [ 13.216666666666658, -12.725 ], [ 13.225, -12.725 ], [ 13.225, -12.733333333333325 ], [ 13.216666666666658, -12.733333333333325 ], [ 13.216666666666658, -12.74166666666666 ], [ 13.2, -12.74166666666666 ], [ 13.2, -12.758333333333326 ], [ 13.208333333333325, -12.758333333333326 ], [ 13.208333333333325, -12.775 ], [ 13.216666666666658, -12.775 ], [ 13.216666666666658, -12.758333333333326 ], [ 13.233333333333325, -12.758333333333326 ], [ 13.233333333333325, -12.75 ], [ 13.258333333333326, -12.75 ], [ 13.258333333333326, -12.725 ], [ 13.25, -12.725 ], [ 13.25, -12.71666666666666 ], [ 13.258333333333326, -12.71666666666666 ], [ 13.258333333333326, -12.7 ], [ 13.266666666666659, -12.7 ], [ 13.266666666666659, -12.691666666666659 ], [ 13.275, -12.691666666666659 ], [ 13.275, -12.675 ], [ 13.283333333333324, -12.675 ], [ 13.283333333333324, -12.683333333333326 ], [ 13.291666666666659, -12.683333333333326 ], [ 13.291666666666659, -12.691666666666659 ], [ 13.3, -12.691666666666659 ], [ 13.3, -12.7 ], [ 13.308333333333325, -12.7 ], [ 13.308333333333325, -12.71666666666666 ], [ 13.316666666666658, -12.71666666666666 ], [ 13.316666666666658, -12.725 ], [ 13.325, -12.725 ], [ 13.325, -12.733333333333325 ], [ 13.333333333333325, -12.733333333333325 ], [ 13.333333333333325, -12.758333333333326 ], [ 13.341666666666658, -12.758333333333326 ], [ 13.341666666666658, -12.775 ], [ 13.35, -12.775 ], [ 13.35, -12.791666666666659 ], [ 13.358333333333325, -12.791666666666659 ], [ 13.358333333333325, -12.833333333333327 ], [ 13.366666666666658, -12.833333333333327 ], [ 13.366666666666658, -12.84166666666666 ], [ 13.375, -12.84166666666666 ], [ 13.375, -12.858333333333327 ], [ 13.366666666666658, -12.858333333333327 ], [ 13.366666666666658, -12.86666666666666 ], [ 13.358333333333325, -12.86666666666666 ], [ 13.358333333333325, -12.875 ], [ 13.375, -12.875 ], [ 13.375, -12.86666666666666 ], [ 13.383333333333326, -12.86666666666666 ], [ 13.383333333333326, -12.858333333333327 ], [ 13.391666666666659, -12.858333333333327 ], [ 13.391666666666659, -12.86666666666666 ], [ 13.416666666666659, -12.86666666666666 ], [ 13.416666666666659, -12.875 ], [ 13.441666666666658, -12.875 ], [ 13.441666666666658, -12.86666666666666 ], [ 13.425, -12.86666666666666 ], [ 13.425, -12.858333333333327 ], [ 13.408333333333324, -12.858333333333327 ], [ 13.408333333333324, -12.85 ], [ 13.391666666666659, -12.85 ], [ 13.391666666666659, -12.825 ], [ 13.383333333333326, -12.825 ], [ 13.383333333333326, -12.816666666666659 ], [ 13.408333333333324, -12.816666666666659 ], [ 13.408333333333324, -12.808333333333326 ], [ 13.425, -12.808333333333326 ], [ 13.425, -12.8 ], [ 13.433333333333325, -12.8 ], [ 13.433333333333325, -12.791666666666659 ], [ 13.425, -12.791666666666659 ], [ 13.425, -12.775 ], [ 13.416666666666659, -12.775 ], [ 13.416666666666659, -12.791666666666659 ], [ 13.4, -12.791666666666659 ], [ 13.4, -12.783333333333326 ], [ 13.391666666666659, -12.783333333333326 ], [ 13.391666666666659, -12.775 ], [ 13.383333333333326, -12.775 ], [ 13.383333333333326, -12.758333333333326 ], [ 13.375, -12.758333333333326 ], [ 13.375, -12.708333333333327 ], [ 13.383333333333326, -12.708333333333327 ], [ 13.383333333333326, -12.7 ], [ 13.4, -12.7 ], [ 13.4, -12.691666666666659 ], [ 13.416666666666659, -12.691666666666659 ], [ 13.416666666666659, -12.725 ], [ 13.433333333333325, -12.725 ], [ 13.433333333333325, -12.733333333333325 ], [ 13.45, -12.733333333333325 ], [ 13.45, -12.74166666666666 ], [ 13.458333333333325, -12.74166666666666 ], [ 13.458333333333325, -12.775 ], [ 13.475, -12.775 ], [ 13.475, -12.783333333333326 ], [ 13.483333333333325, -12.783333333333326 ], [ 13.483333333333325, -12.791666666666659 ], [ 13.5, -12.791666666666659 ], [ 13.5, -12.8 ], [ 13.516666666666659, -12.8 ], [ 13.516666666666659, -12.791666666666659 ], [ 13.525, -12.791666666666659 ], [ 13.525, -12.783333333333326 ], [ 13.516666666666659, -12.783333333333326 ], [ 13.516666666666659, -12.775 ], [ 13.508333333333326, -12.775 ], [ 13.508333333333326, -12.758333333333326 ], [ 13.5, -12.758333333333326 ], [ 13.5, -12.75 ], [ 13.491666666666658, -12.75 ], [ 13.491666666666658, -12.708333333333327 ], [ 13.483333333333325, -12.708333333333327 ], [ 13.483333333333325, -12.7 ], [ 13.475, -12.7 ], [ 13.475, -12.691666666666659 ], [ 13.491666666666658, -12.691666666666659 ], [ 13.491666666666658, -12.7 ], [ 13.508333333333326, -12.7 ], [ 13.508333333333326, -12.708333333333327 ], [ 13.516666666666659, -12.708333333333327 ], [ 13.516666666666659, -12.7 ], [ 13.55, -12.7 ], [ 13.55, -12.708333333333327 ], [ 13.558333333333325, -12.708333333333327 ], [ 13.558333333333325, -12.71666666666666 ], [ 13.575, -12.71666666666666 ], [ 13.575, -12.725 ], [ 13.583333333333325, -12.725 ], [ 13.583333333333325, -12.733333333333325 ], [ 13.591666666666658, -12.733333333333325 ], [ 13.591666666666658, -12.725 ], [ 13.6, -12.725 ], [ 13.6, -12.71666666666666 ], [ 13.608333333333325, -12.71666666666666 ], [ 13.608333333333325, -12.725 ], [ 13.641666666666659, -12.725 ], [ 13.641666666666659, -12.74166666666666 ], [ 13.65, -12.74166666666666 ], [ 13.65, -12.708333333333327 ], [ 13.641666666666659, -12.708333333333327 ], [ 13.641666666666659, -12.691666666666659 ], [ 13.666666666666659, -12.691666666666659 ], [ 13.666666666666659, -12.666666666666659 ], [ 13.658333333333324, -12.666666666666659 ], [ 13.658333333333324, -12.658333333333326 ], [ 13.666666666666659, -12.658333333333326 ], [ 13.666666666666659, -12.65 ], [ 13.675, -12.65 ], [ 13.675, -12.641666666666659 ], [ 13.683333333333325, -12.641666666666659 ], [ 13.683333333333325, -12.625 ], [ 13.691666666666659, -12.625 ], [ 13.691666666666659, -12.608333333333325 ], [ 13.7, -12.608333333333325 ], [ 13.7, -12.59166666666666 ], [ 13.708333333333325, -12.59166666666666 ], [ 13.708333333333325, -12.583333333333327 ], [ 13.691666666666659, -12.583333333333327 ], [ 13.691666666666659, -12.59166666666666 ], [ 13.683333333333325, -12.59166666666666 ], [ 13.683333333333325, -12.583333333333327 ], [ 13.675, -12.583333333333327 ], [ 13.675, -12.575 ], [ 13.666666666666659, -12.575 ], [ 13.666666666666659, -12.59166666666666 ], [ 13.675, -12.59166666666666 ], [ 13.675, -12.6 ], [ 13.658333333333324, -12.6 ], [ 13.658333333333324, -12.608333333333325 ], [ 13.65, -12.608333333333325 ], [ 13.65, -12.61666666666666 ], [ 13.641666666666659, -12.61666666666666 ], [ 13.641666666666659, -12.608333333333325 ], [ 13.633333333333326, -12.608333333333325 ], [ 13.633333333333326, -12.6 ], [ 13.6, -12.6 ], [ 13.6, -12.61666666666666 ], [ 13.591666666666658, -12.61666666666666 ], [ 13.591666666666658, -12.633333333333326 ], [ 13.575, -12.633333333333326 ], [ 13.575, -12.625 ], [ 13.566666666666659, -12.625 ], [ 13.566666666666659, -12.61666666666666 ], [ 13.558333333333325, -12.61666666666666 ], [ 13.558333333333325, -12.6 ], [ 13.55, -12.6 ], [ 13.55, -12.583333333333327 ], [ 13.541666666666659, -12.583333333333327 ], [ 13.541666666666659, -12.566666666666659 ], [ 13.566666666666659, -12.566666666666659 ], [ 13.566666666666659, -12.558333333333326 ], [ 13.583333333333325, -12.558333333333326 ], [ 13.583333333333325, -12.55 ], [ 13.591666666666658, -12.55 ], [ 13.591666666666658, -12.525 ], [ 13.583333333333325, -12.525 ], [ 13.583333333333325, -12.516666666666659 ], [ 13.575, -12.516666666666659 ], [ 13.575, -12.508333333333326 ], [ 13.583333333333325, -12.508333333333326 ], [ 13.583333333333325, -12.483333333333325 ], [ 13.591666666666658, -12.483333333333325 ], [ 13.591666666666658, -12.475 ], [ 13.658333333333324, -12.475 ], [ 13.658333333333324, -12.46666666666666 ], [ 13.666666666666659, -12.46666666666666 ], [ 13.666666666666659, -12.441666666666659 ], [ 13.675, -12.441666666666659 ], [ 13.675, -12.45 ], [ 13.683333333333325, -12.45 ], [ 13.683333333333325, -12.441666666666659 ], [ 13.691666666666659, -12.441666666666659 ], [ 13.691666666666659, -12.45 ], [ 13.7, -12.45 ], [ 13.7, -12.458333333333327 ], [ 13.708333333333325, -12.458333333333327 ], [ 13.708333333333325, -12.475 ], [ 13.716666666666658, -12.475 ], [ 13.716666666666658, -12.483333333333325 ], [ 13.708333333333325, -12.483333333333325 ], [ 13.708333333333325, -12.508333333333326 ], [ 13.7, -12.508333333333326 ], [ 13.7, -12.516666666666659 ], [ 13.683333333333325, -12.516666666666659 ], [ 13.683333333333325, -12.508333333333326 ], [ 13.675, -12.508333333333326 ], [ 13.675, -12.533333333333326 ], [ 13.683333333333325, -12.533333333333326 ], [ 13.683333333333325, -12.525 ], [ 13.716666666666658, -12.525 ], [ 13.716666666666658, -12.558333333333326 ], [ 13.725, -12.558333333333326 ], [ 13.725, -12.55 ], [ 13.733333333333325, -12.55 ], [ 13.733333333333325, -12.541666666666659 ], [ 13.725, -12.541666666666659 ], [ 13.725, -12.533333333333326 ], [ 13.733333333333325, -12.533333333333326 ], [ 13.733333333333325, -12.508333333333326 ], [ 13.741666666666658, -12.508333333333326 ], [ 13.741666666666658, -12.49166666666666 ], [ 13.75, -12.49166666666666 ], [ 13.75, -12.483333333333325 ], [ 13.758333333333326, -12.483333333333325 ], [ 13.758333333333326, -12.49166666666666 ], [ 13.766666666666659, -12.49166666666666 ], [ 13.766666666666659, -12.483333333333325 ], [ 13.775, -12.483333333333325 ], [ 13.775, -12.475 ], [ 13.783333333333324, -12.475 ], [ 13.783333333333324, -12.46666666666666 ], [ 13.791666666666659, -12.46666666666666 ], [ 13.791666666666659, -12.441666666666659 ], [ 13.8, -12.441666666666659 ], [ 13.8, -12.425 ], [ 13.808333333333325, -12.425 ], [ 13.808333333333325, -12.441666666666659 ], [ 13.841666666666658, -12.441666666666659 ], [ 13.841666666666658, -12.45 ], [ 13.85, -12.45 ], [ 13.85, -12.441666666666659 ], [ 13.866666666666658, -12.441666666666659 ], [ 13.866666666666658, -12.425 ], [ 13.883333333333326, -12.425 ], [ 13.883333333333326, -12.46666666666666 ], [ 13.891666666666659, -12.46666666666666 ], [ 13.891666666666659, -12.475 ], [ 13.916666666666659, -12.475 ], [ 13.916666666666659, -12.46666666666666 ], [ 13.925, -12.46666666666666 ], [ 13.925, -12.49166666666666 ], [ 13.916666666666659, -12.49166666666666 ], [ 13.916666666666659, -12.516666666666659 ], [ 13.925, -12.516666666666659 ], [ 13.925, -12.525 ], [ 13.95, -12.525 ], [ 13.95, -12.516666666666659 ], [ 13.966666666666658, -12.516666666666659 ], [ 13.966666666666658, -12.525 ], [ 13.958333333333325, -12.525 ], [ 13.958333333333325, -12.541666666666659 ], [ 13.95, -12.541666666666659 ], [ 13.95, -12.566666666666659 ], [ 13.941666666666659, -12.566666666666659 ], [ 13.941666666666659, -12.575 ], [ 13.95, -12.575 ], [ 13.95, -12.583333333333327 ], [ 13.958333333333325, -12.583333333333327 ], [ 13.958333333333325, -12.59166666666666 ], [ 13.966666666666658, -12.59166666666666 ], [ 13.966666666666658, -12.6 ], [ 13.975, -12.6 ], [ 13.975, -12.608333333333325 ], [ 13.991666666666658, -12.608333333333325 ], [ 13.991666666666658, -12.6 ], [ 13.983333333333325, -12.6 ], [ 13.983333333333325, -12.59166666666666 ], [ 13.975, -12.59166666666666 ], [ 13.975, -12.583333333333327 ], [ 13.966666666666658, -12.583333333333327 ], [ 13.966666666666658, -12.575 ], [ 13.975, -12.575 ], [ 13.975, -12.566666666666659 ], [ 13.983333333333325, -12.566666666666659 ], [ 13.983333333333325, -12.55 ], [ 13.991666666666658, -12.55 ], [ 13.991666666666658, -12.533333333333326 ], [ 14.008333333333326, -12.533333333333326 ], [ 14.008333333333326, -12.558333333333326 ], [ 14.033333333333324, -12.558333333333326 ], [ 14.033333333333324, -12.525 ], [ 14.05, -12.525 ], [ 14.05, -12.516666666666659 ], [ 14.058333333333325, -12.516666666666659 ], [ 14.058333333333325, -12.5 ], [ 14.075, -12.5 ], [ 14.075, -12.483333333333325 ], [ 14.108333333333325, -12.483333333333325 ], [ 14.108333333333325, -12.5 ], [ 14.116666666666658, -12.5 ], [ 14.116666666666658, -12.533333333333326 ], [ 14.125, -12.533333333333326 ], [ 14.125, -12.516666666666659 ], [ 14.133333333333326, -12.516666666666659 ], [ 14.133333333333326, -12.508333333333326 ], [ 14.175, -12.508333333333326 ], [ 14.175, -12.5 ], [ 14.183333333333325, -12.5 ], [ 14.183333333333325, -12.516666666666659 ], [ 14.208333333333325, -12.516666666666659 ], [ 14.208333333333325, -12.508333333333326 ], [ 14.2, -12.508333333333326 ], [ 14.2, -12.5 ], [ 14.216666666666658, -12.5 ], [ 14.216666666666658, -12.49166666666666 ], [ 14.233333333333325, -12.49166666666666 ], [ 14.233333333333325, -12.5 ], [ 14.241666666666658, -12.5 ], [ 14.241666666666658, -12.49166666666666 ], [ 14.25, -12.49166666666666 ], [ 14.25, -12.483333333333325 ], [ 14.191666666666659, -12.483333333333325 ], [ 14.191666666666659, -12.475 ], [ 14.208333333333325, -12.475 ], [ 14.208333333333325, -12.46666666666666 ], [ 14.216666666666658, -12.46666666666666 ], [ 14.216666666666658, -12.458333333333327 ], [ 14.191666666666659, -12.458333333333327 ], [ 14.191666666666659, -12.45 ], [ 14.2, -12.45 ], [ 14.2, -12.391666666666659 ], [ 14.183333333333325, -12.391666666666659 ], [ 14.183333333333325, -12.4 ], [ 14.191666666666659, -12.4 ], [ 14.191666666666659, -12.433333333333326 ], [ 14.183333333333325, -12.433333333333326 ], [ 14.183333333333325, -12.441666666666659 ], [ 14.175, -12.441666666666659 ], [ 14.175, -12.45 ], [ 14.15, -12.45 ], [ 14.15, -12.441666666666659 ], [ 14.141666666666659, -12.441666666666659 ], [ 14.141666666666659, -12.433333333333326 ], [ 14.116666666666658, -12.433333333333326 ], [ 14.116666666666658, -12.425 ], [ 14.108333333333325, -12.425 ], [ 14.108333333333325, -12.416666666666659 ], [ 14.1, -12.416666666666659 ], [ 14.1, -12.4 ], [ 14.091666666666658, -12.4 ], [ 14.091666666666658, -12.383333333333326 ], [ 14.1, -12.383333333333326 ], [ 14.1, -12.36666666666666 ], [ 14.091666666666658, -12.36666666666666 ], [ 14.091666666666658, -12.375 ], [ 14.083333333333325, -12.375 ], [ 14.083333333333325, -12.36666666666666 ], [ 14.075, -12.36666666666666 ], [ 14.075, -12.383333333333326 ], [ 14.083333333333325, -12.383333333333326 ], [ 14.083333333333325, -12.4 ], [ 14.075, -12.4 ], [ 14.075, -12.408333333333326 ], [ 14.058333333333325, -12.408333333333326 ], [ 14.058333333333325, -12.4 ], [ 14.05, -12.4 ], [ 14.05, -12.383333333333326 ], [ 14.066666666666659, -12.383333333333326 ], [ 14.066666666666659, -12.375 ], [ 14.058333333333325, -12.375 ], [ 14.058333333333325, -12.36666666666666 ], [ 14.041666666666659, -12.36666666666666 ], [ 14.041666666666659, -12.375 ], [ 14.025, -12.375 ], [ 14.025, -12.383333333333326 ], [ 14.016666666666659, -12.383333333333326 ], [ 14.016666666666659, -12.391666666666659 ], [ 14.041666666666659, -12.391666666666659 ], [ 14.041666666666659, -12.4 ], [ 14.033333333333324, -12.4 ], [ 14.033333333333324, -12.416666666666659 ], [ 14.0, -12.416666666666659 ], [ 14.0, -12.441666666666659 ], [ 13.983333333333325, -12.441666666666659 ], [ 13.983333333333325, -12.433333333333326 ], [ 13.975, -12.433333333333326 ], [ 13.975, -12.425 ], [ 13.966666666666658, -12.425 ], [ 13.966666666666658, -12.416666666666659 ], [ 13.958333333333325, -12.416666666666659 ], [ 13.958333333333325, -12.4 ], [ 13.95, -12.4 ], [ 13.95, -12.375 ], [ 13.941666666666659, -12.375 ], [ 13.941666666666659, -12.358333333333325 ], [ 13.925, -12.358333333333325 ], [ 13.925, -12.35 ], [ 13.941666666666659, -12.35 ], [ 13.941666666666659, -12.34166666666666 ], [ 13.95, -12.34166666666666 ], [ 13.95, -12.308333333333326 ], [ 13.941666666666659, -12.308333333333326 ], [ 13.941666666666659, -12.3 ], [ 13.933333333333325, -12.3 ], [ 13.933333333333325, -12.291666666666659 ], [ 13.908333333333324, -12.291666666666659 ], [ 13.908333333333324, -12.283333333333326 ], [ 13.9, -12.283333333333326 ], [ 13.9, -12.258333333333326 ], [ 13.891666666666659, -12.258333333333326 ], [ 13.891666666666659, -12.24166666666666 ], [ 13.9, -12.24166666666666 ], [ 13.9, -12.233333333333325 ], [ 13.908333333333324, -12.233333333333325 ], [ 13.908333333333324, -12.191666666666659 ], [ 13.9, -12.191666666666659 ], [ 13.9, -12.183333333333326 ], [ 13.916666666666659, -12.183333333333326 ], [ 13.916666666666659, -12.191666666666659 ], [ 13.933333333333325, -12.191666666666659 ], [ 13.933333333333325, -12.2 ], [ 13.958333333333325, -12.2 ], [ 13.958333333333325, -12.208333333333325 ], [ 13.991666666666658, -12.208333333333325 ], [ 13.991666666666658, -12.21666666666666 ], [ 14.0, -12.21666666666666 ], [ 14.0, -12.208333333333325 ], [ 14.041666666666659, -12.208333333333325 ], [ 14.041666666666659, -12.2 ], [ 14.016666666666659, -12.2 ], [ 14.016666666666659, -12.191666666666659 ], [ 14.008333333333326, -12.191666666666659 ], [ 14.008333333333326, -12.183333333333326 ], [ 13.983333333333325, -12.183333333333326 ], [ 13.983333333333325, -12.175 ], [ 13.975, -12.175 ], [ 13.975, -12.166666666666659 ], [ 13.958333333333325, -12.166666666666659 ], [ 13.958333333333325, -12.158333333333326 ], [ 13.95, -12.158333333333326 ], [ 13.95, -12.15 ], [ 13.941666666666659, -12.15 ], [ 13.941666666666659, -12.133333333333326 ], [ 13.95, -12.133333333333326 ], [ 13.95, -12.125 ], [ 13.958333333333325, -12.125 ], [ 13.958333333333325, -12.1 ], [ 13.966666666666658, -12.1 ], [ 13.966666666666658, -12.075 ], [ 14.041666666666659, -12.075 ], [ 14.041666666666659, -12.066666666666659 ], [ 14.05, -12.066666666666659 ], [ 14.05, -12.05 ], [ 13.983333333333325, -12.05 ], [ 13.983333333333325, -12.041666666666659 ], [ 13.975, -12.041666666666659 ], [ 13.975, -12.033333333333326 ], [ 13.983333333333325, -12.033333333333326 ], [ 13.983333333333325, -12.025 ], [ 13.991666666666658, -12.025 ], [ 13.991666666666658, -12.016666666666659 ], [ 14.025, -12.016666666666659 ], [ 14.025, -12.0 ], [ 14.033333333333324, -12.0 ], [ 14.033333333333324, -11.99166666666666 ], [ 14.05, -11.99166666666666 ], [ 14.05, -12.0 ], [ 14.058333333333325, -12.0 ], [ 14.058333333333325, -11.99166666666666 ], [ 14.066666666666659, -11.99166666666666 ], [ 14.066666666666659, -11.975 ], [ 14.058333333333325, -11.975 ], [ 14.058333333333325, -11.983333333333325 ], [ 14.041666666666659, -11.983333333333325 ], [ 14.041666666666659, -11.96666666666666 ], [ 14.05, -11.96666666666666 ], [ 14.05, -11.95 ], [ 14.041666666666659, -11.95 ], [ 14.041666666666659, -11.958333333333325 ], [ 14.033333333333324, -11.958333333333325 ], [ 14.033333333333324, -11.96666666666666 ], [ 14.025, -11.96666666666666 ], [ 14.025, -11.958333333333325 ], [ 14.0, -11.958333333333325 ], [ 14.0, -11.941666666666659 ], [ 13.991666666666658, -11.941666666666659 ], [ 13.991666666666658, -11.933333333333326 ], [ 13.983333333333325, -11.933333333333326 ], [ 13.983333333333325, -11.916666666666659 ], [ 13.991666666666658, -11.916666666666659 ], [ 13.991666666666658, -11.891666666666659 ], [ 13.983333333333325, -11.891666666666659 ], [ 13.983333333333325, -11.908333333333326 ], [ 13.966666666666658, -11.908333333333326 ], [ 13.966666666666658, -11.891666666666659 ], [ 13.958333333333325, -11.891666666666659 ], [ 13.958333333333325, -11.883333333333326 ], [ 13.95, -11.883333333333326 ], [ 13.95, -11.875 ], [ 13.941666666666659, -11.875 ] ], [ [ 13.933333333333325, -11.975 ], [ 13.941666666666659, -11.975 ], [ 13.941666666666659, -11.983333333333325 ], [ 13.933333333333325, -11.983333333333325 ], [ 13.933333333333325, -11.975 ] ], [ [ 13.683333333333325, -12.283333333333326 ], [ 13.7, -12.283333333333326 ], [ 13.7, -12.291666666666659 ], [ 13.691666666666659, -12.291666666666659 ], [ 13.691666666666659, -12.308333333333326 ], [ 13.683333333333325, -12.308333333333326 ], [ 13.683333333333325, -12.325 ], [ 13.675, -12.325 ], [ 13.675, -12.3 ], [ 13.683333333333325, -12.3 ], [ 13.683333333333325, -12.283333333333326 ] ], [ [ 14.033333333333324, -12.416666666666659 ], [ 14.041666666666659, -12.416666666666659 ], [ 14.041666666666659, -12.433333333333326 ], [ 14.033333333333324, -12.433333333333326 ], [ 14.033333333333324, -12.416666666666659 ] ], [ [ 14.158333333333324, -12.483333333333325 ], [ 14.166666666666659, -12.483333333333325 ], [ 14.166666666666659, -12.49166666666666 ], [ 14.158333333333324, -12.49166666666666 ], [ 14.158333333333324, -12.483333333333325 ] ], [ [ 14.15, -12.49166666666666 ], [ 14.158333333333324, -12.49166666666666 ], [ 14.158333333333324, -12.5 ], [ 14.15, -12.5 ], [ 14.15, -12.49166666666666 ] ], [ [ 13.291666666666659, -12.608333333333325 ], [ 13.3, -12.608333333333325 ], [ 13.3, -12.625 ], [ 13.283333333333324, -12.625 ], [ 13.283333333333324, -12.61666666666666 ], [ 13.291666666666659, -12.61666666666666 ], [ 13.291666666666659, -12.608333333333325 ] ], [ [ 13.633333333333326, -12.625 ], [ 13.641666666666659, -12.625 ], [ 13.641666666666659, -12.633333333333326 ], [ 13.633333333333326, -12.633333333333326 ], [ 13.633333333333326, -12.625 ] ], [ [ 13.233333333333325, -12.733333333333325 ], [ 13.25, -12.733333333333325 ], [ 13.25, -12.74166666666666 ], [ 13.233333333333325, -12.74166666666666 ], [ 13.233333333333325, -12.733333333333325 ] ] ] } },
{ "type": "Feature", "properties": { "threshold_min": 120 }, "geometry": { "type": "Polygon", "coordinates": [ [ [ 13.916666666666659, -11.758333333333326 ], [ 13.916666666666659, -11.775 ], [ 13.908333333333324, -11.775 ], [ 13.908333333333324, -11.808333333333326 ], [ 13.9, -11.808333333333326 ], [ 13.9, -11.84166666666666 ], [ 13.858333333333325, -11.84166666666666 ], [ 13.858333333333325, -11.85 ], [ 13.841666666666658, -11.85 ], [ 13.841666666666658, -11.833333333333325 ], [ 13.833333333333325, -11.833333333333325 ], [ 13.833333333333325, -11.825 ], [ 13.825, -11.825 ], [ 13.825, -11.816666666666659 ], [ 13.775, -11.816666666666659 ], [ 13.775, -11.84166666666666 ], [ 13.791666666666659, -11.84166666666666 ], [ 13.791666666666659, -11.866666666666658 ], [ 13.8, -11.866666666666658 ], [ 13.8, -11.891666666666659 ], [ 13.791666666666659, -11.891666666666659 ], [ 13.791666666666659, -11.9 ], [ 13.75, -11.9 ], [ 13.75, -11.933333333333326 ], [ 13.741666666666658, -11.933333333333326 ], [ 13.741666666666658, -11.95 ], [ 13.733333333333325, -11.95 ], [ 13.733333333333325, -12.016666666666659 ], [ 13.716666666666658, -12.016666666666659 ], [ 13.716666666666658, -12.033333333333326 ], [ 13.708333333333325, -12.033333333333326 ], [ 13.708333333333325, -12.083333333333325 ], [ 13.725, -12.083333333333325 ], [ 13.725, -12.09166666666666 ], [ 13.733333333333325, -12.09166666666666 ], [ 13.733333333333325, -12.083333333333325 ], [ 13.741666666666658, -12.083333333333325 ], [ 13.741666666666658, -12.09166666666666 ], [ 13.758333333333326, -12.09166666666666 ], [ 13.758333333333326, -12.1 ], [ 13.741666666666658, -12.1 ], [ 13.741666666666658, -12.108333333333325 ], [ 13.708333333333325, -12.108333333333325 ], [ 13.708333333333325, -12.11666666666666 ], [ 13.691666666666659, -12.11666666666666 ], [ 13.691666666666659, -12.125 ], [ 13.683333333333325, -12.125 ], [ 13.683333333333325, -12.175 ], [ 13.691666666666659, -12.175 ], [ 13.691666666666659, -12.183333333333326 ], [ 13.633333333333326, -12.183333333333326 ], [ 13.633333333333326, -12.191666666666659 ], [ 13.616666666666658, -12.191666666666659 ], [ 13.616666666666658, -12.208333333333325 ], [ 13.608333333333325, -12.208333333333325 ], [ 13.608333333333325, -12.225 ], [ 13.6, -12.225 ], [ 13.6, -12.233333333333325 ], [ 13.591666666666658, -12.233333333333325 ], [ 13.591666666666658, -12.24166666666666 ], [ 13.583333333333325, -12.24166666666666 ], [ 13.583333333333325, -12.25 ], [ 13.566666666666659, -12.25 ], [ 13.566666666666659, -12.258333333333326 ], [ 13.55, -12.258333333333326 ], [ 13.55, -12.266666666666659 ], [ 13.533333333333324, -12.266666666666659 ], [ 13.533333333333324, -12.275 ], [ 13.525, -12.275 ], [ 13.525, -12.283333333333326 ], [ 13.508333333333326, -12.283333333333326 ], [ 13.508333333333326, -12.291666666666659 ], [ 13.491666666666658, -12.291666666666659 ], [ 13.491666666666658, -12.3 ], [ 13.483333333333325, -12.3 ], [ 13.483333333333325, -12.308333333333326 ], [ 13.475, -12.308333333333326 ], [ 13.475, -12.316666666666659 ], [ 13.466666666666658, -12.316666666666659 ], [ 13.466666666666658, -12.325 ], [ 13.458333333333325, -12.325 ], [ 13.458333333333325, -12.34166666666666 ], [ 13.45, -12.34166666666666 ], [ 13.45, -12.358333333333325 ], [ 13.441666666666658, -12.358333333333325 ], [ 13.441666666666658, -12.36666666666666 ], [ 13.433333333333325, -12.36666666666666 ], [ 13.433333333333325, -12.383333333333326 ], [ 13.425, -12.383333333333326 ], [ 13.425, -12.4 ], [ 13.416666666666659, -12.4 ], [ 13.416666666666659, -12.475 ], [ 13.4, -12.475 ], [ 13.4, -12.483333333333325 ], [ 13.391666666666659, -12.483333333333325 ], [ 13.391666666666659, -12.49166666666666 ], [ 13.383333333333326, -12.49166666666666 ], [ 13.383333333333326, -12.5 ], [ 13.375, -12.5 ], [ 13.375, -12.508333333333326 ], [ 13.366666666666658, -12.508333333333326 ], [ 13.366666666666658, -12.516666666666659 ], [ 13.358333333333325, -12.516666666666659 ], [ 13.358333333333325, -12.525 ], [ 13.35, -12.525 ], [ 13.35, -12.533333333333326 ], [ 13.341666666666658, -12.533333333333326 ], [ 13.341666666666658, -12.541666666666659 ], [ 13.333333333333325, -12.541666666666659 ], [ 13.333333333333325, -12.55 ], [ 13.325, -12.55 ], [ 13.325, -12.558333333333326 ], [ 13.308333333333325, -12.558333333333326 ], [ 13.308333333333325, -12.55 ], [ 13.291666666666659, -12.55 ], [ 13.291666666666659, -12.541666666666659 ], [ 13.25, -12.541666666666659 ], [ 13.25, -12.55 ], [ 13.233333333333325, -12.55 ], [ 13.233333333333325, -12.558333333333326 ], [ 13.175, -12.558333333333326 ], [ 13.175, -12.566666666666659 ], [ 13.166666666666659, -12.566666666666659 ], [ 13.166666666666659, -12.575 ], [ 13.158333333333324, -12.575 ], [ 13.158333333333324, -12.583333333333327 ], [ 13.15, -12.583333333333327 ], [ 13.15, -12.59166666666666 ], [ 13.141666666666659, -12.59166666666666 ], [ 13.141666666666659, -12.6 ], [ 13.133333333333326, -12.6 ], [ 13.133333333333326, -12.608333333333325 ], [ 13.125, -12.608333333333325 ], [ 13.125, -12.633333333333326 ], [ 13.116666666666658, -12.633333333333326 ], [ 13.116666666666658, -12.641666666666659 ], [ 13.108333333333325, -12.641666666666659 ], [ 13.108333333333325, -12.65 ], [ 13.1, -12.65 ], [ 13.1, -12.675 ], [ 13.083333333333325, -12.675 ], [ 13.083333333333325, -12.683333333333326 ], [ 13.075, -12.683333333333326 ], [ 13.075, -12.691666666666659 ], [ 13.058333333333325, -12.691666666666659 ], [ 13.058333333333325, -12.708333333333327 ], [ 13.05, -12.708333333333327 ], [ 13.05, -12.725 ], [ 13.041666666666659, -12.725 ], [ 13.041666666666659, -12.733333333333325 ], [ 13.033333333333324, -12.733333333333325 ], [ 13.033333333333324, -12.74166666666666 ], [ 13.025, -12.74166666666666 ], [ 13.025, -12.75 ], [ 13.008333333333326, -12.75 ], [ 13.008333333333326, -12.783333333333326 ], [ 13.0, -12.783333333333326 ], [ 13.0, -12.791666666666659 ], [ 13.008333333333326, -12.791666666666659 ], [ 13.008333333333326, -12.8 ], [ 13.0, -12.8 ], [ 13.0, -12.816666666666659 ], [ 12.991666666666658, -12.816666666666659 ], [ 12.991666666666658, -12.825 ], [ 13.008333333333326, -12.825 ], [ 13.008333333333326, -12.808333333333326 ], [ 13.016666666666659, -12.808333333333326 ], [ 13.016666666666659, -12.8 ], [ 13.025, -12.8 ], [ 13.025, -12.791666666666659 ], [ 13.041666666666659, -12.791666666666659 ], [ 13.041666666666659, -12.775 ], [ 13.05, -12.775 ], [ 13.05, -12.766666666666659 ], [ 13.091666666666658, -12.766666666666659 ], [ 13.091666666666658, -12.775 ], [ 13.1, -12.775 ], [ 13.1, -12.783333333333326 ], [ 13.108333333333325, -12.783333333333326 ], [ 13.108333333333325, -12.8 ], [ 13.116666666666658, -12.8 ], [ 13.116666666666658, -12.808333333333326 ], [ 13.108333333333325, -12.808333333333326 ], [ 13.108333333333325, -12.84166666666666 ], [ 13.075, -12.84166666666666 ], [ 13.075, -12.833333333333327 ], [ 13.066666666666658, -12.833333333333327 ], [ 13.066666666666658, -12.84166666666666 ], [ 13.041666666666659, -12.84166666666666 ], [ 13.041666666666659, -12.85 ], [ 13.033333333333324, -12.85 ], [ 13.033333333333324, -12.858333333333327 ], [ 13.008333333333326, -12.858333333333327 ], [ 13.008333333333326, -12.85 ], [ 13.0, -12.85 ], [ 13.0, -12.84166666666666 ], [ 12.991666666666658, -12.84166666666666 ], [ 12.991666666666658, -12.833333333333327 ], [ 12.983333333333325, -12.833333333333327 ], [ 12.983333333333325, -12.84166666666666 ], [ 12.975, -12.84166666666666 ], [ 12.975, -12.85 ], [ 12.983333333333325, -12.85 ], [ 12.983333333333325, -12.858333333333327 ], [ 12.975, -12.858333333333327 ], [ 12.975, -12.86666666666666 ], [ 12.966666666666658, -12.86666666666666 ], [ 12.966666666666658, -12.875 ], [ 12.975, -12.875 ], [ 12.975, -12.883333333333326 ], [ 12.966666666666658, -12.883333333333326 ], [ 12.966666666666658, -12.891666666666659 ], [ 12.975, -12.891666666666659 ], [ 12.975, -12.9 ], [ 12.991666666666658, -12.9 ], [ 12.991666666666658, -12.908333333333326 ], [ 13.0, -12.908333333333326 ], [ 13.0, -12.9 ], [ 13.016666666666659, -12.9 ], [ 13.016666666666659, -12.908333333333326 ], [ 13.008333333333326, -12.908333333333326 ], [ 13.008333333333326, -12.916666666666659 ], [ 13.0, -12.916666666666659 ], [ 13.0, -12.925 ], [ 13.016666666666659, -12.925 ], [ 13.016666666666659, -12.916666666666659 ], [ 13.05, -12.916666666666659 ], [ 13.05, -12.908333333333326 ], [ 13.058333333333325, -12.908333333333326 ], [ 13.058333333333325, -12.916666666666659 ], [ 13.066666666666658, -12.916666666666659 ], [ 13.066666666666658, -12.958333333333327 ], [ 13.058333333333325, -12.958333333333327 ], [ 13.058333333333325, -12.96666666666666 ], [ 13.025, -12.96666666666666 ], [ 13.025, -12.975 ], [ 13.016666666666659, -12.975 ], [ 13.016666666666659, -12.983333333333327 ], [ 12.991666666666658, -12.983333333333327 ], [ 12.991666666666658, -12.99166666666666 ], [ 13.025, -12.99166666666666 ], [ 13.025, -13.0 ], [ 13.033333333333324, -13.0 ], [ 13.033333333333324, -12.99166666666666 ], [ 13.083333333333325, -12.99166666666666 ], [ 13.083333333333325, -13.0 ], [ 13.075, -13.0 ], [ 13.075, -13.016666666666659 ], [ 13.066666666666658, -13.016666666666659 ], [ 13.066666666666658, -13.025 ], [ 13.058333333333325, -13.025 ], [ 13.058333333333325, -13.05 ], [ 13.05, -13.05 ], [ 13.05, -13.066666666666659 ], [ 13.041666666666659, -13.066666666666659 ], [ 13.041666666666659, -13.075 ], [ 13.033333333333324, -13.075 ], [ 13.033333333333324, -13.09166666666666 ], [ 13.025, -13.09166666666666 ], [ 13.025, -13.1 ], [ 13.041666666666659, -13.1 ], [ 13.041666666666659, -13.09166666666666 ], [ 13.05, -13.09166666666666 ], [ 13.05, -13.075 ], [ 13.066666666666658, -13.075 ], [ 13.066666666666658, -13.066666666666659 ], [ 13.075, -13.066666666666659 ], [ 13.075, -13.09166666666666 ], [ 13.083333333333325, -13.09166666666666 ], [ 13.083333333333325, -13.058333333333326 ], [ 13.091666666666658, -13.058333333333326 ], [ 13.091666666666658, -13.041666666666659 ], [ 13.1, -13.041666666666659 ], [ 13.1, -13.033333333333326 ], [ 13.116666666666658, -13.033333333333326 ], [ 13.116666666666658, -13.0 ], [ 13.125, -13.0 ], [ 13.125, -12.99166666666666 ], [ 13.133333333333326, -12.99166666666666 ], [ 13.133333333333326, -13.0 ], [ 13.158333333333324, -13.0 ], [ 13.158333333333324, -12.96666666666666 ], [ 13.15, -12.96666666666666 ], [ 13.15, -12.958333333333327 ], [ 13.141666666666659, -12.958333333333327 ], [ 13.141666666666659, -12.95 ], [ 13.15, -12.95 ], [ 13.15, -12.908333333333326 ], [ 13.158333333333324, -12.908333333333326 ], [ 13.158333333333324, -12.9 ], [ 13.166666666666659, -12.9 ], [ 13.166666666666659, -12.891666666666659 ], [ 13.175, -12.891666666666659 ], [ 13.175, -12.883333333333326 ], [ 13.208333333333325, -12.883333333333326 ], [ 13.208333333333325, -12.891666666666659 ], [ 13.225, -12.891666666666659 ], [ 13.225, -12.908333333333326 ], [ 13.233333333333325, -12.908333333333326 ], [ 13.233333333333325, -12.916666666666659 ], [ 13.241666666666658, -12.916666666666659 ], [ 13.241666666666658, -12.925 ], [ 13.233333333333325, -12.925 ], [ 13.233333333333325, -12.941666666666659 ], [ 13.225, -12.941666666666659 ], [ 13.225, -12.95 ], [ 13.216666666666658, -12.95 ], [ 13.216666666666658, -12.958333333333327 ], [ 13.208333333333325, -12.958333333333327 ], [ 13.208333333333325, -12.96666666666666 ], [ 13.2, -12.96666666666666 ], [ 13.2, -12.983333333333327 ], [ 13.191666666666658, -12.983333333333327 ], [ 13.191666666666658, -13.0 ], [ 13.208333333333325, -13.0 ], [ 13.208333333333325, -12.99166666666666 ], [ 13.216666666666658, -12.99166666666666 ], [ 13.216666666666658, -12.983333333333327 ], [ 13.225, -12.983333333333327 ], [ 13.225, -13.033333333333326 ], [ 13.233333333333325, -13.033333333333326 ], [ 13.233333333333325, -13.025 ], [ 13.25, -13.025 ], [ 13.25, -13.016666666666659 ], [ 13.266666666666659, -13.016666666666659 ], [ 13.266666666666659, -13.008333333333326 ], [ 13.275, -13.008333333333326 ], [ 13.275, -13.0 ], [ 13.283333333333324, -13.0 ], [ 13.283333333333324, -12.983333333333327 ], [ 13.308333333333325, -12.983333333333327 ], [ 13.308333333333325, -12.975 ], [ 13.325, -12.975 ], [ 13.325, -12.958333333333327 ], [ 13.333333333333325, -12.958333333333327 ], [ 13.333333333333325, -12.95 ], [ 13.358333333333325, -12.95 ], [ 13.358333333333325, -12.941666666666659 ], [ 13.366666666666658, -12.941666666666659 ], [ 13.366666666666658, -12.933333333333326 ], [ 13.391666666666659, -12.933333333333326 ], [ 13.391666666666659, -12.925 ], [ 13.4, -12.925 ], [ 13.4, -12.933333333333326 ], [ 13.408333333333324, -12.933333333333326 ], [ 13.408333333333324, -12.941666666666659 ], [ 13.416666666666659, -12.941666666666659 ], [ 13.416666666666659, -12.96666666666666 ], [ 13.408333333333324, -12.96666666666666 ], [ 13.408333333333324, -12.99166666666666 ], [ 13.4, -12.99166666666666 ], [ 13.4, -13.0 ], [ 13.408333333333324, -13.0 ], [ 13.408333333333324, -13.008333333333326 ], [ 13.4, -13.008333333333326 ], [ 13.4, -13.066666666666659 ], [ 13.408333333333324, -13.066666666666659 ], [ 13.408333333333324, -13.083333333333327 ], [ 13.416666666666659, -13.083333333333327 ], [ 13.416666666666659, -13.133333333333326 ], [ 13.425, -13.133333333333326 ], [ 13.425, -13.14166666666666 ], [ 13.416666666666659, -13.14166666666666 ], [ 13.416666666666659, -13.166666666666659 ], [ 13.425, -13.166666666666659 ], [ 13.425, -13.15 ], [ 13.433333333333325, -13.15 ], [ 13.433333333333325, -13.14166666666666 ], [ 13.441666666666658, -13.14166666666666 ], [ 13.441666666666658, -13.158333333333326 ], [ 13.45, -13.158333333333326 ], [ 13.45, -13.166666666666659 ], [ 13.458333333333325, -13.166666666666659 ], [ 13.458333333333325, -13.15 ], [ 13.45, -13.15 ], [ 13.45, -13.11666666666666 ], [ 13.441666666666658, -13.11666666666666 ], [ 13.441666666666658, -13.041666666666659 ], [ 13.45, -13.041666666666659 ], [ 13.45, -13.016666666666659 ], [ 13.458333333333325, -13.016666666666659 ], [ 13.458333333333325, -13.0 ], [ 13.475, -13.0 ], [ 13.475, -13.016666666666659 ], [ 13.483333333333325, -13.016666666666659 ], [ 13.483333333333325, -13.033333333333326 ], [ 13.5, -13.033333333333326 ], [ 13.5, -13.041666666666659 ], [ 13.508333333333326, -13.041666666666659 ], [ 13.508333333333326, -13.05 ], [ 13.533333333333324, -13.05 ], [ 13.533333333333324, -13.058333333333326 ], [ 13.558333333333325, -13.058333333333326 ], [ 13.558333333333325, -13.066666666666659 ], [ 13.566666666666659, -13.066666666666659 ], [ 13.566666666666659, -13.09166666666666 ], [ 13.583333333333325, -13.09166666666666 ], [ 13.583333333333325, -13.1 ], [ 13.6, -13.1 ], [ 13.6, -13.108333333333327 ], [ 13.608333333333325, -13.108333333333327 ], [ 13.608333333333325, -13.11666666666666 ], [ 13.625, -13.11666666666666 ], [ 13.625, -13.108333333333327 ], [ 13.616666666666658, -13.108333333333327 ], [ 13.616666666666658, -13.1 ], [ 13.608333333333325, -13.1 ], [ 13.608333333333325, -13.09166666666666 ], [ 13.625, -13.09166666666666 ], [ 13.625, -13.083333333333327 ], [ 13.633333333333326, -13.083333333333327 ], [ 13.633333333333326, -13.09166666666666 ], [ 13.641666666666659, -13.09166666666666 ], [ 13.641666666666659, -13.083333333333327 ], [ 13.65, -13.083333333333327 ], [ 13.65, -13.09166666666666 ], [ 13.666666666666659, -13.09166666666666 ], [ 13.666666666666659, -13.11666666666666 ], [ 13.675, -13.11666666666666 ], [ 13.675, -13.083333333333327 ], [ 13.683333333333325, -13.083333333333327 ], [ 13.683333333333325, -13.075 ], [ 13.725, -13.075 ], [ 13.725, -13.066666666666659 ], [ 13.733333333333325, -13.066666666666659 ], [ 13.733333333333325, -13.1 ], [ 13.741666666666658, -13.1 ], [ 13.741666666666658, -13.11666666666666 ], [ 13.75, -13.11666666666666 ], [ 13.75, -13.125 ], [ 13.758333333333326, -13.125 ], [ 13.758333333333326, -13.133333333333326 ], [ 13.766666666666659, -13.133333333333326 ], [ 13.766666666666659, -13.158333333333326 ], [ 13.75, -13.158333333333326 ], [ 13.75, -13.175 ], [ 13.758333333333326, -13.175 ], [ 13.758333333333326, -13.2 ], [ 13.766666666666659, -13.2 ], [ 13.766666666666659, -13.166666666666659 ], [ 13.775, -13.166666666666659 ], [ 13.775, -13.133333333333326 ], [ 13.783333333333324, -13.133333333333326 ], [ 13.783333333333324, -13.108333333333327 ], [ 13.775, -13.108333333333327 ], [ 13.775, -13.05 ], [ 13.783333333333324, -13.05 ], [ 13.783333333333324, -13.016666666666659 ], [ 13.825, -13.016666666666659 ], [ 13.825, -13.008333333333326 ], [ 13.833333333333325, -13.008333333333326 ], [ 13.833333333333325, -13.0 ], [ 13.866666666666658, -13.0 ], [ 13.866666666666658, -13.008333333333326 ], [ 13.875, -13.008333333333326 ], [ 13.875, -13.025 ], [ 13.891666666666659, -13.025 ], [ 13.891666666666659, -12.99166666666666 ], [ 13.883333333333326, -12.99166666666666 ], [ 13.883333333333326, -12.983333333333327 ], [ 13.875, -12.983333333333327 ], [ 13.875, -12.975 ], [ 13.858333333333325, -12.975 ], [ 13.858333333333325, -12.96666666666666 ], [ 13.85, -12.96666666666666 ], [ 13.85, -12.958333333333327 ], [ 13.841666666666658, -12.958333333333327 ], [ 13.841666666666658, -12.983333333333327 ], [ 13.816666666666659, -12.983333333333327 ], [ 13.816666666666659, -12.975 ], [ 13.808333333333325, -12.975 ], [ 13.808333333333325, -12.983333333333327 ], [ 13.775, -12.983333333333327 ], [ 13.775, -12.975 ], [ 13.783333333333324, -12.975 ], [ 13.783333333333324, -12.96666666666666 ], [ 13.766666666666659, -12.96666666666666 ], [ 13.766666666666659, -12.975 ], [ 13.758333333333326, -12.975 ], [ 13.758333333333326, -12.983333333333327 ], [ 13.75, -12.983333333333327 ], [ 13.75, -12.99166666666666 ], [ 13.733333333333325, -12.99166666666666 ], [ 13.733333333333325, -12.975 ], [ 13.725, -12.975 ], [ 13.725, -12.933333333333326 ], [ 13.766666666666659, -12.933333333333326 ], [ 13.766666666666659, -12.925 ], [ 13.725, -12.925 ], [ 13.725, -12.916666666666659 ], [ 13.716666666666658, -12.916666666666659 ], [ 13.716666666666658, -12.908333333333326 ], [ 13.725, -12.908333333333326 ], [ 13.725, -12.9 ], [ 13.716666666666658, -12.9 ], [ 13.716666666666658, -12.891666666666659 ], [ 13.708333333333325, -12.891666666666659 ], [ 13.708333333333325, -12.908333333333326 ], [ 13.7, -12.908333333333326 ], [ 13.7, -12.9 ], [ 13.691666666666659, -12.9 ], [ 13.691666666666659, -12.916666666666659 ], [ 13.7, -12.916666666666659 ], [ 13.7, -12.958333333333327 ], [ 13.691666666666659, -12.958333333333327 ], [ 13.691666666666659, -12.96666666666666 ], [ 13.683333333333325, -12.96666666666666 ], [ 13.683333333333325, -12.925 ], [ 13.65, -12.925 ], [ 13.65, -12.941666666666659 ], [ 13.641666666666659, -12.941666666666659 ], [ 13.641666666666659, -12.933333333333326 ], [ 13.633333333333326, -12.933333333333326 ], [ 13.633333333333326, -12.925 ], [ 13.616666666666658, -12.925 ], [ 13.616666666666658, -12.916666666666659 ], [ 13.6, -12.916666666666659 ], [ 13.6, -12.908333333333326 ], [ 13.583333333333325, -12.908333333333326 ], [ 13.583333333333325, -12.9 ], [ 13.558333333333325, -12.9 ], [ 13.558333333333325, -12.891666666666659 ], [ 13.55, -12.891666666666659 ], [ 13.55, -12.883333333333326 ], [ 13.541666666666659, -12.883333333333326 ], [ 13.541666666666659, -12.875 ], [ 13.525, -12.875 ], [ 13.525, -12.86666666666666 ], [ 13.508333333333326, -12.86666666666666 ], [ 13.508333333333326, -12.84166666666666 ], [ 13.516666666666659, -12.84166666666666 ], [ 13.516666666666659, -12.833333333333327 ], [ 13.541666666666659, -12.833333333333327 ], [ 13.541666666666659, -12.825 ], [ 13.55, -12.825 ], [ 13.55, -12.808333333333326 ], [ 13.558333333333325, -12.808333333333326 ], [ 13.558333333333325, -12.775 ], [ 13.55, -12.775 ], [ 13.55, -12.758333333333326 ], [ 13.541666666666659, -12.758333333333326 ], [ 13.541666666666659, -12.75 ], [ 13.558333333333325, -12.75 ], [ 13.558333333333325, -12.758333333333326 ], [ 13.575, -12.758333333333326 ], [ 13.575, -12.766666666666659 ], [ 13.6, -12.766666666666659 ], [ 13.6, -12.8 ], [ 13.608333333333325, -12.8 ], [ 13.608333333333325, -12.808333333333326 ], [ 13.616666666666658, -12.808333333333326 ], [ 13.616666666666658, -12.825 ], [ 13.633333333333326, -12.825 ], [ 13.633333333333326, -12.833333333333327 ], [ 13.641666666666659, -12.833333333333327 ], [ 13.641666666666659, -12.825 ], [ 13.658333333333324, -12.825 ], [ 13.658333333333324, -12.808333333333326 ], [ 13.666666666666659, -12.808333333333326 ], [ 13.666666666666659, -12.8 ], [ 13.675, -12.8 ], [ 13.675, -12.791666666666659 ], [ 13.683333333333325, -12.791666666666659 ], [ 13.683333333333325, -12.766666666666659 ], [ 13.675, -12.766666666666659 ], [ 13.675, -12.758333333333326 ], [ 13.683333333333325, -12.758333333333326 ], [ 13.683333333333325, -12.733333333333325 ], [ 13.691666666666659, -12.733333333333325 ], [ 13.691666666666659, -12.7 ], [ 13.7, -12.7 ], [ 13.7, -12.675 ], [ 13.708333333333325, -12.675 ], [ 13.708333333333325, -12.666666666666659 ], [ 13.716666666666658, -12.666666666666659 ], [ 13.716666666666658, -12.641666666666659 ], [ 13.725, -12.641666666666659 ], [ 13.725, -12.633333333333326 ], [ 13.733333333333325, -12.633333333333326 ], [ 13.733333333333325, -12.608333333333325 ], [ 13.741666666666658, -12.608333333333325 ], [ 13.741666666666658, -12.59166666666666 ], [ 13.75, -12.59166666666666 ], [ 13.75, -12.583333333333327 ], [ 13.758333333333326, -12.583333333333327 ], [ 13.758333333333326, -12.566666666666659 ], [ 13.766666666666659, -12.566666666666659 ], [ 13.766666666666659, -12.55 ], [ 13.775, -12.55 ], [ 13.775, -12.516666666666659 ], [ 13.8, -12.516666666666659 ], [ 13.8, -12.508333333333326 ], [ 13.808333333333325, -12.508333333333326 ], [ 13.808333333333325, -12.49166666666666 ], [ 13.816666666666659, -12.49166666666666 ], [ 13.816666666666659, -12.475 ], [ 13.825, -12.475 ], [ 13.825, -12.483333333333325 ], [ 13.858333333333325, -12.483333333333325 ], [ 13.858333333333325, -12.5 ], [ 13.875, -12.5 ], [ 13.875, -12.516666666666659 ], [ 13.883333333333326, -12.516666666666659 ], [ 13.883333333333326, -12.533333333333326 ], [ 13.891666666666659, -12.533333333333326 ], [ 13.891666666666659, -12.541666666666659 ], [ 13.9, -12.541666666666659 ], [ 13.9, -12.55 ], [ 13.908333333333324, -12.55 ], [ 13.908333333333324, -12.59166666666666 ], [ 13.916666666666659, -12.59166666666666 ], [ 13.916666666666659, -12.608333333333325 ], [ 13.925, -12.608333333333325 ], [ 13.925, -12.61666666666666 ], [ 13.933333333333325, -12.61666666666666 ], [ 13.933333333333325, -12.625 ], [ 13.941666666666659, -12.625 ], [ 13.941666666666659, -12.633333333333326 ], [ 13.958333333333325, -12.633333333333326 ], [ 13.958333333333325, -12.641666666666659 ], [ 13.966666666666658, -12.641666666666659 ], [ 13.966666666666658, -12.658333333333326 ], [ 13.983333333333325, -12.658333333333326 ], [ 13.983333333333325, -12.675 ], [ 13.991666666666658, -12.675 ], [ 13.991666666666658, -12.683333333333326 ], [ 13.966666666666658, -12.683333333333326 ], [ 13.966666666666658, -12.691666666666659 ], [ 13.958333333333325, -12.691666666666659 ], [ 13.958333333333325, -12.7 ], [ 13.95, -12.7 ], [ 13.95, -12.708333333333327 ], [ 13.933333333333325, -12.708333333333327 ], [ 13.933333333333325, -12.725 ], [ 13.941666666666659, -12.725 ], [ 13.941666666666659, -12.71666666666666 ], [ 14.0, -12.71666666666666 ], [ 14.0, -12.725 ], [ 14.008333333333326, -12.725 ], [ 14.008333333333326, -12.71666666666666 ], [ 14.033333333333324, -12.71666666666666 ], [ 14.033333333333324, -12.708333333333327 ], [ 14.041666666666659, -12.708333333333327 ], [ 14.041666666666659, -12.683333333333326 ], [ 14.05, -12.683333333333326 ], [ 14.05, -12.675 ], [ 14.058333333333325, -12.675 ], [ 14.058333333333325, -12.625 ], [ 14.05, -12.625 ], [ 14.05, -12.61666666666666 ], [ 14.041666666666659, -12.61666666666666 ], [ 14.041666666666659, -12.6 ], [ 14.033333333333324, -12.6 ], [ 14.033333333333324, -12.59166666666666 ], [ 14.041666666666659, -12.59166666666666 ], [ 14.041666666666659, -12.583333333333327 ], [ 14.058333333333325, -12.583333333333327 ], [ 14.058333333333325, -12.566666666666659 ], [ 14.066666666666659, -12.566666666666659 ], [ 14.066666666666659, -12.575 ], [ 14.075, -12.575 ], [ 14.075, -12.6 ], [ 14.091666666666658, -12.6 ], [ 14.091666666666658, -12.608333333333325 ], [ 14.108333333333325, -12.608333333333325 ], [ 14.108333333333325, -12.625 ], [ 14.116666666666658, -12.625 ], [ 14.116666666666658, -12.641666666666659 ], [ 14.125, -12.641666666666659 ], [ 14.125, -12.65 ], [ 14.133333333333326, -12.65 ], [ 14.133333333333326, -12.658333333333326 ], [ 14.15, -12.658333333333326 ], [ 14.15, -12.666666666666659 ], [ 14.175, -12.666666666666659 ], [ 14.175, -12.658333333333326 ], [ 14.233333333333325, -12.658333333333326 ], [ 14.233333333333325, -12.633333333333326 ], [ 14.291666666666659, -12.633333333333326 ], [ 14.291666666666659, -12.625 ], [ 14.333333333333325, -12.625 ], [ 14.333333333333325, -12.608333333333325 ], [ 14.341666666666658, -12.608333333333325 ], [ 14.341666666666658, -12.6 ], [ 14.35, -12.6 ], [ 14.35, -12.65 ], [ 14.341666666666658, -12.65 ], [ 14.341666666666658, -12.658333333333326 ], [ 14.35, -12.658333333333326 ], [ 14.35, -12.666666666666659 ], [ 14.366666666666658, -12.666666666666659 ], [ 14.366666666666658, -12.658333333333326 ], [ 14.375, -12.658333333333326 ], [ 14.375, -12.691666666666659 ], [ 14.383333333333326, -12.691666666666659 ], [ 14.383333333333326, -12.683333333333326 ], [ 14.391666666666659, -12.683333333333326 ], [ 14.391666666666659, -12.658333333333326 ], [ 14.4, -12.658333333333326 ], [ 14.4, -12.65 ], [ 14.408333333333324, -12.65 ], [ 14.408333333333324, -12.658333333333326 ], [ 14.425, -12.658333333333326 ], [ 14.425, -12.641666666666659 ], [ 14.433333333333325, -12.641666666666659 ], [ 14.433333333333325, -12.625 ], [ 14.425, -12.625 ], [ 14.425, -12.633333333333326 ], [ 14.408333333333324, -12.633333333333326 ], [ 14.408333333333324, -12.625 ], [ 14.416666666666659, -12.625 ], [ 14.416666666666659, -12.61666666666666 ], [ 14.425, -12.61666666666666 ], [ 14.425, -12.6 ], [ 14.416666666666659, -12.6 ], [ 14.416666666666659, -12.608333333333325 ], [ 14.408333333333324, -12.608333333333325 ], [ 14.408333333333324, -12.6 ], [ 14.391666666666659, -12.6 ], [ 14.391666666666659, -12.59166666666666 ], [ 14.4, -12.59166666666666 ], [ 14.4, -12.583333333333327 ], [ 14.416666666666659, -12.583333333333327 ], [ 14.416666666666659, -12.575 ], [ 14.425, -12.575 ], [ 14.425, -12.566666666666659 ], [ 14.45, -12.566666666666659 ], [ 14.45, -12.575 ], [ 14.441666666666659, -12.575 ], [ 14.441666666666659, -12.59166666666666 ], [ 14.45, -12.59166666666666 ], [ 14.45, -12.6 ], [ 14.458333333333325, -12.6 ], [ 14.458333333333325, -12.59166666666666 ], [ 14.466666666666658, -12.59166666666666 ], [ 14.466666666666658, -12.583333333333327 ], [ 14.458333333333325, -12.583333333333327 ], [ 14.458333333333325, -12.575 ], [ 14.475, -12.575 ], [ 14.475, -12.566666666666659 ], [ 14.5, -12.566666666666659 ], [ 14.5, -12.55 ], [ 14.508333333333326, -12.55 ], [ 14.508333333333326, -12.541666666666659 ], [ 14.525, -12.541666666666659 ], [ 14.525, -12.533333333333326 ], [ 14.541666666666659, -12.533333333333326 ], [ 14.541666666666659, -12.525 ], [ 14.533333333333324, -12.525 ], [ 14.533333333333324, -12.516666666666659 ], [ 14.525, -12.516666666666659 ], [ 14.525, -12.5 ], [ 14.55, -12.5 ], [ 14.55, -12.49166666666666 ], [ 14.516666666666659, -12.49166666666666 ], [ 14.516666666666659, -12.483333333333325 ], [ 14.508333333333326, -12.483333333333325 ], [ 14.508333333333326, -12.46666666666666 ], [ 14.516666666666659, -12.46666666666666 ], [ 14.516666666666659, -12.458333333333327 ], [ 14.525, -12.458333333333327 ], [ 14.525, -12.45 ], [ 14.533333333333324, -12.45 ], [ 14.533333333333324, -12.433333333333326 ], [ 14.525, -12.433333333333326 ], [ 14.525, -12.425 ], [ 14.541666666666659, -12.425 ], [ 14.541666666666659, -12.433333333333326 ], [ 14.575, -12.433333333333326 ], [ 14.575, -12.458333333333327 ], [ 14.583333333333325, -12.458333333333327 ], [ 14.583333333333325, -12.45 ], [ 14.591666666666658, -12.45 ], [ 14.591666666666658, -12.416666666666659 ], [ 14.583333333333325, -12.416666666666659 ], [ 14.583333333333325, -12.391666666666659 ], [ 14.616666666666658, -12.391666666666659 ], [ 14.616666666666658, -12.383333333333326 ], [ 14.633333333333326, -12.383333333333326 ], [ 14.633333333333326, -12.375 ], [ 14.641666666666659, -12.375 ], [ 14.641666666666659, -12.391666666666659 ], [ 14.625, -12.391666666666659 ], [ 14.625, -12.4 ], [ 14.65, -12.4 ], [ 14.65, -12.383333333333326 ], [ 14.658333333333324, -12.383333333333326 ], [ 14.658333333333324, -12.391666666666659 ], [ 14.666666666666659, -12.391666666666659 ], [ 14.666666666666659, -12.4 ], [ 14.675, -12.4 ], [ 14.675, -12.391666666666659 ], [ 14.683333333333325, -12.391666666666659 ], [ 14.683333333333325, -12.383333333333326 ], [ 14.666666666666659, -12.383333333333326 ], [ 14.666666666666659, -12.375 ], [ 14.675, -12.375 ], [ 14.675, -12.36666666666666 ], [ 14.683333333333325, -12.36666666666666 ], [ 14.683333333333325, -12.375 ], [ 14.716666666666658, -12.375 ], [ 14.716666666666658, -12.36666666666666 ], [ 14.725, -12.36666666666666 ], [ 14.725, -12.358333333333325 ], [ 14.741666666666658, -12.358333333333325 ], [ 14.741666666666658, -12.35 ], [ 14.725, -12.35 ], [ 14.725, -12.34166666666666 ], [ 14.708333333333325, -12.34166666666666 ], [ 14.708333333333325, -12.35 ], [ 14.691666666666659, -12.35 ], [ 14.691666666666659, -12.333333333333325 ], [ 14.683333333333325, -12.333333333333325 ], [ 14.683333333333325, -12.34166666666666 ], [ 14.675, -12.34166666666666 ], [ 14.675, -12.35 ], [ 14.666666666666659, -12.35 ], [ 14.666666666666659, -12.333333333333325 ], [ 14.675, -12.333333333333325 ], [ 14.675, -12.325 ], [ 14.658333333333324, -12.325 ], [ 14.658333333333324, -12.316666666666659 ], [ 14.65, -12.316666666666659 ], [ 14.65, -12.34166666666666 ], [ 14.641666666666659, -12.34166666666666 ], [ 14.641666666666659, -12.325 ], [ 14.633333333333326, -12.325 ], [ 14.633333333333326, -12.316666666666659 ], [ 14.616666666666658, -12.316666666666659 ], [ 14.616666666666658, -12.325 ], [ 14.625, -12.325 ], [ 14.625, -12.333333333333325 ], [ 14.633333333333326, -12.333333333333325 ], [ 14.633333333333326, -12.34166666666666 ], [ 14.625, -12.34166666666666 ], [ 14.625, -12.35 ], [ 14.608333333333325, -12.35 ], [ 14.608333333333325, -12.333333333333325 ], [ 14.583333333333325, -12.333333333333325 ], [ 14.583333333333325, -12.325 ], [ 14.575, -12.325 ], [ 14.575, -12.316666666666659 ], [ 14.608333333333325, -12.316666666666659 ], [ 14.608333333333325, -12.3 ], [ 14.6, -12.3 ], [ 14.6, -12.283333333333326 ], [ 14.591666666666658, -12.283333333333326 ], [ 14.591666666666658, -12.291666666666659 ], [ 14.583333333333325, -12.291666666666659 ], [ 14.583333333333325, -12.283333333333326 ], [ 14.575, -12.283333333333326 ], [ 14.575, -12.275 ], [ 14.558333333333325, -12.275 ], [ 14.558333333333325, -12.283333333333326 ], [ 14.55, -12.283333333333326 ], [ 14.55, -12.258333333333326 ], [ 14.533333333333324, -12.258333333333326 ], [ 14.533333333333324, -12.25 ], [ 14.525, -12.25 ], [ 14.525, -12.24166666666666 ], [ 14.516666666666659, -12.24166666666666 ], [ 14.516666666666659, -12.266666666666659 ], [ 14.508333333333326, -12.266666666666659 ], [ 14.508333333333326, -12.275 ], [ 14.5, -12.275 ], [ 14.5, -12.266666666666659 ], [ 14.483333333333325, -12.266666666666659 ], [ 14.483333333333325, -12.275 ], [ 14.466666666666658, -12.275 ], [ 14.466666666666658, -12.266666666666659 ], [ 14.45, -12.266666666666659 ], [ 14.45, -12.258333333333326 ], [ 14.441666666666659, -12.258333333333326 ], [ 14.441666666666659, -12.25 ], [ 14.425, -12.25 ], [ 14.425, -12.24166666666666 ], [ 14.433333333333325, -12.24166666666666 ], [ 14.433333333333325, -12.233333333333325 ], [ 14.441666666666659, -12.233333333333325 ], [ 14.441666666666659, -12.225 ], [ 14.425, -12.225 ], [ 14.425, -12.233333333333325 ], [ 14.416666666666659, -12.233333333333325 ], [ 14.416666666666659, -12.24166666666666 ], [ 14.4, -12.24166666666666 ], [ 14.4, -12.25 ], [ 14.391666666666659, -12.25 ], [ 14.391666666666659, -12.225 ], [ 14.4, -12.225 ], [ 14.4, -12.21666666666666 ], [ 14.391666666666659, -12.21666666666666 ], [ 14.391666666666659, -12.208333333333325 ], [ 14.416666666666659, -12.208333333333325 ], [ 14.416666666666659, -12.2 ], [ 14.433333333333325, -12.2 ], [ 14.433333333333325, -12.208333333333325 ], [ 14.45, -12.208333333333325 ], [ 14.45, -12.2 ], [ 14.466666666666658, -12.2 ], [ 14.466666666666658, -12.208333333333325 ], [ 14.475, -12.208333333333325 ], [ 14.475, -12.191666666666659 ], [ 14.466666666666658, -12.191666666666659 ], [ 14.466666666666658, -12.183333333333326 ], [ 14.458333333333325, -12.183333333333326 ], [ 14.458333333333325, -12.166666666666659 ], [ 14.45, -12.166666666666659 ], [ 14.45, -12.15 ], [ 14.458333333333325, -12.15 ], [ 14.458333333333325, -12.141666666666659 ], [ 14.466666666666658, -12.141666666666659 ], [ 14.466666666666658, -12.133333333333326 ], [ 14.475, -12.133333333333326 ], [ 14.475, -12.141666666666659 ], [ 14.483333333333325, -12.141666666666659 ], [ 14.483333333333325, -12.15 ], [ 14.491666666666658, -12.15 ], [ 14.491666666666658, -12.133333333333326 ], [ 14.483333333333325, -12.133333333333326 ], [ 14.483333333333325, -12.125 ], [ 14.475, -12.125 ], [ 14.475, -12.11666666666666 ], [ 14.45, -12.11666666666666 ], [ 14.45, -12.108333333333325 ], [ 14.458333333333325, -12.108333333333325 ], [ 14.458333333333325, -12.1 ], [ 14.483333333333325, -12.1 ], [ 14.483333333333325, -12.09166666666666 ], [ 14.491666666666658, -12.09166666666666 ], [ 14.491666666666658, -12.083333333333325 ], [ 14.525, -12.083333333333325 ], [ 14.525, -12.075 ], [ 14.516666666666659, -12.075 ], [ 14.516666666666659, -12.066666666666659 ], [ 14.491666666666658, -12.066666666666659 ], [ 14.491666666666658, -12.05 ], [ 14.5, -12.05 ], [ 14.5, -12.033333333333326 ], [ 14.508333333333326, -12.033333333333326 ], [ 14.508333333333326, -12.025 ], [ 14.491666666666658, -12.025 ], [ 14.491666666666658, -12.033333333333326 ], [ 14.475, -12.033333333333326 ], [ 14.475, -12.041666666666659 ], [ 14.466666666666658, -12.041666666666659 ], [ 14.466666666666658, -12.05 ], [ 14.483333333333325, -12.05 ], [ 14.483333333333325, -12.075 ], [ 14.458333333333325, -12.075 ], [ 14.458333333333325, -12.058333333333326 ], [ 14.45, -12.058333333333326 ], [ 14.45, -12.05 ], [ 14.441666666666659, -12.05 ], [ 14.441666666666659, -12.041666666666659 ], [ 14.433333333333325, -12.041666666666659 ], [ 14.433333333333325, -12.05 ], [ 14.425, -12.05 ], [ 14.425, -12.058333333333326 ], [ 14.441666666666659, -12.058333333333326 ], [ 14.441666666666659, -12.075 ], [ 14.433333333333325, -12.075 ], [ 14.433333333333325, -12.083333333333325 ], [ 14.425, -12.083333333333325 ], [ 14.425, -12.075 ], [ 14.416666666666659, -12.075 ], [ 14.416666666666659, -12.066666666666659 ], [ 14.408333333333324, -12.066666666666659 ], [ 14.408333333333324, -12.058333333333326 ], [ 14.4, -12.058333333333326 ], [ 14.4, -12.041666666666659 ], [ 14.391666666666659, -12.041666666666659 ], [ 14.391666666666659, -12.066666666666659 ], [ 14.375, -12.066666666666659 ], [ 14.375, -12.083333333333325 ], [ 14.383333333333326, -12.083333333333325 ], [ 14.383333333333326, -12.1 ], [ 14.366666666666658, -12.1 ], [ 14.366666666666658, -12.108333333333325 ], [ 14.358333333333325, -12.108333333333325 ], [ 14.358333333333325, -12.11666666666666 ], [ 14.341666666666658, -12.11666666666666 ], [ 14.341666666666658, -12.125 ], [ 14.333333333333325, -12.125 ], [ 14.333333333333325, -12.141666666666659 ], [ 14.341666666666658, -12.141666666666659 ], [ 14.341666666666658, -12.158333333333326 ], [ 14.333333333333325, -12.158333333333326 ], [ 14.333333333333325, -12.175 ], [ 14.3, -12.175 ], [ 14.3, -12.183333333333326 ], [ 14.283333333333324, -12.183333333333326 ], [ 14.283333333333324, -12.175 ], [ 14.275, -12.175 ], [ 14.275, -12.166666666666659 ], [ 14.266666666666659, -12.166666666666659 ], [ 14.266666666666659, -12.15 ], [ 14.283333333333324, -12.15 ], [ 14.283333333333324, -12.125 ], [ 14.241666666666658, -12.125 ], [ 14.241666666666658, -12.133333333333326 ], [ 14.225, -12.133333333333326 ], [ 14.225, -12.15 ], [ 14.191666666666659, -12.15 ], [ 14.191666666666659, -12.166666666666659 ], [ 14.183333333333325, -12.166666666666659 ], [ 14.183333333333325, -12.141666666666659 ], [ 14.191666666666659, -12.141666666666659 ], [ 14.191666666666659, -12.133333333333326 ], [ 14.2, -12.133333333333326 ], [ 14.2, -12.125 ], [ 14.191666666666659, -12.125 ], [ 14.191666666666659, -12.05 ], [ 14.2, -12.05 ], [ 14.2, -12.016666666666659 ], [ 14.191666666666659, -12.016666666666659 ], [ 14.191666666666659, -12.008333333333326 ], [ 14.183333333333325, -12.008333333333326 ], [ 14.183333333333325, -12.0 ], [ 14.175, -12.0 ], [ 14.175, -11.99166666666666 ], [ 14.183333333333325, -11.99166666666666 ], [ 14.183333333333325, -11.983333333333325 ], [ 14.2, -11.983333333333325 ], [ 14.2, -11.975 ], [ 14.208333333333325, -11.975 ], [ 14.208333333333325, -11.96666666666666 ], [ 14.216666666666658, -11.96666666666666 ], [ 14.216666666666658, -11.933333333333326 ], [ 14.208333333333325, -11.933333333333326 ], [ 14.208333333333325, -11.925 ], [ 14.2, -11.925 ], [ 14.2, -11.916666666666659 ], [ 14.191666666666659, -11.916666666666659 ], [ 14.191666666666659, -11.908333333333326 ], [ 14.166666666666659, -11.908333333333326 ], [ 14.166666666666659, -11.916666666666659 ], [ 14.158333333333324, -11.916666666666659 ], [ 14.158333333333324, -11.908333333333326 ], [ 14.141666666666659, -11.908333333333326 ], [ 14.141666666666659, -11.916666666666659 ], [ 14.133333333333326, -11.916666666666659 ], [ 14.133333333333326, -11.908333333333326 ], [ 14.1, -11.908333333333326 ], [ 14.1, -11.9 ], [ 14.091666666666658, -11.9 ], [ 14.091666666666658, -11.875 ], [ 14.1, -11.875 ], [ 14.1, -11.858333333333325 ], [ 14.116666666666658, -11.858333333333325 ], [ 14.116666666666658, -11.816666666666659 ], [ 14.083333333333325, -11.816666666666659 ], [ 14.083333333333325, -11.808333333333326 ], [ 14.091666666666658, -11.808333333333326 ], [ 14.091666666666658, -11.783333333333326 ], [ 14.083333333333325, -11.783333333333326 ], [ 14.083333333333325, -11.766666666666659 ], [ 14.075, -11.766666666666659 ], [ 14.075, -11.758333333333326 ], [ 14.041666666666659, -11.758333333333326 ], [ 14.041666666666659, -11.766666666666659 ], [ 13.983333333333325, -11.766666666666659 ], [ 13.983333333333325, -11.758333333333326 ], [ 13.916666666666659, -11.758333333333326 ] ], [ [ 13.875, -11.908333333333326 ], [ 13.891666666666659, -11.908333333333326 ], [ 13.891666666666659, -11.916666666666659 ], [ 13.908333333333324, -11.916666666666659 ], [ 13.908333333333324, -11.933333333333326 ], [ 13.9, -11.933333333333326 ], [ 13.9, -11.941666666666659 ], [ 13.883333333333326, -11.941666666666659 ], [ 13.883333333333326, -11.933333333333326 ], [ 13.875, -11.933333333333326 ], [ 13.875, -11.908333333333326 ] ], [ [ 14.383333333333326, -12.075 ], [ 14.4, -12.075 ], [ 14.4, -12.083333333333325 ], [ 14.383333333333326, -12.083333333333325 ], [ 14.383333333333326, -12.075 ] ], [ [ 13.991666666666658, -12.108333333333325 ], [ 14.008333333333326, -12.108333333333325 ], [ 14.008333333333326, -12.11666666666666 ], [ 14.05, -12.11666666666666 ], [ 14.05, -12.133333333333326 ], [ 14.041666666666659, -12.133333333333326 ], [ 14.041666666666659, -12.141666666666659 ], [ 14.05, -12.141666666666659 ], [ 14.05, -12.158333333333326 ], [ 14.066666666666659, -12.158333333333326 ], [ 14.066666666666659, -12.166666666666659 ], [ 14.033333333333324, -12.166666666666659 ], [ 14.033333333333324, -12.158333333333326 ], [ 14.016666666666659, -12.158333333333326 ], [ 14.016666666666659, -12.15 ], [ 14.0, -12.15 ], [ 14.0, -12.141666666666659 ], [ 13.991666666666658, -12.141666666666659 ], [ 13.991666666666658, -12.108333333333325 ] ], [ [ 14.433333333333325, -12.141666666666659 ], [ 14.45, -12.141666666666659 ], [ 14.45, -12.15 ], [ 14.433333333333325, -12.15 ], [ 14.433333333333325, -12.141666666666659 ] ], [ [ 14.391666666666659, -12.166666666666659 ], [ 14.408333333333324, -12.166666666666659 ], [ 14.408333333333324, -12.175 ], [ 14.391666666666659, -12.175 ], [ 14.391666666666659, -12.166666666666659 ] ], [ [ 14.433333333333325, -12.183333333333326 ], [ 14.441666666666659, -12.183333333333326 ], [ 14.441666666666659, -12.2 ], [ 14.433333333333325, -12.2 ], [ 14.433333333333325, -12.183333333333326 ] ], [ [ 14.208333333333325, -12.191666666666659 ], [ 14.216666666666658, -12.191666666666659 ], [ 14.216666666666658, -12.208333333333325 ], [ 14.208333333333325, -12.208333333333325 ], [ 14.208333333333325, -12.191666666666659 ] ], [ [ 13.941666666666659, -12.233333333333325 ], [ 13.95, -12.233333333333325 ], [ 13.95, -12.24166666666666 ], [ 13.983333333333325, -12.24166666666666 ], [ 13.983333333333325, -12.25 ], [ 14.025, -12.25 ], [ 14.025, -12.24166666666666 ], [ 14.066666666666659, -12.24166666666666 ], [ 14.066666666666659, -12.266666666666659 ], [ 14.075, -12.266666666666659 ], [ 14.075, -12.283333333333326 ], [ 14.058333333333325, -12.283333333333326 ], [ 14.058333333333325, -12.291666666666659 ], [ 14.041666666666659, -12.291666666666659 ], [ 14.041666666666659, -12.3 ], [ 14.025, -12.3 ], [ 14.025, -12.308333333333326 ], [ 14.016666666666659, -12.308333333333326 ], [ 14.016666666666659, -12.325 ], [ 14.008333333333326, -12.325 ], [ 14.008333333333326, -12.34166666666666 ], [ 13.983333333333325, -12.34166666666666 ], [ 13.983333333333325, -12.3 ], [ 13.975, -12.3 ], [ 13.975, -12.283333333333326 ], [ 13.966666666666658, -12.283333333333326 ], [ 13.966666666666658, -12.275 ], [ 13.958333333333325, -12.275 ], [ 13.958333333333325, -12.266666666666659 ], [ 13.933333333333325, -12.266666666666659 ], [ 13.933333333333325, -12.24166666666666 ], [ 13.941666666666659, -12.24166666666666 ], [ 13.941666666666659, -12.233333333333325 ] ], [ [ 14.191666666666659, -12.258333333333326 ], [ 14.208333333333325, -12.258333333333326 ], [ 14.208333333333325, -12.266666666666659 ], [ 14.191666666666659, -12.266666666666659 ], [ 14.191666666666659, -12.258333333333326 ] ], [ [ 14.416666666666659, -12.258333333333326 ], [ 14.433333333333325, -12.258333333333326 ], [ 14.433333333333325, -12.266666666666659 ], [ 14.416666666666659, -12.266666666666659 ], [ 14.416666666666659, -12.258333333333326 ] ], [ [ 14.325, -12.266666666666659 ], [ 14.366666666666658, -12.266666666666659 ], [ 14.366666666666658, -12.275 ], [ 14.375, -12.275 ], [ 14.375, -12.291666666666659 ], [ 14.35, -12.291666666666659 ], [ 14.35, -12.3 ], [ 14.341666666666658, -12.3 ], [ 14.341666666666658, -12.291666666666659 ], [ 14.308333333333325, -12.291666666666659 ], [ 14.308333333333325, -12.3 ], [ 14.3, -12.3 ], [ 14.3, -12.308333333333326 ], [ 14.291666666666659, -12.308333333333326 ], [ 14.291666666666659, -12.3 ], [ 14.283333333333324, -12.3 ], [ 14.283333333333324, -12.291666666666659 ], [ 14.275, -12.291666666666659 ], [ 14.275, -12.283333333333326 ], [ 14.283333333333324, -12.283333333333326 ], [ 14.283333333333324, -12.275 ], [ 14.325, -12.275 ], [ 14.325, -12.266666666666659 ] ], [ [ 14.525, -12.275 ], [ 14.541666666666659, -12.275 ], [ 14.541666666666659, -12.291666666666659 ], [ 14.533333333333324, -12.291666666666659 ], [ 14.533333333333324, -12.3 ], [ 14.525, -12.3 ], [ 14.525, -12.275 ] ], [ [ 14.558333333333325, -12.283333333333326 ], [ 14.566666666666659, -12.283333333333326 ], [ 14.566666666666659, -12.291666666666659 ], [ 14.558333333333325, -12.291666666666659 ], [ 14.558333333333325, -12.283333333333326 ] ], [ [ 14.566666666666659, -12.291666666666659 ], [ 14.575, -12.291666666666659 ], [ 14.575, -12.3 ], [ 14.566666666666659, -12.3 ], [ 14.566666666666659, -12.291666666666659 ] ], [ [ 14.425, -12.316666666666659 ], [ 14.433333333333325, -12.316666666666659 ], [ 14.433333333333325, -12.325 ], [ 14.425, -12.325 ], [ 14.425, -12.316666666666659 ] ], [ [ 14.3, -12.35 ], [ 14.308333333333325, -12.35 ], [ 14.308333333333325, -12.358333333333325 ], [ 14.3, -12.358333333333325 ], [ 14.3, -12.35 ] ], [ [ 14.683333333333325, -12.358333333333325 ], [ 14.691666666666659, -12.358333333333325 ], [ 14.691666666666659, -12.36666666666666 ], [ 14.683333333333325, -12.36666666666666 ], [ 14.683333333333325, -12.358333333333325 ] ], [ [ 14.133333333333326, -12.36666666666666 ], [ 14.15, -12.36666666666666 ], [ 14.15, -12.4 ], [ 14.141666666666659, -12.4 ], [ 14.141666666666659, -12.391666666666659 ], [ 14.133333333333326, -12.391666666666659 ], [ 14.133333333333326, -12.383333333333326 ], [ 14.141666666666659, -12.383333333333326 ], [ 14.141666666666659, -12.375 ], [ 14.133333333333326, -12.375 ], [ 14.133333333333326, -12.36666666666666 ] ], [ [ 14.283333333333324, -12.416666666666659 ], [ 14.291666666666659, -12.416666666666659 ], [ 14.291666666666659, -12.425 ], [ 14.283333333333324, -12.425 ], [ 14.283333333333324, -12.416666666666659 ] ], [ [ 14.5, -12.416666666666659 ], [ 14.508333333333326, -12.416666666666659 ], [ 14.508333333333326, -12.425 ], [ 14.516666666666659, -12.425 ], [ 14.516666666666659, -12.45 ], [ 14.491666666666658, -12.45 ], [ 14.491666666666658, -12.458333333333327 ], [ 14.483333333333325, -12.458333333333327 ], [ 14.483333333333325, -12.46666666666666 ], [ 14.466666666666658, -12.46666666666666 ], [ 14.466666666666658, -12.441666666666659 ], [ 14.475, -12.441666666666659 ], [ 14.475, -12.433333333333326 ], [ 14.491666666666658, -12.433333333333326 ], [ 14.491666666666658, -12.425 ], [ 14.5, -12.425 ], [ 14.5, -12.416666666666659 ] ], [ [ 14.266666666666659, -12.425 ], [ 14.275, -12.425 ], [ 14.275, -12.433333333333326 ], [ 14.266666666666659, -12.433333333333326 ], [ 14.266666666666659, -12.425 ] ], [ [ 14.258333333333326, -12.433333333333326 ], [ 14.266666666666659, -12.433333333333326 ], [ 14.266666666666659, -12.441666666666659 ], [ 14.258333333333326, -12.441666666666659 ], [ 14.258333333333326, -12.433333333333326 ] ], [ [ 13.616666666666658, -12.508333333333326 ], [ 13.633333333333326, -12.508333333333326 ], [ 13.633333333333326, -12.516666666666659 ], [ 13.616666666666658, -12.516666666666659 ], [ 13.616666666666658, -12.508333333333326 ] ], [ [ 14.5, -12.516666666666659 ], [ 14.516666666666659, -12.516666666666659 ], [ 14.516666666666659, -12.533333333333326 ], [ 14.5, -12.533333333333326 ], [ 14.5, -12.516666666666659 ] ], [ [ 14.483333333333325, -12.533333333333326 ], [ 14.5, -12.533333333333326 ], [ 14.5, -12.541666666666659 ], [ 14.491666666666658, -12.541666666666659 ], [ 14.491666666666658, -12.55 ], [ 14.483333333333325, -12.55 ], [ 14.483333333333325, -12.533333333333326 ] ], [ [ 14.308333333333325, -12.55 ], [ 14.325, -12.55 ], [ 14.325, -12.558333333333326 ], [ 14.333333333333325, -12.558333333333326 ], [ 14.333333333333325, -12.575 ], [ 14.308333333333325, -12.575 ], [ 14.308333333333325, -12.55 ] ], [ [ 14.383333333333326, -12.6 ], [ 14.391666666666659, -12.6 ], [ 14.391666666666659, -12.61666666666666 ], [ 14.375, -12.61666666666666 ], [ 14.375, -12.608333333333325 ], [ 14.383333333333326, -12.608333333333325 ], [ 14.383333333333326, -12.6 ] ], [ [ 13.166666666666659, -12.691666666666659 ], [ 13.191666666666658, -12.691666666666659 ], [ 13.191666666666658, -12.708333333333327 ], [ 13.183333333333325, -12.708333333333327 ], [ 13.183333333333325, -12.71666666666666 ], [ 13.158333333333324, -12.71666666666666 ], [ 13.158333333333324, -12.725 ], [ 13.141666666666659, -12.725 ], [ 13.141666666666659, -12.71666666666666 ], [ 13.15, -12.71666666666666 ], [ 13.15, -12.708333333333327 ], [ 13.158333333333324, -12.708333333333327 ], [ 13.158333333333324, -12.7 ], [ 13.166666666666659, -12.7 ], [ 13.166666666666659, -12.691666666666659 ] ], [ [ 13.291666666666659, -12.75 ], [ 13.3, -12.75 ], [ 13.3, -12.775 ], [ 13.308333333333325, -12.775 ], [ 13.308333333333325, -12.783333333333326 ], [ 13.316666666666658, -12.783333333333326 ], [ 13.316666666666658, -12.8 ], [ 13.325, -12.8 ], [ 13.325, -12.833333333333327 ], [ 13.316666666666658, -12.833333333333327 ], [ 13.316666666666658, -12.84166666666666 ], [ 13.291666666666659, -12.84166666666666 ], [ 13.291666666666659, -12.85 ], [ 13.275, -12.85 ], [ 13.275, -12.84166666666666 ], [ 13.266666666666659, -12.84166666666666 ], [ 13.266666666666659, -12.833333333333327 ], [ 13.25, -12.833333333333327 ], [ 13.25, -12.825 ], [ 13.233333333333325, -12.825 ], [ 13.233333333333325, -12.816666666666659 ], [ 13.241666666666658, -12.816666666666659 ], [ 13.241666666666658, -12.8 ], [ 13.25, -12.8 ], [ 13.25, -12.783333333333326 ], [ 13.275, -12.783333333333326 ], [ 13.275, -12.775 ], [ 13.283333333333324, -12.775 ], [ 13.283333333333324, -12.766666666666659 ], [ 13.291666666666659, -12.766666666666659 ], [ 13.291666666666659, -12.75 ] ], [ [ 12.983333333333325, -12.875 ], [ 12.991666666666658, -12.875 ], [ 12.991666666666658, -12.883333333333326 ], [ 12.983333333333325, -12.883333333333326 ], [ 12.983333333333325, -12.875 ] ], [ [ 13.525, -12.96666666666666 ], [ 13.55, -12.96666666666666 ], [ 13.55, -12.975 ], [ 13.575, -12.975 ], [ 13.575, -12.983333333333327 ], [ 13.583333333333325, -12.983333333333327 ], [ 13.583333333333325, -13.0 ], [ 13.6, -13.0 ], [ 13.6, -13.008333333333326 ], [ 13.666666666666659, -13.008333333333326 ], [ 13.666666666666659, -13.016666666666659 ], [ 13.675, -13.016666666666659 ], [ 13.675, -13.025 ], [ 13.683333333333325, -13.025 ], [ 13.683333333333325, -13.041666666666659 ], [ 13.675, -13.041666666666659 ], [ 13.675, -13.05 ], [ 13.666666666666659, -13.05 ], [ 13.666666666666659, -13.066666666666659 ], [ 13.658333333333324, -13.066666666666659 ], [ 13.658333333333324, -13.075 ], [ 13.616666666666658, -13.075 ], [ 13.616666666666658, -13.083333333333327 ], [ 13.6, -13.083333333333327 ], [ 13.6, -13.075 ], [ 13.591666666666658, -13.075 ], [ 13.591666666666658, -13.041666666666659 ], [ 13.583333333333325, -13.041666666666659 ], [ 13.583333333333325, -13.033333333333326 ], [ 13.575, -13.033333333333326 ], [ 13.575, -13.025 ], [ 13.558333333333325, -13.025 ], [ 13.558333333333325, -13.016666666666659 ], [ 13.541666666666659, -13.016666666666659 ], [ 13.541666666666659, -13.008333333333326 ], [ 13.533333333333324, -13.008333333333326 ], [ 13.533333333333324, -12.99166666666666 ], [ 13.525, -12.99166666666666 ], [ 13.525, -12.96666666666666 ] ] ] } }
]
}
