{
"type": "FeatureCollection",
"name": "bie_od_flow_lines",
"crs": { "type": "name", "properties": { "name": "urn:ogc:def:crs:OGC:1.3:CRS84" } },
"features": [
{ "type": "Feature", "properties": { "origin_code": "AGO003004", "origin_name": "Chinguar", "dest_code": "AGO003008", "dest_name": "Kuito", "flow": 75589.276152566788, "flow_norm": 1.0, "dist_km": 48.92275544950445, "origin_pop": 188373.671875, "dest_pop": 666531.875, "origin_in_priority": false, "dest_in_priority": true, "both_in_priority": false }, "geometry": { "type": "LineString", "coordinates": [ [ 16.56603657812849, -12.568543921784578 ], [ 17.015701978499777, -12.538070914866069 ] ] } },
{ "type": "Feature", "properties": { "origin_code": "AGO003003", "origin_name": "Catabola", "dest_code": "AGO003008", "dest_name": "Kuito", "flow": 73570.994867500805, "flow_norm": 0.97329937012503798, "dist_km": 50.424469957996479, "origin_pop": 188848.5, "dest_pop": 666531.875, "origin_in_priority": false, "dest_in_priority": true, "both_in_priority": false }, "geometry": { "type": "LineString", "coordinates": [ [ 17.250693976682363, -12.146990355541629 ], [ 17.015701978499777, -12.538070914866069 ] ] } },
{ "type": "Feature", "properties": { "origin_code": "AGO003002", "origin_name": "Camacupa", "dest_code": "AGO003008", "dest_name": "Kuito", "flow": 55258.820742982338, "flow_norm": 0.73104048028519075, "dist_km": 83.245843168634892, "origin_pop": 231339.75, "dest_pop": 666531.875, "origin_in_priority": false, "dest_in_priority": true, "both_in_priority": false }, "geometry": { "type": "LineString", "coordinates": [ [ 17.777278718303211, -12.450776677556012 ], [ 17.015701978499777, -12.538070914866069 ] ] } },
{ "type": "Feature", "properties": { "origin_code": "AGO003007", "origin_name": "Cunhinga", "dest_code": "AGO003008", "dest_name": "Kuito", "flow": 35870.239863794181, "flow_norm": 0.47454138588911643, "dist_km": 64.82983919641886, "origin_pop": 114354.796875, "dest_pop": 666531.875, "origin_in_priority": false, "dest_in_priority": true, "both_in_priority": false }, "geometry": { "type": "LineString", "coordinates": [ [ 16.797541199514377, -11.995414229019708 ], [ 17.015701978499777, -12.538070914866069 ] ] } },
{ "type": "Feature", "properties": { "origin_code": "AGO003001", "origin_name": "Andulo", "dest_code": "AGO003008", "dest_name": "Kuito", "flow": 31944.483507936537, "flow_norm": 0.42260602474166958, "dist_km": 153.11988724381274, "origin_pop": 382315.28125, "dest_pop": 666531.875, "origin_in_priority": false, "dest_in_priority": true, "both_in_priority": false }, "geometry": { "type": "LineString", "coordinates": [ [ 16.458386689986984, -11.27360756745956 ], [ 17.015701978499777, -12.538070914866069 ] ] } },
{ "type": "Feature", "properties": { "origin_code": "AGO003001", "origin_name": "Andulo", "dest_code": "AGO003009", "dest_name": "N'harea", "flow": 28148.529432399679, "flow_norm": 0.37238786855936623, "dist_km": 75.932879100962651, "origin_pop": 382315.28125, "dest_pop": 187398.234375, "origin_in_priority": false, "dest_in_priority": false, "both_in_priority": false }, "geometry": { "type": "LineString", "coordinates": [ [ 16.458386689986984, -11.27360756745956 ], [ 17.153876543581397, -11.307673252012446 ] ] } },
{ "type": "Feature", "properties": { "origin_code": "AGO003002", "origin_name": "Camacupa", "dest_code": "AGO003003", "dest_name": "Catabola", "flow": 19856.257182066081, "flow_norm": 0.26268616651373794, "dist_km": 66.438018119347959, "origin_pop": 231339.75, "dest_pop": 188848.5, "origin_in_priority": false, "dest_in_priority": false, "both_in_priority": false }, "geometry": { "type": "LineString", "coordinates": [ [ 17.777278718303211, -12.450776677556012 ], [ 17.250693976682363, -12.146990355541629 ] ] } },
{ "type": "Feature", "properties": { "origin_code": "AGO003008", "origin_name": "Kuito", "dest_code": "AGO003009", "dest_name": "N'harea", "flow": 19714.835045796928, "flow_norm": 0.26081523794466804, "dist_km": 137.63754430810343, "origin_pop": 666531.875, "dest_pop": 187398.234375, "origin_in_priority": true, "dest_in_priority": false, "both_in_priority": false }, "geometry": { "type": "LineString", "coordinates": [ [ 17.015701978499777, -12.538070914866069 ], [ 17.153876543581397, -11.307673252012446 ] ] } },
{ "type": "Feature", "properties": { "origin_code": "AGO003005", "origin_name": "Chitembo", "dest_code": "AGO003008", "dest_name": "Kuito", "flow": 19496.843502134521, "flow_norm": 0.25793134283734592, "dist_km": 106.58069697332392, "origin_pop": 116329.7109375, "dest_pop": 666531.875, "origin_in_priority": false, "dest_in_priority": true, "both_in_priority": false }, "geometry": { "type": "LineString", "coordinates": [ [ 17.222491120866032, -13.475157492303721 ], [ 17.015701978499777, -12.538070914866069 ] ] } },
{ "type": "Feature", "properties": { "origin_code": "AGO003001", "origin_name": "Andulo", "dest_code": "AGO003007", "dest_name": "Cunhinga", "flow": 14262.237478291792, "flow_norm": 0.1886806992238606, "dist_km": 88.352932817099756, "origin_pop": 382315.28125, "dest_pop": 114354.796875, "origin_in_priority": false, "dest_in_priority": false, "both_in_priority": false }, "geometry": { "type": "LineString", "coordinates": [ [ 16.458386689986984, -11.27360756745956 ], [ 16.797541199514377, -11.995414229019708 ] ] } },
{ "type": "Feature", "properties": { "origin_code": "AGO003001", "origin_name": "Andulo", "dest_code": "AGO003003", "dest_name": "Catabola", "flow": 12638.045380282985, "flow_norm": 0.16719362882606245, "dist_km": 129.89732674515193, "origin_pop": 382315.28125, "dest_pop": 188848.5, "origin_in_priority": false, "dest_in_priority": false, "both_in_priority": false }, "geometry": { "type": "LineString", "coordinates": [ [ 16.458386689986984, -11.27360756745956 ], [ 17.250693976682363, -12.146990355541629 ] ] } },
{ "type": "Feature", "properties": { "origin_code": "AGO003003", "origin_name": "Catabola", "dest_code": "AGO003007", "dest_name": "Cunhinga", "flow": 12128.689239982741, "flow_norm": 0.16045515789174397, "dist_km": 52.077048975193883, "origin_pop": 188848.5, "dest_pop": 114354.796875, "origin_in_priority": false, "dest_in_priority": false, "both_in_priority": false }, "geometry": { "type": "LineString", "coordinates": [ [ 17.250693976682363, -12.146990355541629 ], [ 16.797541199514377, -11.995414229019708 ] ] } },
{ "type": "Feature", "properties": { "origin_code": "AGO003003", "origin_name": "Catabola", "dest_code": "AGO003004", "dest_name": "Chinguar", "flow": 11762.638450998447, "flow_norm": 0.15561252931245356, "dist_km": 87.906753702421213, "origin_pop": 188848.5, "dest_pop": 188373.671875, "origin_in_priority": false, "dest_in_priority": false, "both_in_priority": false }, "geometry": { "type": "LineString", "coordinates": [ [ 17.250693976682363, -12.146990355541629 ], [ 16.56603657812849, -12.568543921784578 ] ] } },
{ "type": "Feature", "properties": { "origin_code": "AGO003003", "origin_name": "Catabola", "dest_code": "AGO003009", "dest_name": "N'harea", "flow": 10606.731328081813, "flow_norm": 0.14032058339431047, "dist_km": 93.921304022836523, "origin_pop": 188848.5, "dest_pop": 187398.234375, "origin_in_priority": false, "dest_in_priority": false, "both_in_priority": false }, "geometry": { "type": "LineString", "coordinates": [ [ 17.250693976682363, -12.146990355541629 ], [ 17.153876543581397, -11.307673252012446 ] ] } },
{ "type": "Feature", "properties": { "origin_code": "AGO003001", "origin_name": "Andulo", "dest_code": "AGO003004", "dest_name": "Chinguar", "flow": 10203.375239504296, "flow_norm": 0.1349844284645636, "dist_km": 144.46606119948606, "origin_pop": 382315.28125, "dest_pop": 188373.671875, "origin_in_priority": false, "dest_in_priority": false, "both_in_priority": false }, "geometry": { "type": "LineString", "coordinates": [ [ 16.458386689986984, -11.27360756745956 ], [ 16.56603657812849, -12.568543921784578 ] ] } },
{ "type": "Feature", "properties": { "origin_code": "AGO003004", "origin_name": "Chinguar", "dest_code": "AGO003007", "dest_name": "Cunhinga", "flow": 9521.6394499354319, "flow_norm": 0.12596547995402527, "dist_km": 68.513346423921675, "origin_pop": 188373.671875, "dest_pop": 114354.796875, "origin_in_priority": false, "dest_in_priority": false, "both_in_priority": false }, "geometry": { "type": "LineString", "coordinates": [ [ 16.56603657812849, -12.568543921784578 ], [ 16.797541199514377, -11.995414229019708 ] ] } },
{ "type": "Feature", "properties": { "origin_code": "AGO003002", "origin_name": "Camacupa", "dest_code": "AGO003004", "dest_name": "Chinguar", "flow": 7445.2162783832355, "flow_norm": 0.098495668398200661, "dist_km": 132.13703904927601, "origin_pop": 231339.75, "dest_pop": 188373.671875, "origin_in_priority": false, "dest_in_priority": false, "both_in_priority": false }, "geometry": { "type": "LineString", "coordinates": [ [ 17.777278718303211, -12.450776677556012 ], [ 16.56603657812849, -12.568543921784578 ] ] } },
{ "type": "Feature", "properties": { "origin_code": "AGO003007", "origin_name": "Cunhinga", "dest_code": "AGO003009", "dest_name": "N'harea", "flow": 7255.1117061460018, "flow_norm": 0.095980700906601282, "dist_km": 85.755984537627512, "origin_pop": 114354.796875, "dest_pop": 187398.234375, "origin_in_priority": false, "dest_in_priority": false, "both_in_priority": false }, "geometry": { "type": "LineString", "coordinates": [ [ 16.797541199514377, -11.995414229019708 ], [ 17.153876543581397, -11.307673252012446 ] ] } },
{ "type": "Feature", "properties": { "origin_code": "AGO003002", "origin_name": "Camacupa", "dest_code": "AGO003009", "dest_name": "N'harea", "flow": 6142.7785256024963, "flow_norm": 0.081265211657856384, "dist_km": 144.07526287674818, "origin_pop": 231339.75, "dest_pop": 187398.234375, "origin_in_priority": false, "dest_in_priority": false, "both_in_priority": false }, "geometry": { "type": "LineString", "coordinates": [ [ 17.777278718303211, -12.450776677556012 ], [ 17.153876543581397, -11.307673252012446 ] ] } },
{ "type": "Feature", "properties": { "origin_code": "AGO003001", "origin_name": "Andulo", "dest_code": "AGO003002", "dest_name": "Camacupa", "flow": 5915.5325761784461, "flow_norm": 0.078258886409214176, "dist_km": 194.24585529148291, "origin_pop": 382315.28125, "dest_pop": 231339.75, "origin_in_priority": false, "dest_in_priority": false, "both_in_priority": false }, "geometry": { "type": "LineString", "coordinates": [ [ 16.458386689986984, -11.27360756745956 ], [ 17.777278718303211, -12.450776677556012 ] ] } },
{ "type": "Feature", "properties": { "origin_code": "AGO003002", "origin_name": "Camacupa", "dest_code": "AGO003007", "dest_name": "Cunhinga", "flow": 5553.0513540494758, "flow_norm": 0.073463481021320914, "dist_km": 117.89863619146335, "origin_pop": 231339.75, "dest_pop": 114354.796875, "origin_in_priority": false, "dest_in_priority": false, "both_in_priority": false }, "geometry": { "type": "LineString", "coordinates": [ [ 17.777278718303211, -12.450776677556012 ], [ 16.797541199514377, -11.995414229019708 ] ] } },
{ "type": "Feature", "properties": { "origin_code": "AGO003002", "origin_name": "Camacupa", "dest_code": "AGO003006", "dest_name": "Cuemba", "flow": 5205.5069570761652, "flow_norm": 0.068865680715999314, "dist_km": 101.8525385131646, "origin_pop": 231339.75, "dest_pop": 84447.0, "origin_in_priority": false, "dest_in_priority": false, "both_in_priority": false }, "geometry": { "type": "LineString", "coordinates": [ [ 17.777278718303211, -12.450776677556012 ], [ 18.448625016289068, -11.811851774506176 ] ] } },
{ "type": "Feature", "properties": { "origin_code": "AGO003006", "origin_name": "Cuemba", "dest_code": "AGO003008", "dest_name": "Kuito", "flow": 5030.194775473823, "flow_norm": 0.066546407526393708, "dist_km": 175.43832802813498, "origin_pop": 84447.0, "dest_pop": 666531.875, "origin_in_priority": false, "dest_in_priority": true, "both_in_priority": false }, "geometry": { "type": "LineString", "coordinates": [ [ 18.448625016289068, -11.811851774506176 ], [ 17.015701978499777, -12.538070914866069 ] ] } },
{ "type": "Feature", "properties": { "origin_code": "AGO003002", "origin_name": "Camacupa", "dest_code": "AGO003005", "dest_name": "Chitembo", "flow": 4794.5666732748432, "flow_norm": 0.063429191511209279, "dist_km": 128.79674988263761, "origin_pop": 231339.75, "dest_pop": 116329.7109375, "origin_in_priority": false, "dest_in_priority": false, "both_in_priority": false }, "geometry": { "type": "LineString", "coordinates": [ [ 17.777278718303211, -12.450776677556012 ], [ 17.222491120866032, -13.475157492303721 ] ] } },
{ "type": "Feature", "properties": { "origin_code": "AGO003004", "origin_name": "Chinguar", "dest_code": "AGO003009", "dest_name": "N'harea", "flow": 4320.4918176702495, "flow_norm": 0.057157470445277421, "dist_km": 154.09846649882911, "origin_pop": 188373.671875, "dest_pop": 187398.234375, "origin_in_priority": false, "dest_in_priority": false, "both_in_priority": false }, "geometry": { "type": "LineString", "coordinates": [ [ 16.56603657812849, -12.568543921784578 ], [ 17.153876543581397, -11.307673252012446 ] ] } },
{ "type": "Feature", "properties": { "origin_code": "AGO003004", "origin_name": "Chinguar", "dest_code": "AGO003005", "dest_name": "Chitembo", "flow": 4251.6589543323698, "flow_norm": 0.056246853664148971, "dist_km": 123.37103075848478, "origin_pop": 188373.671875, "dest_pop": 116329.7109375, "origin_in_priority": false, "dest_in_priority": false, "both_in_priority": false }, "geometry": { "type": "LineString", "coordinates": [ [ 16.56603657812849, -12.568543921784578 ], [ 17.222491120866032, -13.475157492303721 ] ] } },
{ "type": "Feature", "properties": { "origin_code": "AGO003003", "origin_name": "Catabola", "dest_code": "AGO003005", "dest_name": "Chitembo", "flow": 2937.5540700114648, "flow_norm": 0.038862047892645607, "dist_km": 147.71730501039826, "origin_pop": 188848.5, "dest_pop": 116329.7109375, "origin_in_priority": false, "dest_in_priority": false, "both_in_priority": false }, "geometry": { "type": "LineString", "coordinates": [ [ 17.250693976682363, -12.146990355541629 ], [ 17.222491120866032, -13.475157492303721 ] ] } },
{ "type": "Feature", "properties": { "origin_code": "AGO003003", "origin_name": "Catabola", "dest_code": "AGO003006", "dest_name": "Cuemba", "flow": 2556.1508380400815, "flow_norm": 0.033816315860477814, "dist_km": 135.52699362254268, "origin_pop": 188848.5, "dest_pop": 84447.0, "origin_in_priority": false, "dest_in_priority": false, "both_in_priority": false }, "geometry": { "type": "LineString", "coordinates": [ [ 17.250693976682363, -12.146990355541629 ], [ 18.448625016289068, -11.811851774506176 ] ] } },
{ "type": "Feature", "properties": { "origin_code": "AGO003006", "origin_name": "Cuemba", "dest_code": "AGO003009", "dest_name": "N'harea", "flow": 1985.7498614392343, "flow_norm": 0.02627025899059101, "dist_km": 151.78183364648842, "origin_pop": 84447.0, "dest_pop": 187398.234375, "origin_in_priority": false, "dest_in_priority": false, "both_in_priority": false }, "geometry": { "type": "LineString", "coordinates": [ [ 18.448625016289068, -11.811851774506176 ], [ 17.153876543581397, -11.307673252012446 ] ] } },
{ "type": "Feature", "properties": { "origin_code": "AGO003001", "origin_name": "Andulo", "dest_code": "AGO003006", "dest_name": "Cuemba", "flow": 1354.6528945496402, "flow_norm": 0.017921231205011878, "dist_km": 224.93614038380844, "origin_pop": 382315.28125, "dest_pop": 84447.0, "origin_in_priority": false, "dest_in_priority": false, "both_in_priority": false }, "geometry": { "type": "LineString", "coordinates": [ [ 16.458386689986984, -11.27360756745956 ], [ 18.448625016289068, -11.811851774506176 ] ] } },
{ "type": "Feature", "properties": { "origin_code": "AGO003005", "origin_name": "Chitembo", "dest_code": "AGO003007", "dest_name": "Cunhinga", "flow": 1256.058143311674, "flow_norm": 0.016616882807244899, "dist_km": 170.87307749279094, "origin_pop": 116329.7109375, "dest_pop": 114354.796875, "origin_in_priority": false, "dest_in_priority": false, "both_in_priority": false }, "geometry": { "type": "LineString", "coordinates": [ [ 17.222491120866032, -13.475157492303721 ], [ 16.797541199514377, -11.995414229019708 ] ] } },
{ "type": "Feature", "properties": { "origin_code": "AGO003001", "origin_name": "Andulo", "dest_code": "AGO003005", "dest_name": "Chitembo", "flow": 1130.0343972882004, "flow_norm": 0.014949665545247157, "dist_km": 258.4845798259247, "origin_pop": 382315.28125, "dest_pop": 116329.7109375, "origin_in_priority": false, "dest_in_priority": false, "both_in_priority": false }, "geometry": { "type": "LineString", "coordinates": [ [ 16.458386689986984, -11.27360756745956 ], [ 17.222491120866032, -13.475157492303721 ] ] } },
{ "type": "Feature", "properties": { "origin_code": "AGO003006", "origin_name": "Cuemba", "dest_code": "AGO003007", "dest_name": "Cunhinga", "flow": 784.38642247235282, "flow_norm": 0.010376953747899032, "dist_km": 180.79990714840949, "origin_pop": 84447.0, "dest_pop": 114354.796875, "origin_in_priority": false, "dest_in_priority": false, "both_in_priority": false }, "geometry": { "type": "LineString", "coordinates": [ [ 18.448625016289068, -11.811851774506176 ], [ 16.797541199514377, -11.995414229019708 ] ] } },
{ "type": "Feature", "properties": { "origin_code": "AGO003005", "origin_name": "Chitembo", "dest_code": "AGO003009", "dest_name": "N'harea", "flow": 717.28816450043314, "flow_norm": 0.0094892847373307752, "dist_km": 241.12874242301285, "origin_pop": 116329.7109375, "dest_pop": 187398.234375, "origin_in_priority": false, "dest_in_priority": false, "both_in_priority": false }, "geometry": { "type": "LineString", "coordinates": [ [ 17.222491120866032, -13.475157492303721 ], [ 17.153876543581397, -11.307673252012446 ] ] } },
{ "type": "Feature", "properties": { "origin_code": "AGO003004", "origin_name": "Chinguar", "dest_code": "AGO003006", "dest_name": "Cuemba", "flow": 709.91433664078829, "flow_norm": 0.0093917334941522879, "dist_km": 221.23708469006101, "origin_pop": 188373.671875, "dest_pop": 84447.0, "origin_in_priority": false, "dest_in_priority": false, "both_in_priority": false }, "geometry": { "type": "LineString", "coordinates": [ [ 16.56603657812849, -12.568543921784578 ], [ 18.448625016289068, -11.811851774506176 ] ] } },
{ "type": "Feature", "properties": { "origin_code": "AGO003005", "origin_name": "Chitembo", "dest_code": "AGO003006", "dest_name": "Cuemba", "flow": 393.92243828161679, "flow_norm": 0.0052113534926110068, "dist_km": 227.82358853811095, "origin_pop": 116329.7109375, "dest_pop": 84447.0, "origin_in_priority": false, "dest_in_priority": false, "both_in_priority": false }, "geometry": { "type": "LineString", "coordinates": [ [ 17.222491120866032, -13.475157492303721 ], [ 18.448625016289068, -11.811851774506176 ] ] } }
]
}
