{
"type": "FeatureCollection",
"name": "huambo_od_flow_lines",
"crs": { "type": "name", "properties": { "name": "urn:ogc:def:crs:OGC:1.3:CRS84" } },
"features": [
{ "type": "Feature", "properties": { "origin_code": "AGO009002", "origin_name": "Caala", "dest_code": "AGO009004", "dest_name": "Huambo", "flow": 97938.788336546932, "flow_norm": 1.0, "dist_km": 55.738832143488089, "origin_pop": 414006.09375, "dest_pop": 1053575.75, "origin_in_priority": true, "dest_in_priority": true, "both_in_priority": true }, "geometry": { "type": "LineString", "coordinates": [ [ 15.567058497277916, -13.269916924541258 ], [ 15.790140328791844, -12.818206672298729 ] ] } },
{ "type": "Feature", "properties": { "origin_code": "AGO009001", "origin_name": "Bailundo", "dest_code": "AGO009004", "dest_name": "Huambo", "flow": 55540.159255589024, "flow_norm": 0.56709052867528287, "dist_km": 96.846040406768537, "origin_pop": 437844.59375, "dest_pop": 1053575.75, "origin_in_priority": false, "dest_in_priority": true, "both_in_priority": false }, "geometry": { "type": "LineString", "coordinates": [ [ 15.844726891241717, -11.948883921019119 ], [ 15.790140328791844, -12.818206672298729 ] ] } },
{ "type": "Feature", "properties": { "origin_code": "AGO009004", "origin_name": "Huambo", "dest_code": "AGO009009", "dest_name": "Tchikala-tcholoanga", "flow": 49511.41777866608, "flow_norm": 0.50553430994602522, "dist_km": 35.865105452574021, "origin_pop": 1053575.75, "dest_pop": 156574.140625, "origin_in_priority": true, "dest_in_priority": false, "both_in_priority": false }, "geometry": { "type": "LineString", "coordinates": [ [ 15.790140328791844, -12.818206672298729 ], [ 16.08794941220836, -12.95876235013724 ] ] } },
{ "type": "Feature", "properties": { "origin_code": "AGO009004", "origin_name": "Huambo", "dest_code": "AGO009005", "dest_name": "Katchiungo", "flow": 41293.909757036497, "flow_norm": 0.42162977976752469, "dist_km": 57.306348936118098, "origin_pop": 1053575.75, "dest_pop": 178621.328125, "origin_in_priority": true, "dest_in_priority": false, "both_in_priority": false }, "geometry": { "type": "LineString", "coordinates": [ [ 15.790140328791844, -12.818206672298729 ], [ 16.315041486297751, -12.75835688837401 ] ] } },
{ "type": "Feature", "properties": { "origin_code": "AGO009003", "origin_name": "Ekunha", "dest_code": "AGO009004", "dest_name": "Huambo", "flow": 33430.487238836518, "flow_norm": 0.34134062516639863, "dist_km": 45.813234686306117, "origin_pop": 121996.625, "dest_pop": 1053575.75, "origin_in_priority": false, "dest_in_priority": true, "both_in_priority": false }, "geometry": { "type": "LineString", "coordinates": [ [ 15.485493321343711, -12.532883091090213 ], [ 15.790140328791844, -12.818206672298729 ] ] } },
{ "type": "Feature", "properties": { "origin_code": "AGO009004", "origin_name": "Huambo", "dest_code": "AGO009006", "dest_name": "Londuimbali", "flow": 31016.649236073696, "flow_norm": 0.31669423078312164, "dist_km": 84.896845164693232, "origin_pop": 1053575.75, "dest_pop": 202331.875, "origin_in_priority": true, "dest_in_priority": false, "both_in_priority": false }, "geometry": { "type": "LineString", "coordinates": [ [ 15.790140328791844, -12.818206672298729 ], [ 15.285614325747993, -12.234807707722158 ] ] } },
{ "type": "Feature", "properties": { "origin_code": "AGO009004", "origin_name": "Huambo", "dest_code": "AGO009007", "dest_name": "Longonjo", "flow": 26294.141884036835, "flow_norm": 0.26847526225954838, "dist_km": 68.757132421440147, "origin_pop": 1053575.75, "dest_pop": 136711.4375, "origin_in_priority": true, "dest_in_priority": false, "both_in_priority": false }, "geometry": { "type": "LineString", "coordinates": [ [ 15.790140328791844, -12.818206672298729 ], [ 15.217077325114705, -13.083625998532664 ] ] } },
{ "type": "Feature", "properties": { "origin_code": "AGO009001", "origin_name": "Bailundo", "dest_code": "AGO009008", "dest_name": "Mungo", "flow": 18917.853852948407, "flow_norm": 0.19315997445201191, "dist_km": 44.384512355291513, "origin_pop": 437844.59375, "dest_pop": 167923.234375, "origin_in_priority": false, "dest_in_priority": false, "both_in_priority": false }, "geometry": { "type": "LineString", "coordinates": [ [ 15.844726891241717, -11.948883921019119 ], [ 16.200648037646857, -11.753970211828747 ] ] } },
{ "type": "Feature", "properties": { "origin_code": "AGO009001", "origin_name": "Bailundo", "dest_code": "AGO009006", "dest_name": "Londuimbali", "flow": 16082.570149138504, "flow_norm": 0.16421042594353924, "dist_km": 68.603018123447271, "origin_pop": 437844.59375, "dest_pop": 202331.875, "origin_in_priority": false, "dest_in_priority": false, "both_in_priority": false }, "geometry": { "type": "LineString", "coordinates": [ [ 15.844726891241717, -11.948883921019119 ], [ 15.285614325747993, -12.234807707722158 ] ] } },
{ "type": "Feature", "properties": { "origin_code": "AGO009004", "origin_name": "Huambo", "dest_code": "AGO009011", "dest_name": "Ukuma", "flow": 15144.418955091465, "flow_norm": 0.15463147147635437, "dist_km": 70.506422733307829, "origin_pop": 1053575.75, "dest_pop": 80744.5390625, "origin_in_priority": true, "dest_in_priority": false, "both_in_priority": false }, "geometry": { "type": "LineString", "coordinates": [ [ 15.790140328791844, -12.818206672298729 ], [ 15.144435535553969, -12.7438668380398 ] ] } },
{ "type": "Feature", "properties": { "origin_code": "AGO009002", "origin_name": "Caala", "dest_code": "AGO009007", "dest_name": "Longonjo", "flow": 14915.105804409888, "flow_norm": 0.15229007891293417, "dist_km": 43.184093094611519, "origin_pop": 414006.09375, "dest_pop": 136711.4375, "origin_in_priority": true, "dest_in_priority": false, "both_in_priority": false }, "geometry": { "type": "LineString", "coordinates": [ [ 15.567058497277916, -13.269916924541258 ], [ 15.217077325114705, -13.083625998532664 ] ] } },
{ "type": "Feature", "properties": { "origin_code": "AGO009004", "origin_name": "Huambo", "dest_code": "AGO009008", "dest_name": "Mungo", "flow": 13600.625655748885, "flow_norm": 0.13886863301813651, "dist_km": 126.46356439708788, "origin_pop": 1053575.75, "dest_pop": 167923.234375, "origin_in_priority": true, "dest_in_priority": false, "both_in_priority": false }, "geometry": { "type": "LineString", "coordinates": [ [ 15.790140328791844, -12.818206672298729 ], [ 16.200648037646857, -11.753970211828747 ] ] } },
{ "type": "Feature", "properties": { "origin_code": "AGO009002", "origin_name": "Caala", "dest_code": "AGO009009", "dest_name": "Tchikala-tcholoanga", "flow": 12145.828603076649, "flow_norm": 0.12401448710331144, "dist_km": 66.175123367751056, "origin_pop": 414006.09375, "dest_pop": 156574.140625, "origin_in_priority": true, "dest_in_priority": false, "both_in_priority": false }, "geometry": { "type": "LineString", "coordinates": [ [ 15.567058497277916, -13.269916924541258 ], [ 16.08794941220836, -12.95876235013724 ] ] } },
{ "type": "Feature", "properties": { "origin_code": "AGO009001", "origin_name": "Bailundo", "dest_code": "AGO009002", "dest_name": "Caala", "flow": 9679.118510637707, "flow_norm": 0.098828244406877541, "dist_km": 149.95059138211954, "origin_pop": 437844.59375, "dest_pop": 414006.09375, "origin_in_priority": false, "dest_in_priority": true, "both_in_priority": false }, "geometry": { "type": "LineString", "coordinates": [ [ 15.844726891241717, -11.948883921019119 ], [ 15.567058497277916, -13.269916924541258 ] ] } },
{ "type": "Feature", "properties": { "origin_code": "AGO009001", "origin_name": "Bailundo", "dest_code": "AGO009003", "dest_name": "Ekunha", "flow": 8662.0554505614073, "flow_norm": 0.088443563553145019, "dist_km": 75.767953281198047, "origin_pop": 437844.59375, "dest_pop": 121996.625, "origin_in_priority": false, "dest_in_priority": false, "both_in_priority": false }, "geometry": { "type": "LineString", "coordinates": [ [ 15.844726891241717, -11.948883921019119 ], [ 15.485493321343711, -12.532883091090213 ] ] } },
{ "type": "Feature", "properties": { "origin_code": "AGO009005", "origin_name": "Katchiungo", "dest_code": "AGO009009", "dest_name": "Tchikala-tcholoanga", "flow": 8596.949422737056, "flow_norm": 0.087778801113971003, "dist_km": 33.206021148011352, "origin_pop": 178621.328125, "dest_pop": 156574.140625, "origin_in_priority": false, "dest_in_priority": false, "both_in_priority": false }, "geometry": { "type": "LineString", "coordinates": [ [ 16.315041486297751, -12.75835688837401 ], [ 16.08794941220836, -12.95876235013724 ] ] } },
{ "type": "Feature", "properties": { "origin_code": "AGO009002", "origin_name": "Caala", "dest_code": "AGO009005", "dest_name": "Katchiungo", "flow": 8538.9387082444555, "flow_norm": 0.0871864850819076, "dist_km": 99.007085475325383, "origin_pop": 414006.09375, "dest_pop": 178621.328125, "origin_in_priority": true, "dest_in_priority": false, "both_in_priority": false }, "geometry": { "type": "LineString", "coordinates": [ [ 15.567058497277916, -13.269916924541258 ], [ 16.315041486297751, -12.75835688837401 ] ] } },
{ "type": "Feature", "properties": { "origin_code": "AGO009001", "origin_name": "Bailundo", "dest_code": "AGO009005", "dest_name": "Katchiungo", "flow": 8386.9451105404805, "flow_norm": 0.085634560657626591, "dist_km": 103.49589761949456, "origin_pop": 437844.59375, "dest_pop": 178621.328125, "origin_in_priority": false, "dest_in_priority": false, "both_in_priority": false }, "geometry": { "type": "LineString", "coordinates": [ [ 15.844726891241717, -11.948883921019119 ], [ 16.315041486297751, -12.75835688837401 ] ] } },
{ "type": "Feature", "properties": { "origin_code": "AGO009002", "origin_name": "Caala", "dest_code": "AGO009003", "dest_name": "Ekunha", "flow": 7460.7038385394444, "flow_norm": 0.07617721196327483, "dist_km": 82.429985797803241, "origin_pop": 414006.09375, "dest_pop": 121996.625, "origin_in_priority": true, "dest_in_priority": false, "both_in_priority": false }, "geometry": { "type": "LineString", "coordinates": [ [ 15.567058497277916, -13.269916924541258 ], [ 15.485493321343711, -12.532883091090213 ] ] } },
{ "type": "Feature", "properties": { "origin_code": "AGO009002", "origin_name": "Caala", "dest_code": "AGO009006", "dest_name": "Londuimbali", "flow": 7179.6330782054083, "flow_norm": 0.073307350439481084, "dist_km": 119.07741873457546, "origin_pop": 414006.09375, "dest_pop": 202331.875, "origin_in_priority": true, "dest_in_priority": false, "both_in_priority": false }, "geometry": { "type": "LineString", "coordinates": [ [ 15.567058497277916, -13.269916924541258 ], [ 15.285614325747993, -12.234807707722158 ] ] } },
{ "type": "Feature", "properties": { "origin_code": "AGO009003", "origin_name": "Ekunha", "dest_code": "AGO009006", "dest_name": "Londuimbali", "flow": 6954.1461973580244, "flow_norm": 0.071005025847997019, "dist_km": 39.620876083900285, "origin_pop": 121996.625, "dest_pop": 202331.875, "origin_in_priority": false, "dest_in_priority": false, "both_in_priority": false }, "geometry": { "type": "LineString", "coordinates": [ [ 15.485493321343711, -12.532883091090213 ], [ 15.285614325747993, -12.234807707722158 ] ] } },
{ "type": "Feature", "properties": { "origin_code": "AGO009004", "origin_name": "Huambo", "dest_code": "AGO009010", "dest_name": "Tchindjenje", "flow": 6328.4438285756132, "flow_norm": 0.064616317355583264, "dist_km": 92.854695388795122, "origin_pop": 1053575.75, "dest_pop": 46866.90625, "origin_in_priority": true, "dest_in_priority": false, "both_in_priority": false }, "geometry": { "type": "LineString", "coordinates": [ [ 15.790140328791844, -12.818206672298729 ], [ 14.933737444762608, -12.817619060987274 ] ] } },
{ "type": "Feature", "properties": { "origin_code": "AGO009001", "origin_name": "Bailundo", "dest_code": "AGO009009", "dest_name": "Tchikala-tcholoanga", "flow": 6102.0790160738443, "flow_norm": 0.062305028678783306, "dist_km": 115.3569933067146, "origin_pop": 437844.59375, "dest_pop": 156574.140625, "origin_in_priority": false, "dest_in_priority": false, "both_in_priority": false }, "geometry": { "type": "LineString", "coordinates": [ [ 15.844726891241717, -11.948883921019119 ], [ 16.08794941220836, -12.95876235013724 ] ] } },
{ "type": "Feature", "properties": { "origin_code": "AGO009002", "origin_name": "Caala", "dest_code": "AGO009011", "dest_name": "Ukuma", "flow": 5531.1973033960721, "flow_norm": 0.056476064257495469, "dist_km": 74.283791077750067, "origin_pop": 414006.09375, "dest_pop": 80744.5390625, "origin_in_priority": true, "dest_in_priority": false, "both_in_priority": false }, "geometry": { "type": "LineString", "coordinates": [ [ 15.567058497277916, -13.269916924541258 ], [ 15.144435535553969, -12.7438668380398 ] ] } },
{ "type": "Feature", "properties": { "origin_code": "AGO009001", "origin_name": "Bailundo", "dest_code": "AGO009007", "dest_name": "Longonjo", "flow": 3485.2878389253242, "flow_norm": 0.035586389193920126, "dist_km": 143.3971381490347, "origin_pop": 437844.59375, "dest_pop": 136711.4375, "origin_in_priority": false, "dest_in_priority": false, "both_in_priority": false }, "geometry": { "type": "LineString", "coordinates": [ [ 15.844726891241717, -11.948883921019119 ], [ 15.217077325114705, -13.083625998532664 ] ] } },
{ "type": "Feature", "properties": { "origin_code": "AGO009006", "origin_name": "Londuimbali", "dest_code": "AGO009011", "dest_name": "Ukuma", "flow": 3430.0162047712038, "flow_norm": 0.03502204042983096, "dist_km": 58.64318908587272, "origin_pop": 202331.875, "dest_pop": 80744.5390625, "origin_in_priority": false, "dest_in_priority": false, "both_in_priority": false }, "geometry": { "type": "LineString", "coordinates": [ [ 15.285614325747993, -12.234807707722158 ], [ 15.144435535553969, -12.7438668380398 ] ] } },
{ "type": "Feature", "properties": { "origin_code": "AGO009006", "origin_name": "Londuimbali", "dest_code": "AGO009007", "dest_name": "Longonjo", "flow": 3378.847651650507, "flow_norm": 0.034499586007126992, "dist_km": 94.676856089246357, "origin_pop": 202331.875, "dest_pop": 136711.4375, "origin_in_priority": false, "dest_in_priority": false, "both_in_priority": false }, "geometry": { "type": "LineString", "coordinates": [ [ 15.285614325747993, -12.234807707722158 ], [ 15.217077325114705, -13.083625998532664 ] ] } },
{ "type": "Feature", "properties": { "origin_code": "AGO009006", "origin_name": "Londuimbali", "dest_code": "AGO009008", "dest_name": "Mungo", "flow": 3156.2479696670862, "flow_norm": 0.03222674104177474, "dist_km": 112.97797957119712, "origin_pop": 202331.875, "dest_pop": 167923.234375, "origin_in_priority": false, "dest_in_priority": false, "both_in_priority": false }, "geometry": { "type": "LineString", "coordinates": [ [ 15.285614325747993, -12.234807707722158 ], [ 16.200648037646857, -11.753970211828747 ] ] } },
{ "type": "Feature", "properties": { "origin_code": "AGO009007", "origin_name": "Longonjo", "dest_code": "AGO009011", "dest_name": "Ukuma", "flow": 3083.5185617659722, "flow_norm": 0.031484140391548253, "dist_km": 38.591189031147991, "origin_pop": 136711.4375, "dest_pop": 80744.5390625, "origin_in_priority": false, "dest_in_priority": false, "both_in_priority": false }, "geometry": { "type": "LineString", "coordinates": [ [ 15.217077325114705, -13.083625998532664 ], [ 15.144435535553969, -12.7438668380398 ] ] } },
{ "type": "Feature", "properties": { "origin_code": "AGO009001", "origin_name": "Bailundo", "dest_code": "AGO009011", "dest_name": "Ukuma", "flow": 3079.3436507441038, "flow_norm": 0.031441512632998471, "dist_km": 116.62109956489832, "origin_pop": 437844.59375, "dest_pop": 80744.5390625, "origin_in_priority": false, "dest_in_priority": false, "both_in_priority": false }, "geometry": { "type": "LineString", "coordinates": [ [ 15.844726891241717, -11.948883921019119 ], [ 15.144435535553969, -12.7438668380398 ] ] } },
{ "type": "Feature", "properties": { "origin_code": "AGO009003", "origin_name": "Ekunha", "dest_code": "AGO009007", "dest_name": "Longonjo", "flow": 3032.2979032909434, "flow_norm": 0.030961153949251058, "dist_km": 67.803788721597982, "origin_pop": 121996.625, "dest_pop": 136711.4375, "origin_in_priority": false, "dest_in_priority": false, "both_in_priority": false }, "geometry": { "type": "LineString", "coordinates": [ [ 15.485493321343711, -12.532883091090213 ], [ 15.217077325114705, -13.083625998532664 ] ] } },
{ "type": "Feature", "properties": { "origin_code": "AGO009003", "origin_name": "Ekunha", "dest_code": "AGO009009", "dest_name": "Tchikala-tcholoanga", "flow": 2873.1839648222121, "flow_norm": 0.029336527576276458, "dist_km": 80.695564326902726, "origin_pop": 121996.625, "dest_pop": 156574.140625, "origin_in_priority": false, "dest_in_priority": false, "both_in_priority": false }, "geometry": { "type": "LineString", "coordinates": [ [ 15.485493321343711, -12.532883091090213 ], [ 16.08794941220836, -12.95876235013724 ] ] } },
{ "type": "Feature", "properties": { "origin_code": "AGO009005", "origin_name": "Katchiungo", "dest_code": "AGO009008", "dest_name": "Mungo", "flow": 2803.3094701680643, "flow_norm": 0.028623076901207474, "dist_km": 112.3724294126504, "origin_pop": 178621.328125, "dest_pop": 167923.234375, "origin_in_priority": false, "dest_in_priority": false, "both_in_priority": false }, "geometry": { "type": "LineString", "coordinates": [ [ 16.315041486297751, -12.75835688837401 ], [ 16.200648037646857, -11.753970211828747 ] ] } },
{ "type": "Feature", "properties": { "origin_code": "AGO009005", "origin_name": "Katchiungo", "dest_code": "AGO009006", "dest_name": "Londuimbali", "flow": 2793.1218860473414, "flow_norm": 0.028519056989446716, "dist_km": 126.00898242529672, "origin_pop": 178621.328125, "dest_pop": 202331.875, "origin_in_priority": false, "dest_in_priority": false, "both_in_priority": false }, "geometry": { "type": "LineString", "coordinates": [ [ 16.315041486297751, -12.75835688837401 ], [ 15.285614325747993, -12.234807707722158 ] ] } },
{ "type": "Feature", "properties": { "origin_code": "AGO009002", "origin_name": "Caala", "dest_code": "AGO009010", "dest_name": "Tchindjenje", "flow": 2749.2628146952702, "flow_norm": 0.028071235731934745, "dist_km": 85.064982485468221, "origin_pop": 414006.09375, "dest_pop": 46866.90625, "origin_in_priority": true, "dest_in_priority": false, "both_in_priority": false }, "geometry": { "type": "LineString", "coordinates": [ [ 15.567058497277916, -13.269916924541258 ], [ 14.933737444762608, -12.817619060987274 ] ] } },
{ "type": "Feature", "properties": { "origin_code": "AGO009003", "origin_name": "Ekunha", "dest_code": "AGO009005", "dest_name": "Katchiungo", "flow": 2730.6041225926224, "flow_norm": 0.027880721917954009, "dist_km": 93.430784852084685, "origin_pop": 121996.625, "dest_pop": 178621.328125, "origin_in_priority": false, "dest_in_priority": false, "both_in_priority": false }, "geometry": { "type": "LineString", "coordinates": [ [ 15.485493321343711, -12.532883091090213 ], [ 16.315041486297751, -12.75835688837401 ] ] } },
{ "type": "Feature", "properties": { "origin_code": "AGO009006", "origin_name": "Londuimbali", "dest_code": "AGO009009", "dest_name": "Tchikala-tcholoanga", "flow": 2714.142292822311, "flow_norm": 0.0277126390771316, "dist_km": 118.57922002184512, "origin_pop": 202331.875, "dest_pop": 156574.140625, "origin_in_priority": false, "dest_in_priority": false, "both_in_priority": false }, "geometry": { "type": "LineString", "coordinates": [ [ 15.285614325747993, -12.234807707722158 ], [ 16.08794941220836, -12.95876235013724 ] ] } },
{ "type": "Feature", "properties": { "origin_code": "AGO009003", "origin_name": "Ekunha", "dest_code": "AGO009011", "dest_name": "Ukuma", "flow": 2569.4107758789114, "flow_norm": 0.02623486383198502, "dist_km": 43.81508032974105, "origin_pop": 121996.625, "dest_pop": 80744.5390625, "origin_in_priority": false, "dest_in_priority": false, "both_in_priority": false }, "geometry": { "type": "LineString", "coordinates": [ [ 15.485493321343711, -12.532883091090213 ], [ 15.144435535553969, -12.7438668380398 ] ] } },
{ "type": "Feature", "properties": { "origin_code": "AGO009007", "origin_name": "Longonjo", "dest_code": "AGO009009", "dest_name": "Tchikala-tcholoanga", "flow": 2558.5709820452066, "flow_norm": 0.026124184559576054, "dist_km": 95.36278305253964, "origin_pop": 136711.4375, "dest_pop": 156574.140625, "origin_in_priority": false, "dest_in_priority": false, "both_in_priority": false }, "geometry": { "type": "LineString", "coordinates": [ [ 15.217077325114705, -13.083625998532664 ], [ 16.08794941220836, -12.95876235013724 ] ] } },
{ "type": "Feature", "properties": { "origin_code": "AGO009002", "origin_name": "Caala", "dest_code": "AGO009008", "dest_name": "Mungo", "flow": 2283.3673851888625, "flow_norm": 0.023314229468946769, "dist_km": 182.05671563778191, "origin_pop": 414006.09375, "dest_pop": 167923.234375, "origin_in_priority": true, "dest_in_priority": false, "both_in_priority": false }, "geometry": { "type": "LineString", "coordinates": [ [ 15.567058497277916, -13.269916924541258 ], [ 16.200648037646857, -11.753970211828747 ] ] } },
{ "type": "Feature", "properties": { "origin_code": "AGO009005", "origin_name": "Katchiungo", "dest_code": "AGO009007", "dest_name": "Longonjo", "flow": 1904.9287986423024, "flow_norm": 0.019450197730611064, "dist_km": 124.3717586072769, "origin_pop": 178621.328125, "dest_pop": 136711.4375, "origin_in_priority": false, "dest_in_priority": false, "both_in_priority": false }, "geometry": { "type": "LineString", "coordinates": [ [ 16.315041486297751, -12.75835688837401 ], [ 15.217077325114705, -13.083625998532664 ] ] } },
{ "type": "Feature", "properties": { "origin_code": "AGO009003", "origin_name": "Ekunha", "dest_code": "AGO009008", "dest_name": "Mungo", "flow": 1798.5509291904998, "flow_norm": 0.018364030837405725, "dist_km": 116.38415657287392, "origin_pop": 121996.625, "dest_pop": 167923.234375, "origin_in_priority": false, "dest_in_priority": false, "both_in_priority": false }, "geometry": { "type": "LineString", "coordinates": [ [ 15.485493321343711, -12.532883091090213 ], [ 16.200648037646857, -11.753970211828747 ] ] } },
{ "type": "Feature", "properties": { "origin_code": "AGO009008", "origin_name": "Mungo", "dest_code": "AGO009009", "dest_name": "Tchikala-tcholoanga", "flow": 1747.8405680890371, "flow_norm": 0.017846254765608645, "dist_km": 134.52504509957825, "origin_pop": 167923.234375, "dest_pop": 156574.140625, "origin_in_priority": false, "dest_in_priority": false, "both_in_priority": false }, "geometry": { "type": "LineString", "coordinates": [ [ 16.200648037646857, -11.753970211828747 ], [ 16.08794941220836, -12.95876235013724 ] ] } },
{ "type": "Feature", "properties": { "origin_code": "AGO009007", "origin_name": "Longonjo", "dest_code": "AGO009010", "dest_name": "Tchindjenje", "flow": 1695.6630258423363, "flow_norm": 0.017313498100625175, "dist_km": 42.634114492314879, "origin_pop": 136711.4375, "dest_pop": 46866.90625, "origin_in_priority": false, "dest_in_priority": false, "both_in_priority": false }, "geometry": { "type": "LineString", "coordinates": [ [ 15.217077325114705, -13.083625998532664 ], [ 14.933737444762608, -12.817619060987274 ] ] } },
{ "type": "Feature", "properties": { "origin_code": "AGO009006", "origin_name": "Londuimbali", "dest_code": "AGO009010", "dest_name": "Tchindjenje", "flow": 1562.8271467499681, "flow_norm": 0.015957182780122082, "dist_km": 75.224182937351969, "origin_pop": 202331.875, "dest_pop": 46866.90625, "origin_in_priority": false, "dest_in_priority": false, "both_in_priority": false }, "geometry": { "type": "LineString", "coordinates": [ [ 15.285614325747993, -12.234807707722158 ], [ 14.933737444762608, -12.817619060987274 ] ] } },
{ "type": "Feature", "properties": { "origin_code": "AGO009010", "origin_name": "Tchindjenje", "dest_code": "AGO009011", "dest_name": "Ukuma", "flow": 1320.46121622593, "flow_norm": 0.013482515340994733, "dist_km": 24.275315083834279, "origin_pop": 46866.90625, "dest_pop": 80744.5390625, "origin_in_priority": false, "dest_in_priority": false, "both_in_priority": false }, "geometry": { "type": "LineString", "coordinates": [ [ 14.933737444762608, -12.817619060987274 ], [ 15.144435535553969, -12.7438668380398 ] ] } },
{ "type": "Feature", "properties": { "origin_code": "AGO009009", "origin_name": "Tchikala-tcholoanga", "dest_code": "AGO009011", "dest_name": "Ukuma", "flow": 1308.4145123622279, "flow_norm": 0.013359512962996079, "dist_km": 105.03998604105652, "origin_pop": 156574.140625, "dest_pop": 80744.5390625, "origin_in_priority": false, "dest_in_priority": false, "both_in_priority": false }, "geometry": { "type": "LineString", "coordinates": [ [ 16.08794941220836, -12.95876235013724 ], [ 15.144435535553969, -12.7438668380398 ] ] } },
{ "type": "Feature", "properties": { "origin_code": "AGO009001", "origin_name": "Bailundo", "dest_code": "AGO009010", "dest_name": "Tchindjenje", "flow": 1300.2136553903154, "flow_norm": 0.013275778447680941, "dist_km": 138.27671619290177, "origin_pop": 437844.59375, "dest_pop": 46866.90625, "origin_in_priority": false, "dest_in_priority": false, "both_in_priority": false }, "geometry": { "type": "LineString", "coordinates": [ [ 15.844726891241717, -11.948883921019119 ], [ 14.933737444762608, -12.817619060987274 ] ] } },
{ "type": "Feature", "properties": { "origin_code": "AGO009005", "origin_name": "Katchiungo", "dest_code": "AGO009011", "dest_name": "Ukuma", "flow": 1083.3545480320838, "flow_norm": 0.011061547385182609, "dist_km": 126.96559875378844, "origin_pop": 178621.328125, "dest_pop": 80744.5390625, "origin_in_priority": false, "dest_in_priority": false, "both_in_priority": false }, "geometry": { "type": "LineString", "coordinates": [ [ 16.315041486297751, -12.75835688837401 ], [ 15.144435535553969, -12.7438668380398 ] ] } },
{ "type": "Feature", "properties": { "origin_code": "AGO009003", "origin_name": "Ekunha", "dest_code": "AGO009010", "dest_name": "Tchindjenje", "flow": 1048.9857037636878, "flow_norm": 0.010710625703873929, "dist_km": 67.715032227819506, "origin_pop": 121996.625, "dest_pop": 46866.90625, "origin_in_priority": false, "dest_in_priority": false, "both_in_priority": false }, "geometry": { "type": "LineString", "coordinates": [ [ 15.485493321343711, -12.532883091090213 ], [ 14.933737444762608, -12.817619060987274 ] ] } },
{ "type": "Feature", "properties": { "origin_code": "AGO009007", "origin_name": "Longonjo", "dest_code": "AGO009008", "dest_name": "Mungo", "flow": 741.46281260571629, "flow_norm": 0.0075706757781996304, "dist_km": 182.39401888677645, "origin_pop": 136711.4375, "dest_pop": 167923.234375, "origin_in_priority": false, "dest_in_priority": false, "both_in_priority": false }, "geometry": { "type": "LineString", "coordinates": [ [ 15.217077325114705, -13.083625998532664 ], [ 16.200648037646857, -11.753970211828747 ] ] } },
{ "type": "Feature", "properties": { "origin_code": "AGO009008", "origin_name": "Mungo", "dest_code": "AGO009011", "dest_name": "Ukuma", "flow": 622.49218835056865, "flow_norm": 0.0063559310761687141, "dist_km": 159.02196488388839, "origin_pop": 167923.234375, "dest_pop": 80744.5390625, "origin_in_priority": false, "dest_in_priority": false, "both_in_priority": false }, "geometry": { "type": "LineString", "coordinates": [ [ 16.200648037646857, -11.753970211828747 ], [ 15.144435535553969, -12.7438668380398 ] ] } },
{ "type": "Feature", "properties": { "origin_code": "AGO009009", "origin_name": "Tchikala-tcholoanga", "dest_code": "AGO009010", "dest_name": "Tchindjenje", "flow": 557.50452255888217, "flow_norm": 0.0056923771676971342, "dist_km": 126.08979594702026, "origin_pop": 156574.140625, "dest_pop": 46866.90625, "origin_in_priority": false, "dest_in_priority": false, "both_in_priority": false }, "geometry": { "type": "LineString", "coordinates": [ [ 16.08794941220836, -12.95876235013724 ], [ 14.933737444762608, -12.817619060987274 ] ] } },
{ "type": "Feature", "properties": { "origin_code": "AGO009005", "origin_name": "Katchiungo", "dest_code": "AGO009010", "dest_name": "Tchindjenje", "flow": 448.54589823428125, "flow_norm": 0.0045798595822213314, "dist_km": 149.92912759478773, "origin_pop": 178621.328125, "dest_pop": 46866.90625, "origin_in_priority": false, "dest_in_priority": false, "both_in_priority": false }, "geometry": { "type": "LineString", "coordinates": [ [ 16.315041486297751, -12.75835688837401 ], [ 14.933737444762608, -12.817619060987274 ] ] } },
{ "type": "Feature", "properties": { "origin_code": "AGO009008", "origin_name": "Mungo", "dest_code": "AGO009010", "dest_name": "Tchindjenje", "flow": 259.6979046608559, "flow_norm": 0.0026516348534806897, "dist_km": 181.47919194462065, "origin_pop": 167923.234375, "dest_pop": 46866.90625, "origin_in_priority": false, "dest_in_priority": false, "both_in_priority": false }, "geometry": { "type": "LineString", "coordinates": [ [ 16.200648037646857, -11.753970211828747 ], [ 14.933737444762608, -12.817619060987274 ] ] } }
]
}
