{
"type": "FeatureCollection",
"name": "huambo_od_zone_centroids",
"crs": { "type": "name", "properties": { "name": "urn:ogc:def:crs:OGC:1.3:CRS84" } },
"features": [
{ "type": "Feature", "properties": { "ADM2CD_c": "AGO009001", "NAM_2": "Bailundo", "NAM_1": "Huambo", "lon": 15.844726891241717, "lat": -11.948883921019119, "pop": 437844.59375, "mass": 415880.32954570837, "rwi_z": -0.200658, "in_priority_mask": false }, "geometry": { "type": "Point", "coordinates": [ 15.844726891241717, -11.948883921019119 ] } },
{ "type": "Feature", "properties": { "ADM2CD_c": "AGO009002", "NAM_2": "Caala", "NAM_1": "Huambo", "lon": 15.567058497277916, "lat": -13.269916924541258, "pop": 414006.09375, "mass": 395846.19961322285, "rwi_z": -0.17545532, "in_priority_mask": true }, "geometry": { "type": "Point", "coordinates": [ 15.567058497277916, -13.269916924541258 ] } },
{ "type": "Feature", "properties": { "ADM2CD_c": "AGO009003", "NAM_2": "Ekunha", "NAM_1": "Huambo", "lon": 15.485493321343711, "lat": -12.532883091090213, "pop": 121996.625, "mass": 116427.34025747328, "rwi_z": -0.18260445, "in_priority_mask": false }, "geometry": { "type": "Point", "coordinates": [ 15.485493321343711, -12.532883091090213 ] } },
{ "type": "Feature", "properties": { "ADM2CD_c": "AGO009004", "NAM_2": "Huambo", "NAM_1": "Huambo", "lon": 15.790140328791844, "lat": -12.818206672298729, "pop": 1053575.75, "mass": 1024124.1120767297, "rwi_z": -0.11181596, "in_priority_mask": true }, "geometry": { "type": "Point", "coordinates": [ 15.790140328791844, -12.818206672298729 ] } },
{ "type": "Feature", "properties": { "ADM2CD_c": "AGO009005", "NAM_2": "Katchiungo", "NAM_1": "Huambo", "lon": 16.315041486297751, "lat": -12.75835688837401, "pop": 178621.328125, "mass": 170871.33625995833, "rwi_z": -0.1735513, "in_priority_mask": false }, "geometry": { "type": "Point", "coordinates": [ 16.315041486297751, -12.75835688837401 ] } },
{ "type": "Feature", "properties": { "ADM2CD_c": "AGO009006", "NAM_2": "Londuimbali", "NAM_1": "Huambo", "lon": 15.285614325747993, "lat": -12.234807707722158, "pop": 202331.875, "mass": 194139.58371903747, "rwi_z": -0.16195744, "in_priority_mask": false }, "geometry": { "type": "Point", "coordinates": [ 15.285614325747993, -12.234807707722158 ] } },
{ "type": "Feature", "properties": { "ADM2CD_c": "AGO009007", "NAM_2": "Longonjo", "NAM_1": "Huambo", "lon": 15.217077325114705, "lat": -13.083625998532664, "pop": 136711.4375, "mass": 129192.52747285366, "rwi_z": -0.21999365, "in_priority_mask": false }, "geometry": { "type": "Point", "coordinates": [ 15.217077325114705, -13.083625998532664 ] } },
{ "type": "Feature", "properties": { "ADM2CD_c": "AGO009008", "NAM_2": "Mungo", "NAM_1": "Huambo", "lon": 16.200648037646857, "lat": -11.753970211828747, "pop": 167923.234375, "mass": 158803.86000835616, "rwi_z": -0.21722728, "in_priority_mask": false }, "geometry": { "type": "Point", "coordinates": [ 16.200648037646857, -11.753970211828747 ] } },
{ "type": "Feature", "properties": { "ADM2CD_c": "AGO009009", "NAM_2": "Tchikala-tcholoanga", "NAM_1": "Huambo", "lon": 16.08794941220836, "lat": -12.95876235013724, "pop": 156574.140625, "mass": 148529.03798237443, "rwi_z": -0.20552824, "in_priority_mask": false }, "geometry": { "type": "Point", "coordinates": [ 16.08794941220836, -12.95876235013724 ] } },
{ "type": "Feature", "properties": { "ADM2CD_c": "AGO009010", "NAM_2": "Tchindjenje", "NAM_1": "Huambo", "lon": 14.933737444762608, "lat": -12.817619060987274, "pop": 46866.90625, "mass": 44633.084556911141, "rwi_z": -0.19065246, "in_priority_mask": false }, "geometry": { "type": "Point", "coordinates": [ 14.933737444762608, -12.817619060987274 ] } },
{ "type": "Feature", "properties": { "ADM2CD_c": "AGO009011", "NAM_2": "Ukuma", "NAM_1": "Huambo", "lon": 15.144435535553969, "lat": -12.7438668380398, "pop": 80744.5390625, "mass": 76388.259539688937, "rwi_z": -0.21580546, "in_priority_mask": false }, "geometry": { "type": "Point", "coordinates": [ 15.144435535553969, -12.7438668380398 ] } }
]
}
