{
"type": "FeatureCollection",
"name": "moxico_od_zone_centroids",
"crs": { "type": "name", "properties": { "name": "urn:ogc:def:crs:OGC:1.3:CRS84" } },
"features": [
{ "type": "Feature", "properties": { "ADM2CD_c": "AGO015002", "NAM_2": "Camanongue", "NAM_1": "Moxico", "lon": 20.234148233062182, "lat": -11.408560902264671, "pop": 50559.13671875, "mass": 48269.23540366115, "rwi_z": -0.18116619, "in_priority_mask": false }, "geometry": { "type": "Point", "coordinates": [ 20.234148233062182, -11.408560902264671 ] } },
{ "type": "Feature", "properties": { "ADM2CD_c": "AGO015004", "NAM_2": "Leua", "NAM_1": "Moxico", "lon": 20.575466459751222, "lat": -11.743383042242654, "pop": 49109.5546875, "mass": 46544.386992364191, "rwi_z": -0.20893438, "in_priority_mask": false }, "geometry": { "type": "Point", "coordinates": [ 20.575466459751222, -11.743383042242654 ] } },
{ "type": "Feature", "properties": { "ADM2CD_c": "AGO015007", "NAM_2": "Luchazes", "NAM_1": "Moxico", "lon": 19.529301909885081, "lat": -13.751174000656553, "pop": 21421.6953125, "mass": 20261.188601430971, "rwi_z": -0.21669744, "in_priority_mask": false }, "geometry": { "type": "Point", "coordinates": [ 19.529301909885081, -13.751174000656553 ] } },
{ "type": "Feature", "properties": { "ADM2CD_c": "AGO015008", "NAM_2": "Luena (moxico)", "NAM_1": "Moxico", "lon": 19.775879655763177, "lat": -12.327112853903545, "pop": 531166.75, "mass": 511420.46792069077, "rwi_z": -0.14870125, "in_priority_mask": false }, "geometry": { "type": "Point", "coordinates": [ 19.775879655763177, -12.327112853903545 ] } },
{ "type": "Feature", "properties": { "ADM2CD_c": "AGO015009", "NAM_2": "Lumbala N'guimbo", "NAM_1": "Moxico", "lon": 21.319114267909256, "lat": -14.209366406880044, "pop": 103871.2109375, "mass": 98035.466244653799, "rwi_z": -0.22472993, "in_priority_mask": false }, "geometry": { "type": "Point", "coordinates": [ 21.319114267909256, -14.209366406880044 ] } }
]
}
