{
"type": "FeatureCollection",
"name": "moxicoleste_od_flow_lines",
"crs": { "type": "name", "properties": { "name": "urn:ogc:def:crs:OGC:1.3:CRS84" } },
"features": [
{ "type": "Feature", "properties": { "origin_code": "AGO019001", "origin_name": "Alto Zambeze", "dest_code": "AGO019006", "dest_name": "Luau", "flow": 53869.735016719547, "flow_norm": 1.0, "dist_km": 175.99150418070499, "origin_pop": 164408.8125, "dest_pop": 133112.9375, "origin_in_priority": false, "dest_in_priority": false, "both_in_priority": false }, "geometry": { "type": "LineString", "coordinates": [ [ 22.908215254467759, -12.209336083052378 ], [ 21.997868306510306, -10.90182356202823 ] ] } },
{ "type": "Feature", "properties": { "origin_code": "AGO019005", "origin_name": "Luacano", "dest_code": "AGO019006", "dest_name": "Luau", "flow": 38895.335100377015, "flow_norm": 0.72202573649759128, "dist_km": 85.532150343924755, "origin_pop": 30847.67578125, "dest_pop": 133112.9375, "origin_in_priority": false, "dest_in_priority": false, "both_in_priority": false }, "geometry": { "type": "LineString", "coordinates": [ [ 22.04644781585214, -11.669554941499785 ], [ 21.997868306510306, -10.90182356202823 ] ] } },
{ "type": "Feature", "properties": { "origin_code": "AGO019001", "origin_name": "Alto Zambeze", "dest_code": "AGO019005", "dest_name": "Luacano", "flow": 32368.057839054007, "flow_norm": 0.60085793681754573, "dist_km": 111.31823335968625, "origin_pop": 164408.8125, "dest_pop": 30847.67578125, "origin_in_priority": false, "dest_in_priority": false, "both_in_priority": false }, "geometry": { "type": "LineString", "coordinates": [ [ 22.908215254467759, -12.209336083052378 ], [ 22.04644781585214, -11.669554941499785 ] ] } },
{ "type": "Feature", "properties": { "origin_code": "AGO019003", "origin_name": "Kameia Lumege", "dest_code": "AGO019006", "dest_name": "Luau", "flow": 27949.135486355332, "flow_norm": 0.51882815977618524, "dist_km": 131.29508884509414, "origin_pop": 43674.91015625, "dest_pop": 133112.9375, "origin_in_priority": false, "dest_in_priority": false, "both_in_priority": false }, "geometry": { "type": "LineString", "coordinates": [ [ 21.263851457244986, -11.837972370197786 ], [ 21.997868306510306, -10.90182356202823 ] ] } },
{ "type": "Feature", "properties": { "origin_code": "AGO019001", "origin_name": "Alto Zambeze", "dest_code": "AGO019003", "dest_name": "Kameia Lumege", "flow": 15639.802784214004, "flow_norm": 0.29032633591681634, "dist_km": 183.53883101281397, "origin_pop": 164408.8125, "dest_pop": 43674.91015625, "origin_in_priority": false, "dest_in_priority": false, "both_in_priority": false }, "geometry": { "type": "LineString", "coordinates": [ [ 22.908215254467759, -12.209336083052378 ], [ 21.263851457244986, -11.837972370197786 ] ] } },
{ "type": "Feature", "properties": { "origin_code": "AGO019003", "origin_name": "Kameia Lumege", "dest_code": "AGO019005", "dest_name": "Luacano", "flow": 12327.901057669547, "flow_norm": 0.22884651379560966, "dist_km": 87.2301144135497, "origin_pop": 43674.91015625, "dest_pop": 30847.67578125, "origin_in_priority": false, "dest_in_priority": false, "both_in_priority": false }, "geometry": { "type": "LineString", "coordinates": [ [ 21.263851457244986, -11.837972370197786 ], [ 22.04644781585214, -11.669554941499785 ] ] } }
]
}
