{
"type": "FeatureCollection",
"name": "moxico_od_flow_lines",
"crs": { "type": "name", "properties": { "name": "urn:ogc:def:crs:OGC:1.3:CRS84" } },
"features": [
{ "type": "Feature", "properties": { "origin_code": "AGO015004", "origin_name": "Leua", "dest_code": "AGO015008", "dest_name": "Luena (moxico)", "flow": 31106.756793670655, "flow_norm": 1.0, "dist_km": 108.50930912225154, "origin_pop": 49109.5546875, "dest_pop": 531166.75, "origin_in_priority": false, "dest_in_priority": false, "both_in_priority": false }, "geometry": { "type": "LineString", "coordinates": [ [ 20.575466459751222, -11.743383042242654 ], [ 19.775879655763177, -12.327112853903545 ] ] } },
{ "type": "Feature", "properties": { "origin_code": "AGO015002", "origin_name": "Camanongue", "dest_code": "AGO015008", "dest_name": "Luena (moxico)", "flow": 29860.147759389896, "flow_norm": 0.95992481496706827, "dist_km": 113.66186303019846, "origin_pop": 50559.13671875, "dest_pop": 531166.75, "origin_in_priority": false, "dest_in_priority": false, "both_in_priority": false }, "geometry": { "type": "LineString", "coordinates": [ [ 20.234148233062182, -11.408560902264671 ], [ 19.775879655763177, -12.327112853903545 ] ] } },
{ "type": "Feature", "properties": { "origin_code": "AGO015002", "origin_name": "Camanongue", "dest_code": "AGO015004", "dest_name": "Leua", "flow": 6789.7515061644644, "flow_norm": 0.21827256217035093, "dist_km": 52.616844865852052, "origin_pop": 50559.13671875, "dest_pop": 49109.5546875, "origin_in_priority": false, "dest_in_priority": false, "both_in_priority": false }, "geometry": { "type": "LineString", "coordinates": [ [ 20.234148233062182, -11.408560902264671 ], [ 20.575466459751222, -11.743383042242654 ] ] } },
{ "type": "Feature", "properties": { "origin_code": "AGO015007", "origin_name": "Luchazes", "dest_code": "AGO015008", "dest_name": "Luena (moxico)", "flow": 6200.2015948098879, "flow_norm": 0.19932009099937587, "dist_km": 160.58557560543741, "origin_pop": 21421.6953125, "dest_pop": 531166.75, "origin_in_priority": false, "dest_in_priority": false, "both_in_priority": false }, "geometry": { "type": "LineString", "coordinates": [ [ 19.529301909885081, -13.751174000656553 ], [ 19.775879655763177, -12.327112853903545 ] ] } },
{ "type": "Feature", "properties": { "origin_code": "AGO015008", "origin_name": "Luena (moxico)", "dest_code": "AGO015009", "dest_name": "Lumbala N'guimbo", "flow": 6010.5686737657288, "flow_norm": 0.19322389388368219, "dist_km": 267.76454831514781, "origin_pop": 531166.75, "dest_pop": 103871.2109375, "origin_in_priority": false, "dest_in_priority": false, "both_in_priority": false }, "geometry": { "type": "LineString", "coordinates": [ [ 19.775879655763177, -12.327112853903545 ], [ 21.319114267909256, -14.209366406880044 ] ] } },
{ "type": "Feature", "properties": { "origin_code": "AGO015007", "origin_name": "Luchazes", "dest_code": "AGO015009", "dest_name": "Lumbala N'guimbo", "flow": 660.70881338595575, "flow_norm": 0.021240041762257623, "dist_km": 199.72964865026489, "origin_pop": 21421.6953125, "dest_pop": 103871.2109375, "origin_in_priority": false, "dest_in_priority": false, "both_in_priority": false }, "geometry": { "type": "LineString", "coordinates": [ [ 19.529301909885081, -13.751174000656553 ], [ 21.319114267909256, -14.209366406880044 ] ] } },
{ "type": "Feature", "properties": { "origin_code": "AGO015004", "origin_name": "Leua", "dest_code": "AGO015009", "dest_name": "Lumbala N'guimbo", "flow": 417.37915228732766, "flow_norm": 0.013417636401498871, "dist_km": 285.79747687658499, "origin_pop": 49109.5546875, "dest_pop": 103871.2109375, "origin_in_priority": false, "dest_in_priority": false, "both_in_priority": false }, "geometry": { "type": "LineString", "coordinates": [ [ 20.575466459751222, -11.743383042242654 ], [ 21.319114267909256, -14.209366406880044 ] ] } },
{ "type": "Feature", "properties": { "origin_code": "AGO015002", "origin_name": "Camanongue", "dest_code": "AGO015009", "dest_name": "Lumbala N'guimbo", "flow": 213.51581099359959, "flow_norm": 0.0068639688929912493, "dist_km": 332.9089538084441, "origin_pop": 50559.13671875, "dest_pop": 103871.2109375, "origin_in_priority": false, "dest_in_priority": false, "both_in_priority": false }, "geometry": { "type": "LineString", "coordinates": [ [ 20.234148233062182, -11.408560902264671 ], [ 21.319114267909256, -14.209366406880044 ] ] } },
{ "type": "Feature", "properties": { "origin_code": "AGO015004", "origin_name": "Leua", "dest_code": "AGO015007", "dest_name": "Luchazes", "flow": 146.62523137829436, "flow_norm": 0.0047136135840470661, "dist_km": 250.43034438527783, "origin_pop": 49109.5546875, "dest_pop": 21421.6953125, "origin_in_priority": false, "dest_in_priority": false, "both_in_priority": false }, "geometry": { "type": "LineString", "coordinates": [ [ 20.575466459751222, -11.743383042242654 ], [ 19.529301909885081, -13.751174000656553 ] ] } },
{ "type": "Feature", "properties": { "origin_code": "AGO015002", "origin_name": "Camanongue", "dest_code": "AGO015007", "dest_name": "Luchazes", "flow": 110.88062912065318, "flow_norm": 0.0035645191125554514, "dist_km": 271.48458898369336, "origin_pop": 50559.13671875, "dest_pop": 21421.6953125, "origin_in_priority": false, "dest_in_priority": false, "both_in_priority": false }, "geometry": { "type": "LineString", "coordinates": [ [ 20.234148233062182, -11.408560902264671 ], [ 19.529301909885081, -13.751174000656553 ] ] } }
]
}
